{
  "type": "FeatureCollection",
  "name": "pt_boundary",
  "crs": {
    "type": "name",
    "properties": {
      "name": "urn:ogc:def:crs:OGC:1.3:CRS84"
    }
  },
  "features": [
    {
      "type": "Feature",
      "properties": {
        "Id": 0,
        "Luas": 1727.608102,
        "No": "NIB. 17.04.00.00.00021"
      },
      "geometry": {
        "type": "Polygon",
        "coordinates": [
          [
            [
              115.0729716580042,
              -2.811205600296478
            ],
            [
              115.11017861156955,
              -2.793226951499035
            ],
            [
              115.12368927478381,
              -2.803654134652322
            ],
            [
              115.12520663194562,
              -2.805352298127208
            ],
            [
              115.12898619295935,
              -2.812411910475929
            ],
            [
              115.12796156069984,
              -2.81289682892702
            ],
            [
              115.12624291727793,
              -2.813710195768635
            ],
            [
              115.12287379698932,
              -2.815145377056973
            ],
            [
              115.11951304219428,
              -2.816580875806716
            ],
            [
              115.11614169608357,
              -2.81801202723272
            ],
            [
              115.11279922720385,
              -2.819488968541
            ],
            [
              115.1094436156316,
              -2.820838868918139
            ],
            [
              115.11057008844003,
              -2.822276520644651
            ],
            [
              115.10833314895666,
              -2.823615559910187
            ],
            [
              115.10790369030445,
              -2.825782423319651
            ],
            [
              115.11007944171426,
              -2.828599902163191
            ],
            [
              115.1100405028682,
              -2.831938199987226
            ],
            [
              115.11038151769428,
              -2.834261835015233
            ],
            [
              115.107017018122,
              -2.836386342155487
            ],
            [
              115.10470637649922,
              -2.834898048705315
            ],
            [
              115.1013712272015,
              -2.835333108336267
            ],
            [
              115.10053709161475,
              -2.831885828867136
            ],
            [
              115.09715124663374,
              -2.830583097930686
            ],
            [
              115.09488994541572,
              -2.828507876336518
            ],
            [
              115.08995271504706,
              -2.829300409286124
            ],
            [
              115.08721806915995,
              -2.83149242223725
            ],
            [
              115.0863745563418,
              -2.835331907740954
            ],
            [
              115.08519159082043,
              -2.839151990371181
            ],
            [
              115.0820116375284,
              -2.83741102160138
            ],
            [
              115.07713929954042,
              -2.834756939680572
            ],
            [
              115.07648314428305,
              -2.831176899593623
            ],
            [
              115.07582357160182,
              -2.82761325864475
            ],
            [
              115.07517298764455,
              -2.824049634782099
            ],
            [
              115.07450441634691,
              -2.820485983041169
            ],
            [
              115.0738718107368,
              -2.816922393353248
            ],
            [
              115.07330214957584,
              -2.813358909785165
            ],
            [
              115.0729716580042,
              -2.811205600296478
            ]
          ]
        ]
      }
    },
    {
      "type": "Feature",
      "properties": {
        "Id": 0,
        "Luas": 1105.97644032,
        "No": "NIB. 17.04.00.00.00020"
      },
      "geometry": {
        "type": "Polygon",
        "coordinates": [
          [
            [
              115.12512373423999,
              -2.803588615304309
            ],
            [
              115.12398160287147,
              -2.802454529489286
            ],
            [
              115.11125975921952,
              -2.792927067999239
            ],
            [
              115.15067219837364,
              -2.773610303833254
            ],
            [
              115.1529416806825,
              -2.783659852980236
            ],
            [
              115.15316972727693,
              -2.789140409104222
            ],
            [
              115.15420559088398,
              -2.791124519611913
            ],
            [
              115.15420456186278,
              -2.796085965903333
            ],
            [
              115.15457028501916,
              -2.797192891163376
            ],
            [
              115.15630094924424,
              -2.79981657970256
            ],
            [
              115.15635161217982,
              -2.800491652153591
            ],
            [
              115.12989289035019,
              -2.811942158116824
            ],
            [
              115.12594464828692,
              -2.804473774799126
            ],
            [
              115.12512373423999,
              -2.803588615304309
            ]
          ]
        ]
      }
    },
    {
      "type": "Feature",
      "properties": {
        "Id": 0,
        "Luas": 814.723542909,
        "No": "NIB. 17.04.00.00.00019"
      },
      "geometry": {
        "type": "Polygon",
        "coordinates": [
          [
            [
              115.1575686998876,
              -2.800202457103291
            ],
            [
              115.15742333600235,
              -2.799526158477422
            ],
            [
              115.15530561570719,
              -2.796194913069023
            ],
            [
              115.15530561570719,
              -2.790960098855514
            ],
            [
              115.15435383130466,
              -2.78910411927154
            ],
            [
              115.1541634744242,
              -2.783464796687892
            ],
            [
              115.1517514718256,
              -2.772870902914741
            ],
            [
              115.17034082160596,
              -2.763822639122737
            ],
            [
              115.17083784009486,
              -2.76465624717093
            ],
            [
              115.17203708844174,
              -2.766739465281706
            ],
            [
              115.17362389626014,
              -2.76877360786101
            ],
            [
              115.17647924946715,
              -2.771926393693308
            ],
            [
              115.18065959232345,
              -2.776075376079908
            ],
            [
              115.17879943344805,
              -2.779590477618046
            ],
            [
              115.17678897203454,
              -2.783064633325919
            ],
            [
              115.17412044969984,
              -2.787076742797583
            ],
            [
              115.17284554084908,
              -2.790666337834398
            ],
            [
              115.17267004360195,
              -2.793162217939881
            ],
            [
              115.17231463261538,
              -2.79654515513448
            ],
            [
              115.1575686998876,
              -2.800202457103291
            ]
          ]
        ]
      }
    },
    {
      "type": "Feature",
      "properties": {
        "Id": 0,
        "Luas": 268.776772854,
        "No": "NIB. 17.04.00.00.00018"
      },
      "geometry": {
        "type": "Polygon",
        "coordinates": [
          [
            [
              115.17142865120267,
              -2.763322454976776
            ],
            [
              115.18579463828699,
              -2.756462147790901
            ],
            [
              115.1852739361441,
              -2.758147099408679
            ],
            [
              115.18810302163797,
              -2.760581519221877
            ],
            [
              115.19108657198865,
              -2.763332255778554
            ],
            [
              115.19225153398223,
              -2.768075992512422
            ],
            [
              115.19104641186323,
              -2.768967521933059
            ],
            [
              115.18589909716661,
              -2.77255633220829
            ],
            [
              115.1833406635416,
              -2.77435486478453
            ],
            [
              115.18164428366687,
              -2.775518597649802
            ],
            [
              115.17711556300678,
              -2.771055703245568
            ],
            [
              115.17475989661061,
              -2.768438296139265
            ],
            [
              115.17280873858593,
              -2.766011245912973
            ],
            [
              115.17142865120267,
              -2.763322454976776
            ]
          ]
        ]
      }
    },
    {
      "type": "Feature",
      "properties": {
        "Id": 0,
        "Luas": 3782.42003063,
        "No": "NIB. 17.04.00.00.00009"
      },
      "geometry": {
        "type": "Polygon",
        "coordinates": [
          [
            [
              115.07573329858675,
              -2.791926877251168
            ],
            [
              115.07594535059874,
              -2.790444422372273
            ],
            [
              115.07484360195222,
              -2.787230379378328
            ],
            [
              115.07474972104542,
              -2.786941444076994
            ],
            [
              115.07398455619771,
              -2.784586512241729
            ],
            [
              115.07348673003011,
              -2.783054363067993
            ],
            [
              115.07363627739355,
              -2.779433975797475
            ],
            [
              115.07381299057839,
              -2.775817474496757
            ],
            [
              115.07388993426885,
              -2.774258337035008
            ],
            [
              115.07395481439866,
              -2.772943647806177
            ],
            [
              115.07419265880783,
              -2.771292673804965
            ],
            [
              115.07447759409317,
              -2.771017519561601
            ],
            [
              115.08532512890488,
              -2.763240859178939
            ],
            [
              115.08585631391888,
              -2.762870846911021
            ],
            [
              115.08881800714676,
              -2.760814051526717
            ],
            [
              115.091742524648,
              -2.758805991322778
            ],
            [
              115.09455385980935,
              -2.756597893149764
            ],
            [
              115.09748059684658,
              -2.754392132796966
            ],
            [
              115.10041542405116,
              -2.752161626050109
            ],
            [
              115.10309756938486,
              -2.749952592147567
            ],
            [
              115.10598806303389,
              -2.747787089307622
            ],
            [
              115.10885769300675,
              -2.745602744104404
            ],
            [
              115.11177015327775,
              -2.743361291837108
            ],
            [
              115.11463978325061,
              -2.741219776931743
            ],
            [
              115.11757342072475,
              -2.739025993199899
            ],
            [
              115.12039070255594,
              -2.736884478294544
            ],
            [
              115.1231578570746,
              -2.734513266087097
            ],
            [
              115.12578861230543,
              -2.732132428238843
            ],
            [
              115.12843457294397,
              -2.729676824480967
            ],
            [
              115.12978610679542,
              -2.728192040812691
            ],
            [
              115.13096396763329,
              -2.72689657467253
            ],
            [
              115.13288889335215,
              -2.723985133233314
            ],
            [
              115.13332075795591,
              -2.723455756351087
            ],
            [
              115.13586963098402,
              -2.726025864308215
            ],
            [
              115.13838234180609,
              -2.728638512492567
            ],
            [
              115.1408766118057,
              -2.731182156307569
            ],
            [
              115.14355350543705,
              -2.733716282279148
            ],
            [
              115.14578965150625,
              -2.736032021319264
            ],
            [
              115.14901957340828,
              -2.735911238108657
            ],
            [
              115.15200319149506,
              -2.733850612115463
            ],
            [
              115.15505452194974,
              -2.731911212432354
            ],
            [
              115.15701672664169,
              -2.730666386144542
            ],
            [
              115.16039965781884,
              -2.729450867863296
            ],
            [
              115.16379159390802,
              -2.728226306898238
            ],
            [
              115.16718352909737,
              -2.727001730645487
            ],
            [
              115.17057546248842,
              -2.725777140901745
            ],
            [
              115.17395840265912,
              -2.724552522381143
            ],
            [
              115.17735034774154,
              -2.723318861175816
            ],
            [
              115.18073329870359,
              -2.722085172093107
            ],
            [
              115.18416112853416,
              -2.720905792168185
            ],
            [
              115.18757093235375,
              -2.719753498924535
            ],
            [
              115.18853359275192,
              -2.719429419231804
            ],
            [
              115.19009339399577,
              -2.722687102727371
            ],
            [
              115.19165320063563,
              -2.725944788920519
            ],
            [
              115.19242210998414,
              -2.727501488291629
            ],
            [
              115.19246110361007,
              -2.727580433037933
            ],
            [
              115.19317898142572,
              -2.729033816257015
            ],
            [
              115.19465680406924,
              -2.728213318889171
            ],
            [
              115.1964646671115,
              -2.73161272204924
            ],
            [
              115.19757814519548,
              -2.733683643371021
            ],
            [
              115.18716201862969,
              -2.738425312927122
            ],
            [
              115.16087148334212,
              -2.750625638022483
            ],
            [
              115.14667045797538,
              -2.757577436202603
            ],
            [
              115.134771249278,
              -2.763492538365878
            ],
            [
              115.11839274846469,
              -2.771599069431422
            ],
            [
              115.07573329858675,
              -2.791926877251168
            ]
          ]
        ]
      }
    },
    {
      "type": "Feature",
      "properties": {
        "Id": 0,
        "Luas": 452.004732185,
        "No": "NIB. 17.04.00.00.00012"
      },
      "geometry": {
        "type": "Polygon",
        "coordinates": [
          [
            [
              115.19957400514963,
              -2.737364404744305
            ],
            [
              115.12048027458161,
              -2.775424966818254
            ],
            [
              115.11865393373343,
              -2.771799828601155
            ],
            [
              115.12535274909659,
              -2.768602313594786
            ],
            [
              115.14349687978714,
              -2.759649943783181
            ],
            [
              115.15495941267862,
              -2.753862207275234
            ],
            [
              115.17071382400178,
              -2.746504437951442
            ],
            [
              115.1977411301312,
              -2.733939376845679
            ],
            [
              115.19817747091449,
              -2.734798309593769
            ],
            [
              115.19957400514963,
              -2.737364404744305
            ]
          ]
        ]
      }
    },
    {
      "type": "Feature",
      "properties": {
        "Id": 0,
        "Luas": 90.2257954752,
        "No": "NIB. 17.04.00.00.00011"
      },
      "geometry": {
        "type": "Polygon",
        "coordinates": [
          [
            [
              115.10401491175361,
              -2.78324079634058
            ],
            [
              115.1022008067168,
              -2.779583289153374
            ],
            [
              115.11843202236449,
              -2.771895201071399
            ],
            [
              115.12026365213124,
              -2.775545849461651
            ],
            [
              115.10401491175361,
              -2.78324079634058
            ]
          ]
        ]
      }
    },
    {
      "type": "Feature",
      "properties": {
        "Id": 0,
        "Luas": 155.120840827,
        "No": "NIB. 17.04.00.00.00010"
      },
      "geometry": {
        "type": "Polygon",
        "coordinates": [
          [
            [
              115.1037736005463,
              -2.783354572294685
            ],
            [
              115.0748334161293,
              -2.797370305465843
            ],
            [
              115.07542577987701,
              -2.794076738250624
            ],
            [
              115.07567713144383,
              -2.792345020429353
            ],
            [
              115.10198695265883,
              -2.779696462267111
            ],
            [
              115.1037736005463,
              -2.783354572294685
            ]
          ]
        ]
      }
    },
    {
      "type": "Feature",
      "properties": {
        "Id": 0,
        "Luas": 202.082944944,
        "No": "NIB. 17.04.00.00.00015"
      },
      "geometry": {
        "type": "Polygon",
        "coordinates": [
          [
            [
              115.10597315089589,
              -2.787855832510094
            ],
            [
              115.07359044704272,
              -2.803493272296224
            ],
            [
              115.07372083884691,
              -2.79994075775994
            ],
            [
              115.07468821560744,
              -2.797771954188192
            ],
            [
              115.10386506741766,
              -2.783494042540493
            ],
            [
              115.10597315089589,
              -2.787855832510094
            ]
          ]
        ]
      }
    },
    {
      "type": "Feature",
      "properties": {
        "Id": 0,
        "Luas": 251.887235303,
        "No": "NIB. 17.04.00.00.00016"
      },
      "geometry": {
        "type": "Polygon",
        "coordinates": [
          [
            [
              115.10849891306128,
              -2.793009214627542
            ],
            [
              115.07305584993786,
              -2.809897161511785
            ],
            [
              115.07325011030558,
              -2.806975137891635
            ],
            [
              115.0735638648624,
              -2.803745065081781
            ],
            [
              115.10605334269742,
              -2.788039987919998
            ],
            [
              115.10849891306128,
              -2.793009214627542
            ]
          ]
        ]
      }
    },
    {
      "type": "Feature",
      "properties": {
        "Id": 0,
        "Luas": 457.939473767,
        "No": "NIB. 17.04.00.00.00013"
      },
      "geometry": {
        "type": "Polygon",
        "coordinates": [
          [
            [
              115.18563295853495,
              -2.748835383630191
            ],
            [
              115.17661444440176,
              -2.753160589388232
            ],
            [
              115.16780305243465,
              -2.75750608005136
            ],
            [
              115.15832994227627,
              -2.76222776349914
            ],
            [
              115.15125551338805,
              -2.765808024489618
            ],
            [
              115.14657832586207,
              -2.768360194706478
            ],
            [
              115.13535425209606,
              -2.773706632188799
            ],
            [
              115.1280883687251,
              -2.777131541408824
            ],
            [
              115.12251781103667,
              -2.779697017695975
            ],
            [
              115.12059370203838,
              -2.775648257277225
            ],
            [
              115.12587444472557,
              -2.773169644203791
            ],
            [
              115.14245555517964,
              -2.765151478431096
            ],
            [
              115.15245071665151,
              -2.760222001832059
            ],
            [
              115.16106224534292,
              -2.756040222121998
            ],
            [
              115.17234297254157,
              -2.750596610204853
            ],
            [
              115.18352624098318,
              -2.745249564746244
            ],
            [
              115.19358267520123,
              -2.74039615894253
            ],
            [
              115.19966692310183,
              -2.737532295547228
            ],
            [
              115.20008464429164,
              -2.738311956331916
            ],
            [
              115.20254035751837,
              -2.740843904353818
            ],
            [
              115.19900312409581,
              -2.741925145428922
            ],
            [
              115.19561119070485,
              -2.74309555011904
            ],
            [
              115.19246110361007,
              -2.744187479222095
            ],
            [
              115.1921993822964,
              -2.744278200877935
            ],
            [
              115.18914996110287,
              -2.746160213023352
            ],
            [
              115.18563295853495,
              -2.748835383630191
            ]
          ]
        ]
      }
    },
    {
      "type": "Feature",
      "properties": {
        "Id": 0,
        "Luas": 103.839693944,
        "No": "NIB. 17.04.00.00.00014"
      },
      "geometry": {
        "type": "Polygon",
        "coordinates": [
          [
            [
              115.1061863346384,
              -2.787752122741949
            ],
            [
              115.10407224302114,
              -2.78338979342651
            ],
            [
              115.12037254235611,
              -2.775710880148379
            ],
            [
              115.12235285326949,
              -2.779776718622077
            ],
            [
              115.1061863346384,
              -2.787752122741949
            ]
          ]
        ]
      }
    },
    {
      "type": "Feature",
      "properties": {
        "Id": 0,
        "Luas": 594.465531769,
        "No": "NIB. 17.04.00.00.00017"
      },
      "geometry": {
        "type": "Polygon",
        "coordinates": [
          [
            [
              115.10867174590923,
              -2.792779990361382
            ],
            [
              115.10636780057332,
              -2.787903924875074
            ],
            [
              115.12260541746035,
              -2.779993375619145
            ],
            [
              115.14679629829246,
              -2.768556009420077
            ],
            [
              115.15113329889516,
              -2.766190985036702
            ],
            [
              115.16416332408558,
              -2.759592580858225
            ],
            [
              115.17730705257092,
              -2.753101233545284
            ],
            [
              115.18462815207376,
              -2.749541664476506
            ],
            [
              115.18519759861807,
              -2.75062745808281
            ],
            [
              115.18670783679828,
              -2.753507108466231
            ],
            [
              115.18611279559617,
              -2.755432615496373
            ],
            [
              115.16075739313293,
              -2.767543786708298
            ],
            [
              115.15158129919666,
              -2.772148043754885
            ],
            [
              115.14654354498138,
              -2.774550638745952
            ],
            [
              115.13896734113844,
              -2.77818645516344
            ],
            [
              115.11153979885859,
              -2.791402077729334
            ],
            [
              115.10867174590923,
              -2.792779990361382
            ]
          ]
        ]
      }
    }
  ]
}