{
"type": "FeatureCollection",
"name": "pt_pas_boundary",
"crs": { "type": "name", "properties": { "name": "urn:ogc:def:crs:OGC:1.3:CRS84" } },
"features": [
{ "type": "Feature", "properties": { "Id": 0, "Luas": 1906.68774985 }, "geometry": { "type": "Polygon", "coordinates": [ [ [ 114.838722000021434, -2.872477999982273 ], [ 114.84251500001038, -2.87360699997654 ], [ 114.845409000022187, -2.874199999995215 ], [ 114.852514999996487, -2.872830000005999 ], [ 114.852873000010632, -2.873824999981803 ], [ 114.84983400000263, -2.873791999977912 ], [ 114.85036100000805, -2.87551099998423 ], [ 114.850907949318128, -2.877395170904703 ], [ 114.852157000019574, -2.881698000007988 ], [ 114.853371000014405, -2.886075999985471 ], [ 114.852868000004293, -2.890622999998793 ], [ 114.853012000009983, -2.895332999990027 ], [ 114.853588000004038, -2.899736999981115 ], [ 114.853679000014992, -2.904231000008005 ], [ 114.854722000008607, -2.90869899999611 ], [ 114.855892000024909, -2.91320300000788 ], [ 114.851655999996737, -2.913547999982645 ], [ 114.847114999999292, -2.913574999992144 ], [ 114.84271800002152, -2.913349999998689 ], [ 114.842800000008666, -2.917942999975915 ], [ 114.842764000014299, -2.922644000006416 ], [ 114.842827000010217, -2.927209000004156 ], [ 114.842863000025119, -2.931729999994859 ], [ 114.842638999996623, -2.936285999975202 ], [ 114.837952000019115, -2.937116999999744 ], [ 114.837641000023652, -2.940090999997444 ], [ 114.830600000019984, -2.939933000000791 ], [ 114.831873000010447, -2.937349999986494 ], [ 114.833428000006847, -2.937515000007937 ], [ 114.83347800000432, -2.934839999987063 ], [ 114.823749999997233, -2.934566999988964 ], [ 114.826839000027732, -2.936805999980987 ], [ 114.825516000003063, -2.937038999983849 ], [ 114.825083000012526, -2.937915000004161 ], [ 114.821501000021087, -2.939787999994657 ], [ 114.816916999998497, -2.938793999980824 ], [ 114.817448999999641, -2.937917999993207 ], [ 114.815383000027495, -2.936739000005074 ], [ 114.816518000012849, -2.935583999984552 ], [ 114.81292000001649, -2.931535999978548 ], [ 114.814870000007076, -2.927443999988312 ], [ 114.816820999997162, -2.923362000008168 ], [ 114.818726000003778, -2.919270000001314 ], [ 114.820622000012648, -2.915195999981614 ], [ 114.822463999997481, -2.910932999984071 ], [ 114.824253000022111, -2.906759999984737 ], [ 114.826122000010827, -2.902667999984446 ], [ 114.828009000005466, -2.898548999992933 ], [ 114.829905000027139, -2.894465999999538 ], [ 114.831774000005296, -2.89066399998619 ], [ 114.831739698871417, -2.890430782229422 ], [ 114.831749691492277, -2.890354885346146 ], [ 114.831797508481827, -2.890230593362601 ], [ 114.831897814203302, -2.890027466249972 ], [ 114.831952822751347, -2.889874484088046 ], [ 114.832024502712358, -2.889711965918904 ], [ 114.832488092498537, -2.888629280890218 ], [ 114.832632973624513, -2.888294793452205 ], [ 114.832836960895236, -2.887823846793136 ], [ 114.833221681739758, -2.886929976977786 ], [ 114.833353154276736, -2.886600133122817 ], [ 114.833585144306639, -2.885954737902578 ], [ 114.83378834988099, -2.885433671268259 ], [ 114.834041791052783, -2.884766788642869 ], [ 114.834261870911632, -2.884128545900674 ], [ 114.834429385328406, -2.883609802385227 ], [ 114.834687641906172, -2.882911832211337 ], [ 114.834950701176083, -2.882189950903763 ], [ 114.835278224117673, -2.881346200367754 ], [ 114.835655918093465, -2.880390121072213 ], [ 114.836079033675077, -2.879316919713496 ], [ 114.836526059907925, -2.878179179090619 ], [ 114.836819666690829, -2.877404844058066 ], [ 114.836915780548878, -2.877151360556888 ], [ 114.83702577027006, -2.876857353688813 ], [ 114.837178956489225, -2.876364892703388 ], [ 114.837468431615648, -2.875509106452216 ], [ 114.837805761017449, -2.874507498551997 ], [ 114.83819308009862, -2.87348924116376 ], [ 114.838338843787184, -2.873147461567618 ], [ 114.83840815030149, -2.872980152946178 ], [ 114.838544505706722, -2.872580947164313 ], [ 114.838580406912314, -2.872466199107873 ], [ 114.838585027438782, -2.872428844633462 ], [ 114.838722000021434, -2.872477999982273 ] ] ] } },
{ "type": "Feature", "properties": { "Id": 0, "Luas": 7325.73748626 }, "geometry": { "type": "Polygon", "coordinates": [ [ [ 114.909596417236514, -2.736462737633703 ], [ 114.90276341719192, -2.736874737705524 ], [ 114.896064417141204, -2.737025737747741 ], [ 114.896110417200262, -2.741709737786028 ], [ 114.896451417243753, -2.74724273782613 ], [ 114.895936417290372, -2.753697737882714 ], [ 114.89594441735521, -2.759582737938048 ], [ 114.900459417422269, -2.763695737916987 ], [ 114.905100417503647, -2.76798073792025 ], [ 114.91072641755882, -2.769075737872729 ], [ 114.914247417593629, -2.771386737854187 ], [ 114.917692417672328, -2.775868737843258 ], [ 114.914644417646315, -2.775862737882035 ], [ 114.908494417586908, -2.775779737941499 ], [ 114.902506417561298, -2.775705737977505 ], [ 114.896769417504515, -2.775749738038916 ], [ 114.891510417457212, -2.775695738077023 ], [ 114.886942417424336, -2.775723738130314 ], [ 114.876045417345864, -2.775667738240597 ], [ 114.871855417285076, -2.775641738285185 ], [ 114.867540417280509, -2.775679738295386 ], [ 114.867531417311127, -2.780208738329848 ], [ 114.867623417349094, -2.784376738372961 ], [ 114.86762441738702, -2.788788738401033 ], [ 114.867535417441616, -2.793227738441482 ], [ 114.867401417453664, -2.797729738475921 ], [ 114.867402417526051, -2.80237673851813 ], [ 114.867501417537795, -2.806797738534889 ], [ 114.86756241761961, -2.813126738595309 ], [ 114.862966417613393, -2.818976738677771 ], [ 114.860998417639635, -2.823330738731323 ], [ 114.852972417598721, -2.826009738804504 ], [ 114.855410417721885, -2.835009738850337 ], [ 114.86346341774248, -2.832068738776675 ], [ 114.862704417721957, -2.829444738759471 ], [ 114.867380417768402, -2.829299738723313 ], [ 114.867470417814076, -2.833684738725779 ], [ 114.873674417856364, -2.833813738691907 ], [ 114.879249417911794, -2.833679738624391 ], [ 114.879191417907137, -2.835957738657968 ], [ 114.882580417949384, -2.836226738616119 ], [ 114.886582417966309, -2.835998738571882 ], [ 114.88652341801297, -2.83861173860896 ], [ 114.886811418043138, -2.843647738620914 ], [ 114.886882418109778, -2.849162738675703 ], [ 114.882368418052366, -2.849181738727584 ], [ 114.879293418042778, -2.849121738730744 ], [ 114.879194418098081, -2.854039738775152 ], [ 114.879257418118058, -2.858849738804897 ], [ 114.879294418159674, -2.863125738858382 ], [ 114.879321418233715, -2.867881738891576 ], [ 114.879257418263421, -2.873658738921187 ], [ 114.879298418341818, -2.880737738994841 ], [ 114.878133418359297, -2.883501738994235 ], [ 114.877531418400679, -2.887948739036184 ], [ 114.873438418463607, -2.898491739167252 ], [ 114.871909418511322, -2.903578739204791 ], [ 114.871109418546354, -2.908169739270093 ], [ 114.868970418568452, -2.912098739327616 ], [ 114.863925418509297, -2.91248673934755 ], [ 114.862396418464201, -2.908044739347361 ], [ 114.86028141840751, -2.904053739346436 ], [ 114.859552418373696, -2.89989373932471 ], [ 114.859210418314191, -2.89527373927586 ], [ 114.858930418266624, -2.890797739248721 ], [ 114.859056418222494, -2.886196739199558 ], [ 114.858633418180119, -2.881647739181927 ], [ 114.856495418100849, -2.875712739169784 ], [ 114.855626418088121, -2.873848739170628 ], [ 114.853423418062647, -2.87382673915796 ], [ 114.852851418050008, -2.872252739152826 ], [ 114.845430418006075, -2.873684739240979 ], [ 114.842653417969942, -2.873110739278976 ], [ 114.838887417938793, -2.871990739317603 ], [ 114.838760364071717, -2.871945503237188 ], [ 114.838852329548587, -2.871833551836581 ], [ 114.83896447601974, -2.871656756465656 ], [ 114.839045695272631, -2.871479902276161 ], [ 114.839198842410298, -2.871006575767202 ], [ 114.83939736131606, -2.870442439017014 ], [ 114.83956477296276, -2.869973923346724 ], [ 114.839789630992314, -2.869318939920205 ], [ 114.839949900495952, -2.868852802391637 ], [ 114.839999074545489, -2.868732095946804 ], [ 114.840068617143558, -2.868561391185301 ], [ 114.840081352231621, -2.868530130618946 ], [ 114.840224856008433, -2.86812376130263 ], [ 114.840439833045195, -2.867662511239629 ], [ 114.840537852549502, -2.867406752076064 ], [ 114.840690867308979, -2.867002792512193 ], [ 114.840793707423586, -2.866713554230387 ], [ 114.840978912475649, -2.86626671361204 ], [ 114.841025520535169, -2.866154263137354 ], [ 114.841195201159195, -2.865743158791496 ], [ 114.841331441030576, -2.86540375131633 ], [ 114.841438948946575, -2.865162361815661 ], [ 114.841551259609957, -2.864897061247748 ], [ 114.841615828802887, -2.864717782645908 ], [ 114.841694712301546, -2.864517003022987 ], [ 114.841707417882233, -2.864275739198634 ], [ 114.842416417848412, -2.860154739169637 ], [ 114.842263417807914, -2.855534739137072 ], [ 114.842209417752258, -2.850724739114034 ], [ 114.842342417725462, -2.846701739060364 ], [ 114.842405417661155, -2.842082739038258 ], [ 114.842189417642516, -2.837244739016253 ], [ 114.842485417591092, -2.833023738967253 ], [ 114.842457417538256, -2.828358738924968 ], [ 114.842268417504414, -2.823566738915312 ], [ 114.842348417457274, -2.819462738882038 ], [ 114.842518417435983, -2.814680738823787 ], [ 114.842509417377556, -2.81011473879124 ], [ 114.842562417343288, -2.805820738778909 ], [ 114.842633417312499, -2.801508738733493 ], [ 114.842867417271947, -2.796282738707834 ], [ 114.843026417226497, -2.792657738670631 ], [ 114.843118417183277, -2.786998738626837 ], [ 114.842540417145344, -2.783055738596603 ], [ 114.842773417080153, -2.778499738575117 ], [ 114.842737417038435, -2.774042738509204 ], [ 114.842700417003897, -2.769404738499372 ], [ 114.842699416960841, -2.765110738474135 ], [ 114.842707416943796, -2.760499738433429 ], [ 114.842751416876666, -2.755852738383777 ], [ 114.842777416856208, -2.751893738356708 ], [ 114.842794416805617, -2.746920738324995 ], [ 114.842794416761606, -2.742418738290683 ], [ 114.842766416736907, -2.737916738240738 ], [ 114.842737416681558, -2.733883738222365 ], [ 114.847133416740235, -2.734018738170259 ], [ 114.851601416767394, -2.734071738149392 ], [ 114.856097416808097, -2.733971738091294 ], [ 114.860628416839802, -2.733861738077265 ], [ 114.865007416859868, -2.733752738020163 ], [ 114.869538416896731, -2.733624737994296 ], [ 114.874043416938719, -2.733569737948398 ], [ 114.878547416967294, -2.733450737891426 ], [ 114.883097417020139, -2.733504737862032 ], [ 114.887538417031195, -2.733367737815045 ], [ 114.892043417074419, -2.733293737784238 ], [ 114.897446417129729, -2.733185737719823 ], [ 114.902392417148576, -2.733149737689946 ], [ 114.908236417209721, -2.733114737615726 ], [ 114.909596417236514, -2.736462737633703 ] ] ] } },
{ "type": "Feature", "properties": { "Id": 0, "Luas": 2609.25125 }, "geometry": { "type": "Polygon", "coordinates": [ [ [ 114.917465268974908, -2.692291369977765 ], [ 114.921888665002314, -2.692298959771867 ], [ 114.926752586358347, -2.692325369165946 ], [ 114.931086040562064, -2.692368936473322 ], [ 114.935563480493158, -2.692340403860749 ], [ 114.939672251046929, -2.692347393083995 ], [ 114.944392405472513, -2.692355405122508 ], [ 114.948887773481175, -2.6923811011356 ], [ 114.953526887000109, -2.692479353871212 ], [ 114.957410917979871, -2.692494945252933 ], [ 114.962346801674471, -2.692566540864171 ], [ 114.962357368899589, -2.69702395853837 ], [ 114.962329924249488, -2.702701897919207 ], [ 114.962178550200889, -2.707204248176279 ], [ 114.962242901768334, -2.711734086595821 ], [ 114.962280222496702, -2.716291003373115 ], [ 114.962313763112689, -2.723090174724236 ], [ 114.96232413999509, -2.727610879839872 ], [ 114.962307469817702, -2.732167704085786 ], [ 114.95844050383738, -2.727287813904344 ], [ 114.954967965672196, -2.723122872524815 ], [ 114.952294764609931, -2.719483698991271 ], [ 114.949368526590902, -2.721937937796686 ], [ 114.945785044031979, -2.72491542808784 ], [ 114.949115467092099, -2.728022300263683 ], [ 114.952463170528617, -2.731554147546354 ], [ 114.95578391935102, -2.735085953871125 ], [ 114.958557264332896, -2.738002016094997 ], [ 114.949548044701373, -2.738022721410345 ], [ 114.944890620151753, -2.738023743721272 ], [ 114.940080499617949, -2.737943112754447 ], [ 114.935638826903869, -2.737980636696909 ], [ 114.931008369934915, -2.738008775055222 ], [ 114.92643201239639, -2.737955618791835 ], [ 114.917096166319112, -2.724142601242233 ], [ 114.90949655028372, -2.725494569507829 ], [ 114.908429264411055, -2.723973806772226 ], [ 114.908436826697056, -2.719588901893442 ], [ 114.908444765601274, -2.71497797062282 ], [ 114.908542504936065, -2.710421441369388 ], [ 114.909557465791124, -2.705758008075108 ], [ 114.909663406495241, -2.701644501320563 ], [ 114.90965352320741, -2.696906959273601 ], [ 114.909670350925154, -2.692314120282714 ], [ 114.913068965010154, -2.692220522994356 ], [ 114.917465268974908, -2.692291369977765 ] ] ] } }
]
}
