{
  "type": "FeatureCollection",
  "name": "pt_pas_boundary",
  "crs": {
    "type": "name",
    "properties": {
      "name": "urn:ogc:def:crs:OGC:1.3:CRS84"
    }
  },
  "features": [
    {
      "type": "Feature",
      "properties": {
        "Id": 0,
        "Luas": 1906.68774985
      },
      "geometry": {
        "type": "Polygon",
        "coordinates": [
          [
            [
              114.83872200002143,
              -2.872477999982273
            ],
            [
              114.84251500001038,
              -2.87360699997654
            ],
            [
              114.84540900002219,
              -2.874199999995215
            ],
            [
              114.85251499999649,
              -2.872830000005999
            ],
            [
              114.85287300001063,
              -2.873824999981803
            ],
            [
              114.84983400000263,
              -2.873791999977912
            ],
            [
              114.85036100000805,
              -2.87551099998423
            ],
            [
              114.85090794931813,
              -2.877395170904703
            ],
            [
              114.85215700001957,
              -2.881698000007988
            ],
            [
              114.8533710000144,
              -2.886075999985471
            ],
            [
              114.85286800000429,
              -2.890622999998793
            ],
            [
              114.85301200000998,
              -2.895332999990027
            ],
            [
              114.85358800000404,
              -2.899736999981115
            ],
            [
              114.85367900001499,
              -2.904231000008005
            ],
            [
              114.8547220000086,
              -2.90869899999611
            ],
            [
              114.85589200002491,
              -2.91320300000788
            ],
            [
              114.85165599999674,
              -2.913547999982645
            ],
            [
              114.84711499999929,
              -2.913574999992144
            ],
            [
              114.84271800002152,
              -2.913349999998689
            ],
            [
              114.84280000000867,
              -2.917942999975915
            ],
            [
              114.8427640000143,
              -2.922644000006416
            ],
            [
              114.84282700001022,
              -2.927209000004156
            ],
            [
              114.84286300002512,
              -2.931729999994859
            ],
            [
              114.84263899999662,
              -2.936285999975202
            ],
            [
              114.83795200001911,
              -2.937116999999744
            ],
            [
              114.83764100002365,
              -2.940090999997444
            ],
            [
              114.83060000001998,
              -2.939933000000791
            ],
            [
              114.83187300001045,
              -2.937349999986494
            ],
            [
              114.83342800000685,
              -2.937515000007937
            ],
            [
              114.83347800000432,
              -2.934839999987063
            ],
            [
              114.82374999999723,
              -2.934566999988964
            ],
            [
              114.82683900002773,
              -2.936805999980987
            ],
            [
              114.82551600000306,
              -2.937038999983849
            ],
            [
              114.82508300001253,
              -2.937915000004161
            ],
            [
              114.82150100002109,
              -2.939787999994657
            ],
            [
              114.8169169999985,
              -2.938793999980824
            ],
            [
              114.81744899999964,
              -2.937917999993207
            ],
            [
              114.8153830000275,
              -2.936739000005074
            ],
            [
              114.81651800001285,
              -2.935583999984552
            ],
            [
              114.81292000001649,
              -2.931535999978548
            ],
            [
              114.81487000000708,
              -2.927443999988312
            ],
            [
              114.81682099999716,
              -2.923362000008168
            ],
            [
              114.81872600000378,
              -2.919270000001314
            ],
            [
              114.82062200001265,
              -2.915195999981614
            ],
            [
              114.82246399999748,
              -2.910932999984071
            ],
            [
              114.82425300002211,
              -2.906759999984737
            ],
            [
              114.82612200001083,
              -2.902667999984446
            ],
            [
              114.82800900000547,
              -2.898548999992933
            ],
            [
              114.82990500002714,
              -2.894465999999538
            ],
            [
              114.8317740000053,
              -2.89066399998619
            ],
            [
              114.83173969887142,
              -2.890430782229422
            ],
            [
              114.83174969149228,
              -2.890354885346146
            ],
            [
              114.83179750848183,
              -2.890230593362601
            ],
            [
              114.8318978142033,
              -2.890027466249972
            ],
            [
              114.83195282275135,
              -2.889874484088046
            ],
            [
              114.83202450271236,
              -2.889711965918904
            ],
            [
              114.83248809249854,
              -2.888629280890218
            ],
            [
              114.83263297362451,
              -2.888294793452205
            ],
            [
              114.83283696089524,
              -2.887823846793136
            ],
            [
              114.83322168173976,
              -2.886929976977786
            ],
            [
              114.83335315427674,
              -2.886600133122817
            ],
            [
              114.83358514430664,
              -2.885954737902578
            ],
            [
              114.83378834988099,
              -2.885433671268259
            ],
            [
              114.83404179105278,
              -2.884766788642869
            ],
            [
              114.83426187091163,
              -2.884128545900674
            ],
            [
              114.8344293853284,
              -2.883609802385227
            ],
            [
              114.83468764190617,
              -2.882911832211337
            ],
            [
              114.83495070117608,
              -2.882189950903763
            ],
            [
              114.83527822411767,
              -2.881346200367754
            ],
            [
              114.83565591809347,
              -2.880390121072213
            ],
            [
              114.83607903367508,
              -2.879316919713496
            ],
            [
              114.83652605990792,
              -2.878179179090619
            ],
            [
              114.83681966669083,
              -2.877404844058066
            ],
            [
              114.83691578054888,
              -2.877151360556888
            ],
            [
              114.83702577027006,
              -2.876857353688813
            ],
            [
              114.83717895648923,
              -2.876364892703388
            ],
            [
              114.83746843161565,
              -2.875509106452216
            ],
            [
              114.83780576101745,
              -2.874507498551997
            ],
            [
              114.83819308009862,
              -2.87348924116376
            ],
            [
              114.83833884378718,
              -2.873147461567618
            ],
            [
              114.83840815030149,
              -2.872980152946178
            ],
            [
              114.83854450570672,
              -2.872580947164313
            ],
            [
              114.83858040691231,
              -2.872466199107873
            ],
            [
              114.83858502743878,
              -2.872428844633462
            ],
            [
              114.83872200002143,
              -2.872477999982273
            ]
          ]
        ]
      }
    },
    {
      "type": "Feature",
      "properties": {
        "Id": 0,
        "Luas": 7325.73748626
      },
      "geometry": {
        "type": "Polygon",
        "coordinates": [
          [
            [
              114.90959641723651,
              -2.736462737633703
            ],
            [
              114.90276341719192,
              -2.736874737705524
            ],
            [
              114.8960644171412,
              -2.737025737747741
            ],
            [
              114.89611041720026,
              -2.741709737786028
            ],
            [
              114.89645141724375,
              -2.74724273782613
            ],
            [
              114.89593641729037,
              -2.753697737882714
            ],
            [
              114.89594441735521,
              -2.759582737938048
            ],
            [
              114.90045941742227,
              -2.763695737916987
            ],
            [
              114.90510041750365,
              -2.76798073792025
            ],
            [
              114.91072641755882,
              -2.769075737872729
            ],
            [
              114.91424741759363,
              -2.771386737854187
            ],
            [
              114.91769241767233,
              -2.775868737843258
            ],
            [
              114.91464441764631,
              -2.775862737882035
            ],
            [
              114.90849441758691,
              -2.775779737941499
            ],
            [
              114.9025064175613,
              -2.775705737977505
            ],
            [
              114.89676941750452,
              -2.775749738038916
            ],
            [
              114.89151041745721,
              -2.775695738077023
            ],
            [
              114.88694241742434,
              -2.775723738130314
            ],
            [
              114.87604541734586,
              -2.775667738240597
            ],
            [
              114.87185541728508,
              -2.775641738285185
            ],
            [
              114.86754041728051,
              -2.775679738295386
            ],
            [
              114.86753141731113,
              -2.780208738329848
            ],
            [
              114.8676234173491,
              -2.784376738372961
            ],
            [
              114.86762441738702,
              -2.788788738401033
            ],
            [
              114.86753541744162,
              -2.793227738441482
            ],
            [
              114.86740141745366,
              -2.797729738475921
            ],
            [
              114.86740241752605,
              -2.80237673851813
            ],
            [
              114.8675014175378,
              -2.806797738534889
            ],
            [
              114.86756241761961,
              -2.813126738595309
            ],
            [
              114.86296641761339,
              -2.818976738677771
            ],
            [
              114.86099841763964,
              -2.823330738731323
            ],
            [
              114.85297241759872,
              -2.826009738804504
            ],
            [
              114.85541041772188,
              -2.835009738850337
            ],
            [
              114.86346341774248,
              -2.832068738776675
            ],
            [
              114.86270441772196,
              -2.829444738759471
            ],
            [
              114.8673804177684,
              -2.829299738723313
            ],
            [
              114.86747041781408,
              -2.833684738725779
            ],
            [
              114.87367441785636,
              -2.833813738691907
            ],
            [
              114.8792494179118,
              -2.833679738624391
            ],
            [
              114.87919141790714,
              -2.835957738657968
            ],
            [
              114.88258041794938,
              -2.836226738616119
            ],
            [
              114.88658241796631,
              -2.835998738571882
            ],
            [
              114.88652341801297,
              -2.83861173860896
            ],
            [
              114.88681141804314,
              -2.843647738620914
            ],
            [
              114.88688241810978,
              -2.849162738675703
            ],
            [
              114.88236841805237,
              -2.849181738727584
            ],
            [
              114.87929341804278,
              -2.849121738730744
            ],
            [
              114.87919441809808,
              -2.854039738775152
            ],
            [
              114.87925741811806,
              -2.858849738804897
            ],
            [
              114.87929441815967,
              -2.863125738858382
            ],
            [
              114.87932141823372,
              -2.867881738891576
            ],
            [
              114.87925741826342,
              -2.873658738921187
            ],
            [
              114.87929841834182,
              -2.880737738994841
            ],
            [
              114.8781334183593,
              -2.883501738994235
            ],
            [
              114.87753141840068,
              -2.887948739036184
            ],
            [
              114.8734384184636,
              -2.898491739167252
            ],
            [
              114.87190941851132,
              -2.903578739204791
            ],
            [
              114.87110941854635,
              -2.908169739270093
            ],
            [
              114.86897041856845,
              -2.912098739327616
            ],
            [
              114.8639254185093,
              -2.91248673934755
            ],
            [
              114.8623964184642,
              -2.908044739347361
            ],
            [
              114.86028141840751,
              -2.904053739346436
            ],
            [
              114.8595524183737,
              -2.89989373932471
            ],
            [
              114.85921041831419,
              -2.89527373927586
            ],
            [
              114.85893041826662,
              -2.890797739248721
            ],
            [
              114.8590564182225,
              -2.886196739199558
            ],
            [
              114.85863341818012,
              -2.881647739181927
            ],
            [
              114.85649541810085,
              -2.875712739169784
            ],
            [
              114.85562641808812,
              -2.873848739170628
            ],
            [
              114.85342341806265,
              -2.87382673915796
            ],
            [
              114.85285141805001,
              -2.872252739152826
            ],
            [
              114.84543041800607,
              -2.873684739240979
            ],
            [
              114.84265341796994,
              -2.873110739278976
            ],
            [
              114.83888741793879,
              -2.871990739317603
            ],
            [
              114.83876036407172,
              -2.871945503237188
            ],
            [
              114.83885232954859,
              -2.871833551836581
            ],
            [
              114.83896447601974,
              -2.871656756465656
            ],
            [
              114.83904569527263,
              -2.871479902276161
            ],
            [
              114.8391988424103,
              -2.871006575767202
            ],
            [
              114.83939736131606,
              -2.870442439017014
            ],
            [
              114.83956477296276,
              -2.869973923346724
            ],
            [
              114.83978963099231,
              -2.869318939920205
            ],
            [
              114.83994990049595,
              -2.868852802391637
            ],
            [
              114.83999907454549,
              -2.868732095946804
            ],
            [
              114.84006861714356,
              -2.868561391185301
            ],
            [
              114.84008135223162,
              -2.868530130618946
            ],
            [
              114.84022485600843,
              -2.86812376130263
            ],
            [
              114.8404398330452,
              -2.867662511239629
            ],
            [
              114.8405378525495,
              -2.867406752076064
            ],
            [
              114.84069086730898,
              -2.867002792512193
            ],
            [
              114.84079370742359,
              -2.866713554230387
            ],
            [
              114.84097891247565,
              -2.86626671361204
            ],
            [
              114.84102552053517,
              -2.866154263137354
            ],
            [
              114.8411952011592,
              -2.865743158791496
            ],
            [
              114.84133144103058,
              -2.86540375131633
            ],
            [
              114.84143894894657,
              -2.865162361815661
            ],
            [
              114.84155125960996,
              -2.864897061247748
            ],
            [
              114.84161582880289,
              -2.864717782645908
            ],
            [
              114.84169471230155,
              -2.864517003022987
            ],
            [
              114.84170741788223,
              -2.864275739198634
            ],
            [
              114.84241641784841,
              -2.860154739169637
            ],
            [
              114.84226341780791,
              -2.855534739137072
            ],
            [
              114.84220941775226,
              -2.850724739114034
            ],
            [
              114.84234241772546,
              -2.846701739060364
            ],
            [
              114.84240541766115,
              -2.842082739038258
            ],
            [
              114.84218941764252,
              -2.837244739016253
            ],
            [
              114.84248541759109,
              -2.833023738967253
            ],
            [
              114.84245741753826,
              -2.828358738924968
            ],
            [
              114.84226841750441,
              -2.823566738915312
            ],
            [
              114.84234841745727,
              -2.819462738882038
            ],
            [
              114.84251841743598,
              -2.814680738823787
            ],
            [
              114.84250941737756,
              -2.81011473879124
            ],
            [
              114.84256241734329,
              -2.805820738778909
            ],
            [
              114.8426334173125,
              -2.801508738733493
            ],
            [
              114.84286741727195,
              -2.796282738707834
            ],
            [
              114.8430264172265,
              -2.792657738670631
            ],
            [
              114.84311841718328,
              -2.786998738626837
            ],
            [
              114.84254041714534,
              -2.783055738596603
            ],
            [
              114.84277341708015,
              -2.778499738575117
            ],
            [
              114.84273741703844,
              -2.774042738509204
            ],
            [
              114.8427004170039,
              -2.769404738499372
            ],
            [
              114.84269941696084,
              -2.765110738474135
            ],
            [
              114.8427074169438,
              -2.760499738433429
            ],
            [
              114.84275141687667,
              -2.755852738383777
            ],
            [
              114.84277741685621,
              -2.751893738356708
            ],
            [
              114.84279441680562,
              -2.746920738324995
            ],
            [
              114.8427944167616,
              -2.742418738290683
            ],
            [
              114.84276641673691,
              -2.737916738240738
            ],
            [
              114.84273741668156,
              -2.733883738222365
            ],
            [
              114.84713341674023,
              -2.734018738170259
            ],
            [
              114.8516014167674,
              -2.734071738149392
            ],
            [
              114.8560974168081,
              -2.733971738091294
            ],
            [
              114.8606284168398,
              -2.733861738077265
            ],
            [
              114.86500741685987,
              -2.733752738020163
            ],
            [
              114.86953841689673,
              -2.733624737994296
            ],
            [
              114.87404341693872,
              -2.733569737948398
            ],
            [
              114.8785474169673,
              -2.733450737891426
            ],
            [
              114.88309741702014,
              -2.733504737862032
            ],
            [
              114.8875384170312,
              -2.733367737815045
            ],
            [
              114.89204341707442,
              -2.733293737784238
            ],
            [
              114.89744641712973,
              -2.733185737719823
            ],
            [
              114.90239241714858,
              -2.733149737689946
            ],
            [
              114.90823641720972,
              -2.733114737615726
            ],
            [
              114.90959641723651,
              -2.736462737633703
            ]
          ]
        ]
      }
    },
    {
      "type": "Feature",
      "properties": {
        "Id": 0,
        "Luas": 2609.25125
      },
      "geometry": {
        "type": "Polygon",
        "coordinates": [
          [
            [
              114.91746526897491,
              -2.692291369977765
            ],
            [
              114.92188866500231,
              -2.692298959771867
            ],
            [
              114.92675258635835,
              -2.692325369165946
            ],
            [
              114.93108604056206,
              -2.692368936473322
            ],
            [
              114.93556348049316,
              -2.692340403860749
            ],
            [
              114.93967225104693,
              -2.692347393083995
            ],
            [
              114.94439240547251,
              -2.692355405122508
            ],
            [
              114.94888777348118,
              -2.6923811011356
            ],
            [
              114.95352688700011,
              -2.692479353871212
            ],
            [
              114.95741091797987,
              -2.692494945252933
            ],
            [
              114.96234680167447,
              -2.692566540864171
            ],
            [
              114.96235736889959,
              -2.69702395853837
            ],
            [
              114.96232992424949,
              -2.702701897919207
            ],
            [
              114.96217855020089,
              -2.707204248176279
            ],
            [
              114.96224290176833,
              -2.711734086595821
            ],
            [
              114.9622802224967,
              -2.716291003373115
            ],
            [
              114.96231376311269,
              -2.723090174724236
            ],
            [
              114.96232413999509,
              -2.727610879839872
            ],
            [
              114.9623074698177,
              -2.732167704085786
            ],
            [
              114.95844050383738,
              -2.727287813904344
            ],
            [
              114.9549679656722,
              -2.723122872524815
            ],
            [
              114.95229476460993,
              -2.719483698991271
            ],
            [
              114.9493685265909,
              -2.721937937796686
            ],
            [
              114.94578504403198,
              -2.72491542808784
            ],
            [
              114.9491154670921,
              -2.728022300263683
            ],
            [
              114.95246317052862,
              -2.731554147546354
            ],
            [
              114.95578391935102,
              -2.735085953871125
            ],
            [
              114.9585572643329,
              -2.738002016094997
            ],
            [
              114.94954804470137,
              -2.738022721410345
            ],
            [
              114.94489062015175,
              -2.738023743721272
            ],
            [
              114.94008049961795,
              -2.737943112754447
            ],
            [
              114.93563882690387,
              -2.737980636696909
            ],
            [
              114.93100836993491,
              -2.738008775055222
            ],
            [
              114.92643201239639,
              -2.737955618791835
            ],
            [
              114.91709616631911,
              -2.724142601242233
            ],
            [
              114.90949655028372,
              -2.725494569507829
            ],
            [
              114.90842926441105,
              -2.723973806772226
            ],
            [
              114.90843682669706,
              -2.719588901893442
            ],
            [
              114.90844476560127,
              -2.71497797062282
            ],
            [
              114.90854250493607,
              -2.710421441369388
            ],
            [
              114.90955746579112,
              -2.705758008075108
            ],
            [
              114.90966340649524,
              -2.701644501320563
            ],
            [
              114.90965352320741,
              -2.696906959273601
            ],
            [
              114.90967035092515,
              -2.692314120282714
            ],
            [
              114.91306896501015,
              -2.692220522994356
            ],
            [
              114.91746526897491,
              -2.692291369977765
            ]
          ]
        ]
      }
    }
  ]
}