{
"type": "FeatureCollection",
"name": "pt_bsl_boundary",
"crs": { "type": "name", "properties": { "name": "urn:ogc:def:crs:OGC:1.3:CRS84" } },
"features": [
{ "type": "Feature", "properties": { "LAYER": "HGU", "GM_TYPE": "Unknown Area Type", "ELEVATION": 199.235, "NO_HGU": "HGU NO 04", "TAHUN": "2007", "BIDANG": "A" }, "geometry": { "type": "Polygon", "coordinates": [ [ [ 111.009998965711603, -0.208496337696494 ], [ 111.009999070299472, -0.221427035860474 ], [ 110.997444490911775, -0.221427039033335 ], [ 110.997444493052143, -0.208551801218736 ], [ 111.009998965711603, -0.208496337696494 ] ] ] } },
{ "type": "Feature", "properties": { "LAYER": "HGU", "GM_TYPE": "Unknown Area Type", "ELEVATION": 198.975, "NO_HGU": "HGU NO 07", "TAHUN": "2007", "BIDANG": "D" }, "geometry": { "type": "Polygon", "coordinates": [ [ [ 111.059532927245343, -0.201344046800021 ], [ 111.059450203560999, -0.210717057796255 ], [ 111.059406713821843, -0.215572321849471 ], [ 111.048045964440732, -0.21557261637379 ], [ 111.048047866946064, -0.210780281817893 ], [ 111.048199280375286, -0.201834373797692 ], [ 111.04821037147822, -0.201342343429784 ], [ 111.059532927245343, -0.201344046800021 ] ] ] } },
{ "type": "Feature", "properties": { "LAYER": "HGU", "GM_TYPE": "Unknown Area Type", "ELEVATION": 199.476, "NO_HGU": "HGU NO 08", "TAHUN": "2007", "BIDANG": "E" }, "geometry": { "type": "Polygon", "coordinates": [ [ [ 111.061700184274784, -0.214141832830744 ], [ 111.061661388296997, -0.198644878377854 ], [ 111.063452536293241, -0.198644871552063 ], [ 111.072155120017925, -0.198646549008465 ], [ 111.072138134250793, -0.214142869655533 ], [ 111.061700184274784, -0.214141832830744 ] ] ] } },
{ "type": "Feature", "properties": { "LAYER": "HGU", "GM_TYPE": "Unknown Area Type", "ELEVATION": 199.879, "NO_HGU": "HGU NO 06", "TAHUN": "2007", "BIDANG": "C" }, "geometry": { "type": "Polygon", "coordinates": [ [ [ 111.059736774563689, -0.184117363633148 ], [ 111.059723013020246, -0.197821674113876 ], [ 111.059722379864326, -0.19895079772117 ], [ 111.051823858347788, -0.19894347357567 ], [ 111.049130626580691, -0.198941041429122 ], [ 111.049127395042845, -0.198943481879422 ], [ 111.048741150760037, -0.198943483032539 ], [ 111.048798283181341, -0.184117397149846 ], [ 111.059736774563689, -0.184117363633148 ] ] ] } },
{ "type": "Feature", "properties": { "LAYER": "HGU", "GM_TYPE": "Unknown Area Type", "ELEVATION": 198.815, "NO_HGU": "HGU NO 05", "TAHUN": "2007", "BIDANG": "B" }, "geometry": { "type": "Polygon", "coordinates": [ [ [ 111.03037213293716, -0.198753533825366 ], [ 111.040320520000947, -0.198753512392504 ], [ 111.040320525345635, -0.215002337985319 ], [ 111.030372128163037, -0.215002361170388 ], [ 111.03037213293716, -0.198753533825366 ] ] ] } },
{ "type": "Feature", "properties": { "LAYER": "HGU", "GM_TYPE": "Unknown Area Type", "ELEVATION": 199.633, "NO_HGU": "HGU NO 210", "TAHUN": "2015", "BIDANG": "I" }, "geometry": { "type": "Polygon", "coordinates": [ [ [ 111.019009864497065, -0.212670194112159 ], [ 111.019108785858094, -0.212706396593367 ], [ 111.019027887650353, -0.213059474389294 ], [ 111.018937955261691, -0.212987058743906 ], [ 111.018839049843933, -0.213113811566575 ], [ 111.018928990227636, -0.21326770485455 ], [ 111.019027916045118, -0.213349172665866 ], [ 111.019126832980746, -0.213340109761779 ], [ 111.019108868355019, -0.213548332177975 ], [ 111.019351646199013, -0.213340087411636 ], [ 111.019387592346433, -0.213095650955448 ], [ 111.019567427821343, -0.212941730922182 ], [ 111.019594411609518, -0.213005099725935 ], [ 111.019898205803571, -0.212894088071021 ], [ 111.0208713394223, -0.212896336133364 ], [ 111.020772495438919, -0.213647750251277 ], [ 111.020998028950046, -0.213868891270725 ], [ 111.021121164966743, -0.214330219669382 ], [ 111.021386427919552, -0.214675795123171 ], [ 111.021268325938664, -0.214887451499762 ], [ 111.021852754449469, -0.21524667272004 ], [ 111.021840755896733, -0.21538678676457 ], [ 111.021402475833455, -0.215649044633135 ], [ 111.021916276994631, -0.215999922722568 ], [ 111.022040710617375, -0.216372594416043 ], [ 111.021830055973965, -0.216960428447015 ], [ 111.022622014268734, -0.216623552126889 ], [ 111.022133301374964, -0.219235056390291 ], [ 111.0226475800918, -0.219560586164463 ], [ 111.023034483980155, -0.219863589141071 ], [ 111.023435321794821, -0.219863547965547 ], [ 111.023587721571786, -0.219341839098356 ], [ 111.023758561024877, -0.219160760561925 ], [ 111.024120579389106, -0.219033980780487 ], [ 111.025359334275549, -0.2202107496592 ], [ 111.025542537299259, -0.220039365189255 ], [ 111.026154216774032, -0.219790124850511 ], [ 111.026736345393132, -0.220575616113437 ], [ 111.027320737202785, -0.22067059327265 ], [ 111.027310705120783, -0.220457438695995 ], [ 111.027759924760346, -0.22005320760211 ], [ 111.02808406299296, -0.220038455295955 ], [ 111.028497735280027, -0.220500094799444 ], [ 111.029513970253078, -0.221206153974507 ], [ 111.029397082712478, -0.221351014540629 ], [ 111.029163372727552, -0.222274447689241 ], [ 111.028731735845298, -0.222301651772799 ], [ 111.028411036269205, -0.222241488417424 ], [ 111.028455970351359, -0.222343927994369 ], [ 111.02838103785497, -0.222392218639981 ], [ 111.028408045161626, -0.222681912831037 ], [ 111.028497977578738, -0.222754327691049 ], [ 111.028469206630959, -0.22280321706414 ], [ 111.028390064832905, -0.222727179865721 ], [ 111.028129272181928, -0.22262762373443 ], [ 111.028147237610099, -0.222437508175885 ], [ 111.027985358699624, -0.222301729553784 ], [ 111.027760546255138, -0.222301752974381 ], [ 111.027769549922056, -0.222410388446531 ], [ 111.027895443032264, -0.222392269257853 ], [ 111.027958395170941, -0.222437527863504 ], [ 111.028021355693269, -0.222564263763309 ], [ 111.028003378153684, -0.222636689903935 ], [ 111.027688633266806, -0.222564298466285 ], [ 111.027616701660918, -0.222645783281042 ], [ 111.027391891967767, -0.222672965839256 ], [ 111.027328935150734, -0.222582442046331 ], [ 111.027077141404462, -0.222546256150995 ], [ 111.02706814424819, -0.222500991903179 ], [ 111.026996203305828, -0.222491946362972 ], [ 111.026978245312009, -0.222754486322394 ], [ 111.026933285598219, -0.222781650126083 ], [ 111.026760632873675, -0.222718296870389 ], [ 111.026853656896876, -0.222795952816139 ], [ 111.026997769797063, -0.223164230906737 ], [ 111.02719094173537, -0.223253274466291 ], [ 111.027250723318858, -0.22335736723976 ], [ 111.027293026702964, -0.223179946178581 ], [ 111.027463875806134, -0.223098450996281 ], [ 111.02766171826795, -0.223170854592695 ], [ 111.027796595478208, -0.223071257113312 ], [ 111.027697667723587, -0.222971684075164 ], [ 111.027724639621255, -0.22291736305099 ], [ 111.027967436141239, -0.22290828465397 ], [ 111.028021464967026, -0.22362346862361 ], [ 111.027743857995077, -0.223862232880374 ], [ 111.027661783745287, -0.223804567008705 ], [ 111.027370967272176, -0.22388005627436 ], [ 111.027515213380198, -0.224070744292847 ], [ 111.027326599498892, -0.224415837210376 ], [ 111.027492289949194, -0.224681068641741 ], [ 111.027190056931815, -0.2247341404519 ], [ 111.026804458116828, -0.224669150481449 ], [ 111.027131417071786, -0.225642389096977 ], [ 111.027068520583555, -0.226131259747756 ], [ 111.026744827351209, -0.226484362528534 ], [ 111.025081124004885, -0.22562902608205 ], [ 111.024586584398591, -0.22609531022084 ], [ 111.023849259566219, -0.226683836454053 ], [ 111.023426605531625, -0.22662956291342 ], [ 111.022913974269812, -0.226077380854887 ], [ 111.02315676005972, -0.225959665516506 ], [ 111.023372551307745, -0.225678998099922 ], [ 111.023498404215587, -0.225271597478732 ], [ 111.023444430309524, -0.225090542111371 ], [ 111.022968728185361, -0.224744249558495 ], [ 111.022865749947087, -0.224950684664093 ], [ 111.022553080479582, -0.225204136692046 ], [ 111.022608190842647, -0.225715290904336 ], [ 111.022356432242532, -0.226023121379878 ], [ 111.021960769667189, -0.226104640660588 ], [ 111.021547176715359, -0.226711239359218 ], [ 111.021403298167712, -0.22672936070343 ], [ 111.021124502405698, -0.226466851393247 ], [ 111.021205423838808, -0.226358206100188 ], [ 111.021304341647522, -0.226358195652537 ], [ 111.021625277858206, -0.225273541617896 ], [ 111.02143908376506, -0.224954956978685 ], [ 111.021007434954569, -0.224882577783536 ], [ 111.020639144544759, -0.225076152374617 ], [ 111.02080093914779, -0.226044594064961 ], [ 111.020604395810892, -0.226659571679873 ], [ 111.019838709447754, -0.227797788137563 ], [ 111.019416070699606, -0.227897416775431 ], [ 111.019389072227483, -0.227698252113048 ], [ 111.019119312225129, -0.227852182937099 ], [ 111.018825346884569, -0.22770288082245 ], [ 111.018683078530046, -0.226937868919461 ], [ 111.017536376179947, -0.225462338481571 ], [ 111.016897762603591, -0.2240772842355 ], [ 111.016834805478013, -0.22398675999557 ], [ 111.016663943391265, -0.223950565475686 ], [ 111.016124388714218, -0.223932515510271 ], [ 111.015243100238649, -0.223751545516017 ], [ 111.014628452973028, -0.222949176943152 ], [ 111.014514636682691, -0.223099798763412 ], [ 111.014233982627417, -0.222919293510474 ], [ 111.013532755671875, -0.223027716240885 ], [ 111.013221347601828, -0.222492474217235 ], [ 111.012822324042304, -0.222837674738302 ], [ 111.012624454465595, -0.222511783666743 ], [ 111.012543514954004, -0.222448420333595 ], [ 111.012444595846802, -0.222439377443009 ], [ 111.012354673906827, -0.222475599118569 ], [ 111.012021925103667, -0.222240252839499 ], [ 111.011752134358943, -0.222104484118247 ], [ 111.011131649110254, -0.222122654216282 ], [ 111.010895498730832, -0.222186220808053 ], [ 111.010857454488061, -0.222206328527746 ], [ 111.010562611492873, -0.222207286252051 ], [ 111.010556126533359, -0.222140819670882 ], [ 111.010403239049779, -0.222005038795036 ], [ 111.010403227109819, -0.22188734840026 ], [ 111.01036725040035, -0.22182398034573 ], [ 111.010070495543644, -0.221824010838363 ], [ 111.009683840616788, -0.222077537650685 ], [ 111.009459001476301, -0.221833126764048 ], [ 111.009342068667635, -0.221543439194656 ], [ 111.009252017546856, -0.221491986165188 ], [ 111.010050905816172, -0.221491904230131 ], [ 111.010050028242404, -0.212645467716009 ], [ 111.01018387003603, -0.213051798376786 ], [ 111.010516173209595, -0.213163275386918 ], [ 111.011069394403265, -0.212923980992705 ], [ 111.011297658393474, -0.213304256969101 ], [ 111.011051020809745, -0.213495337587851 ], [ 111.01095370020316, -0.213908573181681 ], [ 111.01192224059298, -0.214572286520358 ], [ 111.012192017376606, -0.214572259672802 ], [ 111.012263950728311, -0.214499827714536 ], [ 111.012869898820128, -0.214842329656182 ], [ 111.013020888018005, -0.214317081458546 ], [ 111.013173876816523, -0.21442707188251 ], [ 111.013929135971395, -0.213250094649153 ], [ 111.013983077127492, -0.213105239827979 ], [ 111.01448667228405, -0.213231933247117 ], [ 111.014436685551146, -0.21350886611728 ], [ 111.014713348184628, -0.213566540776865 ], [ 111.015181597167881, -0.213408459568667 ], [ 111.015670017481028, -0.214030774587489 ], [ 111.015458869792965, -0.214384065645124 ], [ 111.015437925591442, -0.214796261382954 ], [ 111.015614762328241, -0.214865064207872 ], [ 111.016587410514703, -0.215697499996662 ], [ 111.016797992168293, -0.215630770486211 ], [ 111.016779987382506, -0.21543160451767 ], [ 111.017385275837725, -0.215746194701494 ], [ 111.017481403615577, -0.215413428044583 ], [ 111.017373449328574, -0.214969838037575 ], [ 111.017652209035774, -0.214879279374337 ], [ 111.018041680055433, -0.21417645134577 ], [ 111.018434503304448, -0.214308857458431 ], [ 111.018506416832764, -0.214037258077657 ], [ 111.018479433003534, -0.213973889253021 ], [ 111.018292373182206, -0.214026589626434 ], [ 111.018330240590402, -0.213689245684883 ], [ 111.017768968628133, -0.213421722374132 ], [ 111.017768942906258, -0.213159183157134 ], [ 111.017553111427929, -0.213050567644508 ], [ 111.017631382273493, -0.212743638487078 ], [ 111.018008321920476, -0.212676517311046 ], [ 111.018209543398953, -0.212815122589483 ], [ 111.018281482372089, -0.212801947351649 ], [ 111.018362400520274, -0.212652152107117 ], [ 111.018901938218065, -0.212507249514285 ], [ 111.019009864497065, -0.212670194112159 ] ] ] } },
{ "type": "Feature", "properties": { "LAYER": "HGU", "GM_TYPE": "Unknown Area Type", "ELEVATION": 196.645, "NO_HGU": "HGU NO 211", "TAHUN": "2015", "BIDANG": "J" }, "geometry": { "type": "Polygon", "coordinates": [ [ [ 111.04032489262913, -0.183050551792034 ], [ 111.040499991151989, -0.183402716427984 ], [ 111.040576410576463, -0.183535273512559 ], [ 111.04055950290693, -0.183760001897741 ], [ 111.040568522502767, -0.184076855417711 ], [ 111.040622931902263, -0.184177219650454 ], [ 111.041173492981983, -0.18435925930607 ], [ 111.041395633253273, -0.184203198389039 ], [ 111.041665803179313, -0.18468143672668 ], [ 111.041786890262543, -0.184681426150451 ], [ 111.041662878623484, -0.185161780614094 ], [ 111.041525809196031, -0.185197807989971 ], [ 111.041153152436607, -0.185498233001363 ], [ 111.041671920045019, -0.185829133073973 ], [ 111.041425802283513, -0.185955246521832 ], [ 111.041117641142577, -0.186492579964438 ], [ 111.041085970617175, -0.186657314444455 ], [ 111.04032661379523, -0.186948447637213 ], [ 111.040281034458829, -0.187191105993851 ], [ 111.039872134616175, -0.187400796045768 ], [ 111.040050105266559, -0.188340876351777 ], [ 111.040394394515687, -0.188455885684715 ], [ 111.040505411265968, -0.188614994804228 ], [ 111.040697541406502, -0.188696075867203 ], [ 111.04067257606674, -0.188960190278985 ], [ 111.040715599287694, -0.189143290939963 ], [ 111.041038843013638, -0.189407464680326 ], [ 111.041064864962379, -0.189354422818165 ], [ 111.041383061874072, -0.189566552918516 ], [ 111.04158223358688, -0.189617583457384 ], [ 111.041772348168024, -0.189546515018641 ], [ 111.041862571901603, -0.189803433116301 ], [ 111.04223260171517, -0.189599024075173 ], [ 111.04225991126205, -0.189408909196545 ], [ 111.042439392914488, -0.189209727727759 ], [ 111.042682184977295, -0.189173494106228 ], [ 111.042826059639751, -0.189128216373691 ], [ 111.042799087989167, -0.189191589581376 ], [ 111.042808085204584, -0.189245906598457 ], [ 111.043096712990916, -0.189143182040046 ], [ 111.043091222151304, -0.189076055006107 ], [ 111.042881944357916, -0.188869934220152 ], [ 111.042830904078244, -0.188585823873403 ], [ 111.042967980237776, -0.188275629500865 ], [ 111.043095342374826, -0.188197711017897 ], [ 111.043484290776107, -0.188318576327651 ], [ 111.043635333778354, -0.188639283703909 ], [ 111.043933617469051, -0.188904868026536 ], [ 111.044142838689012, -0.189499270014631 ], [ 111.044872266941098, -0.189568231066348 ], [ 111.0454158994892, -0.189417679063137 ], [ 111.046027352481374, -0.189073611793052 ], [ 111.046044906622754, -0.188936427219095 ], [ 111.046144188952283, -0.188340311866633 ], [ 111.046575788299023, -0.187932890363141 ], [ 111.047280818821434, -0.188007540274906 ], [ 111.04741210599326, -0.18821345724999 ], [ 111.047582957519097, -0.188168177235154 ], [ 111.047735832221989, -0.188213428324932 ], [ 111.047690906204679, -0.188620815068242 ], [ 111.047888736484524, -0.18859363850534 ], [ 111.048178091015345, -0.188778994087832 ], [ 111.048770787527374, -0.188850307613113 ], [ 111.048745277994115, -0.19753787139404 ], [ 111.048554982889712, -0.197537889251097 ], [ 111.048240239792719, -0.197438336363549 ], [ 111.047709703365911, -0.197601339190101 ], [ 111.04769173701068, -0.197800505762931 ], [ 111.047619815433478, -0.197990624461118 ], [ 111.047574857630224, -0.198035893436299 ], [ 111.047457963980193, -0.19811738097896 ], [ 111.047134258529354, -0.19834373521299 ], [ 111.046226029048483, -0.19838003250167 ], [ 111.045848348788908, -0.198389120991028 ], [ 111.045884278968657, -0.197963628623301 ], [ 111.046495739960079, -0.197719141439137 ], [ 111.046702546836414, -0.197519957059664 ], [ 111.046855351681273, -0.196804759450101 ], [ 111.046990232714634, -0.196750429139288 ], [ 111.046877801851664, -0.196469798095008 ], [ 111.046263633992425, -0.196614702628604 ], [ 111.046251993678965, -0.196667420955092 ], [ 111.045568619969572, -0.197201609241193 ], [ 111.045433729663074, -0.197156357056314 ], [ 111.04522456832045, -0.196964133567183 ], [ 111.045074874347335, -0.197013143715226 ], [ 111.044814092758926, -0.196995062139723 ], [ 111.044738719074715, -0.197005743132153 ], [ 111.044677117998148, -0.197003893793312 ], [ 111.044589104192895, -0.19699969956821 ], [ 111.044364487975756, -0.197167110414426 ], [ 111.04424761748875, -0.197502081005951 ], [ 111.043807027612431, -0.197918558659843 ], [ 111.043258500186994, -0.198027245683055 ], [ 111.044319730611619, -0.199376037784265 ], [ 111.04466146008221, -0.199566117716193 ], [ 111.044958216470889, -0.199638513342063 ], [ 111.045084139844704, -0.199955355048931 ], [ 111.045003255595773, -0.200462328526531 ], [ 111.044814418315426, -0.200498558312546 ], [ 111.044499721189283, -0.200896918584529 ], [ 111.043681398519567, -0.20076120195104 ], [ 111.043555477930937, -0.200476045456041 ], [ 111.042776928420423, -0.200879523575705 ], [ 111.043169132435111, -0.201559561676473 ], [ 111.04299844264122, -0.201753691753734 ], [ 111.042777029393079, -0.201953168385594 ], [ 111.04262696776614, -0.202146333814411 ], [ 111.042556190715771, -0.202321041401389 ], [ 111.042467585287923, -0.20249948787748 ], [ 111.042458594575137, -0.202517594682958 ], [ 111.042795269596155, -0.202759249683609 ], [ 111.043474759736824, -0.20274382147031 ], [ 111.04387043477675, -0.202834313142931 ], [ 111.043924399587908, -0.20294294354556 ], [ 111.044014339232163, -0.203105888273818 ], [ 111.044050314920852, -0.203169255568096 ], [ 111.044140252859023, -0.203314094347339 ], [ 111.044185221830915, -0.203386513732055 ], [ 111.044194221994843, -0.203467989544327 ], [ 111.044266158753246, -0.203440823719031 ], [ 111.044320115839838, -0.203467977410767 ], [ 111.044356098426945, -0.20360376839767 ], [ 111.044347113764985, -0.203685245937789 ], [ 111.044419055687527, -0.203712397886193 ], [ 111.044302171510651, -0.203893468443958 ], [ 111.044185298567612, -0.204192227556926 ], [ 111.044086394927206, -0.204328031594785 ], [ 111.044076763589118, -0.204363597745994 ], [ 111.044104385816581, -0.204391400606859 ], [ 111.044122370653838, -0.204391398865837 ], [ 111.044131361343034, -0.204373292066132 ], [ 111.044149346180006, -0.204373290325202 ], [ 111.044158340327883, -0.204391395383614 ], [ 111.044158344652061, -0.204436660205777 ], [ 111.044176332948993, -0.204472870321681 ], [ 111.044140367600889, -0.204518138627872 ], [ 111.044104407879146, -0.204622251205808 ], [ 111.044059447083271, -0.204635835010566 ], [ 111.04394255429159, -0.20472637599381 ], [ 111.043933565336445, -0.204762588727298 ], [ 111.043897796329247, -0.204925359238779 ], [ 111.043937028842805, -0.205022926918485 ], [ 111.044001102770395, -0.205108996875451 ], [ 111.044044134484793, -0.205366135090222 ], [ 111.044104483773268, -0.205414385613252 ], [ 111.044149445869024, -0.205414381238753 ], [ 111.044194405356606, -0.20538721797129 ], [ 111.044203396037503, -0.20536911116806 ], [ 111.044248358130901, -0.205369106794251 ], [ 111.044284330412026, -0.205396262186764 ], [ 111.044338284922091, -0.205396256937216 ], [ 111.044347298209644, -0.205613527188844 ], [ 111.044302344819386, -0.205704061206195 ], [ 111.044302353525069, -0.205794590844158 ], [ 111.044347335655644, -0.206002804623962 ], [ 111.044401303245806, -0.206138593809312 ], [ 111.044374344316182, -0.206328708676851 ], [ 111.044221492409079, -0.206527888829016 ], [ 111.044176536429234, -0.206591263977713 ], [ 111.044176543422893, -0.206663687692404 ], [ 111.044046162953947, -0.20676328306907 ], [ 111.043924769650715, -0.20680855978372 ], [ 111.043888803466857, -0.206844775168781 ], [ 111.043726953010875, -0.206980585517089 ], [ 111.043556092615091, -0.206935337426685 ], [ 111.043101935426321, -0.207329875071343 ], [ 111.04383496212499, -0.208012613039788 ], [ 111.043529323830555, -0.209080893269089 ], [ 111.042459275561058, -0.209597018545839 ], [ 111.042351404536277, -0.209986307046986 ], [ 111.042018704153989, -0.210185505514342 ], [ 111.041937786487495, -0.210330361141967 ], [ 111.041748938316815, -0.210257956129056 ], [ 111.041461163608659, -0.210085978196532 ], [ 111.04138021751848, -0.209941138615274 ], [ 111.041443147711774, -0.20976912582326 ], [ 111.041506065526178, -0.209470371380936 ], [ 111.041218282912467, -0.209216916524142 ], [ 111.041128357690681, -0.209207872440652 ], [ 111.041110556035903, -0.209138871949541 ], [ 111.041092371177541, -0.209035869425346 ], [ 111.041155307625999, -0.208927227478424 ], [ 111.041146305490358, -0.208827645616555 ], [ 111.040903514174289, -0.208872934474497 ], [ 111.040809104190927, -0.208981579540282 ], [ 111.040574851582008, -0.209099291412896 ], [ 111.040416281498466, -0.209382024986951 ], [ 111.040480287806218, -0.209532086520345 ], [ 111.040459315901828, -0.209661157823975 ], [ 111.040320523194936, -0.209555000757201 ], [ 111.040327854043014, -0.198744889686376 ], [ 111.037351917193035, -0.198745168870732 ], [ 111.03761193027006, -0.197367260534526 ], [ 111.038706108938129, -0.196338483760832 ], [ 111.038637895271663, -0.195853716286094 ], [ 111.038483264307445, -0.195230319077275 ], [ 111.03824431111299, -0.195005006988564 ], [ 111.037721075165081, -0.194900621744397 ], [ 111.037368202157552, -0.195234843423872 ], [ 111.037406319878315, -0.194837828240298 ], [ 111.037189236979245, -0.194859871277849 ], [ 111.037206964227977, -0.194997255896594 ], [ 111.036897789226828, -0.195018803240603 ], [ 111.036834642441377, -0.195145976262498 ], [ 111.036846636750525, -0.195194257803763 ], [ 111.036709200023353, -0.195492362138597 ], [ 111.036313042465693, -0.195726794459494 ], [ 111.036271166296942, -0.1957012786546 ], [ 111.036271147360239, -0.195493059694913 ], [ 111.036118256017815, -0.195275801804059 ], [ 111.03596715092894, -0.195254172248913 ], [ 111.035731597999089, -0.195465950390791 ], [ 111.035604579014588, -0.195383639849574 ], [ 111.035626564627549, -0.194975340055343 ], [ 111.035479741277612, -0.194714574438914 ], [ 111.035605624108157, -0.194587820877123 ], [ 111.035585183954964, -0.194500764523643 ], [ 111.035560609541079, -0.194008432915722 ], [ 111.035513630674984, -0.193876044268701 ], [ 111.035398733208979, -0.193872652677081 ], [ 111.03523486149632, -0.193769563997038 ], [ 111.035223366977306, -0.193723294142686 ], [ 111.035254825484714, -0.193555810723225 ], [ 111.035245826521916, -0.193483387521807 ], [ 111.035308766349644, -0.193401904764634 ], [ 111.03539868515378, -0.193338525559814 ], [ 111.035488611275142, -0.193356623374308 ], [ 111.035704425979006, -0.193311338714083 ], [ 111.036064110868793, -0.193166457967933 ], [ 111.03617920719293, -0.193088591702574 ], [ 111.036279925514265, -0.193121173332051 ], [ 111.036324886116972, -0.193103063243883 ], [ 111.036477746308904, -0.192976307367829 ], [ 111.036524498899198, -0.192885773142752 ], [ 111.036711538491048, -0.192849544151512 ], [ 111.036978309093655, -0.19272880199336 ], [ 111.03699028880709, -0.192677511898421 ], [ 111.037133664696015, -0.192560305945079 ], [ 111.036903527674937, -0.192377608491916 ], [ 111.036818467728295, -0.192270631569761 ], [ 111.036710428873974, -0.192249552172937 ], [ 111.036732367698747, -0.192141479405322 ], [ 111.036667328337472, -0.192034500651901 ], [ 111.036839429269051, -0.192013395884437 ], [ 111.037032581098131, -0.191905307635003 ], [ 111.037011493685895, -0.191583179012379 ], [ 111.037054523437035, -0.191003810841773 ], [ 111.037075502270568, -0.190939726792042 ], [ 111.037140535876503, -0.190982713910562 ], [ 111.037301145352188, -0.190982699446477 ], [ 111.037504773358677, -0.191110845400958 ], [ 111.037697961572718, -0.191411959745675 ], [ 111.037633897625682, -0.191432964198159 ], [ 111.03767693350369, -0.191755181253451 ], [ 111.03802019805542, -0.19201328895946 ], [ 111.03832140974734, -0.19216342020327 ], [ 111.038351255146267, -0.192223139775693 ], [ 111.038451471308221, -0.192186398321552 ], [ 111.03923283323337, -0.190984607017596 ], [ 111.039437299126789, -0.190855724734146 ], [ 111.039582021331299, -0.190317144321132 ], [ 111.039299806616953, -0.190327216453592 ], [ 111.039593981390084, -0.189726827773802 ], [ 111.03919312606736, -0.189191912071962 ], [ 111.038572641830399, -0.189119543578836 ], [ 111.038437734601715, -0.18888417790202 ], [ 111.038518638664527, -0.188567316082016 ], [ 111.038292959741995, -0.187583832142038 ], [ 111.038240570878315, -0.187605162407634 ], [ 111.038131845819521, -0.187561562047961 ], [ 111.037876694464543, -0.1875566064944 ], [ 111.037836647226158, -0.187486554141442 ], [ 111.037689606005159, -0.187471542236978 ], [ 111.037618522481168, -0.187491361160182 ], [ 111.037576545501736, -0.187684706828617 ], [ 111.037428485042497, -0.187885836513259 ], [ 111.036802053664928, -0.187902894965782 ], [ 111.036570918697507, -0.187804800920824 ], [ 111.036401764887884, -0.187609763492632 ], [ 111.03631268605875, -0.187330543209585 ], [ 111.036324693351389, -0.187272524240552 ], [ 111.036388756143353, -0.18723749061438 ], [ 111.036418768543911, -0.187025328882432 ], [ 111.036524758068822, -0.186502977384675 ], [ 111.036568801335477, -0.186479983579566 ], [ 111.036656822736163, -0.186537993742393 ], [ 111.036794965895822, -0.186552010883278 ], [ 111.036932006434171, -0.186677085768655 ], [ 111.037028102124196, -0.186642049349292 ], [ 111.037025049630046, -0.186499946517989 ], [ 111.037229146373846, -0.185954585930421 ], [ 111.037234167600744, -0.185675471908179 ], [ 111.037394290485096, -0.185190649485372 ], [ 111.037054752511892, -0.184843281544142 ], [ 111.036923534423906, -0.184843292979059 ], [ 111.03676477074012, -0.184648827390741 ], [ 111.036619658429515, -0.184645853140752 ], [ 111.036561587609825, -0.184515793099729 ], [ 111.036586641895283, -0.184416680775982 ], [ 111.036766739831776, -0.184264605732649 ], [ 111.036985421476444, -0.184318208275652 ], [ 111.037815357886018, -0.183960318690481 ], [ 111.037931411024871, -0.184054350057022 ], [ 111.038125535844088, -0.184049355067894 ], [ 111.038183574721018, -0.183807231820078 ], [ 111.038264617033249, -0.183762150076076 ], [ 111.038301593222741, -0.183607087500659 ], [ 111.038509717933451, -0.183432925406991 ], [ 111.038535737468791, -0.183348838003907 ], [ 111.038991005734076, -0.183186692603756 ], [ 111.039300194345699, -0.182980571330975 ], [ 111.039379229118495, -0.182871498230553 ], [ 111.039496318352519, -0.182943535211879 ], [ 111.039683473414044, -0.182944514666826 ], [ 111.039683490053562, -0.183074924090412 ], [ 111.039775218840091, -0.183066082115922 ], [ 111.03987256513021, -0.18291346612749 ], [ 111.040004609987804, -0.18271939827228 ], [ 111.040220004914929, -0.1829968753991 ], [ 111.04032489262913, -0.183050551792034 ] ] ] } },
{ "type": "Feature", "properties": { "LAYER": "HGU", "GM_TYPE": "Unknown Area Type", "ELEVATION": 101.045, "NO_HGU": "HGU NO 208", "TAHUN": "2015", "BIDANG": "G" }, "geometry": { "type": "Polygon", "coordinates": [ [ [ 111.06039806550136, -0.198930919505715 ], [ 111.060443032334433, -0.198985232590605 ], [ 111.060523953238174, -0.198876590154174 ], [ 111.060721778024842, -0.19880414817456 ], [ 111.061054498996441, -0.198849380963036 ], [ 111.061387226726112, -0.198967036852443 ], [ 111.061513126317593, -0.199039447972683 ], [ 111.06161204632717, -0.1990847029885 ], [ 111.061654390511166, -0.199087743879854 ], [ 111.061700184274784, -0.214141832830744 ], [ 111.062193672338324, -0.214141782201709 ], [ 111.061919279188771, -0.214365948536452 ], [ 111.061451666951186, -0.21426641476421 ], [ 111.061307806767246, -0.21443843444633 ], [ 111.061384278012028, -0.214796015754891 ], [ 111.061640595399894, -0.215144525614057 ], [ 111.062198088803356, -0.214827617119237 ], [ 111.063412157694486, -0.21583236192793 ], [ 111.063448177044307, -0.216321213785205 ], [ 111.063023499184141, -0.216956238508208 ], [ 111.062441069642574, -0.216665327878064 ], [ 111.06161376241748, -0.216556779089243 ], [ 111.061361939559362, -0.216194689598255 ], [ 111.0610943233509, -0.216157419391813 ], [ 111.060633864767738, -0.216850659108644 ], [ 111.060732569352155, -0.217118149832616 ], [ 111.061083299035573, -0.217389700117631 ], [ 111.061260132651114, -0.218441587040396 ], [ 111.060602769492178, -0.218894932434781 ], [ 111.060244317848984, -0.218259632374389 ], [ 111.059588959202017, -0.218132433719671 ], [ 111.059103380076053, -0.218213960480755 ], [ 111.058915011526949, -0.218086999026012 ], [ 111.058619482034288, -0.218259034980924 ], [ 111.058628495845525, -0.218467250787866 ], [ 111.058826346526573, -0.218648288146517 ], [ 111.058907301158399, -0.218874602204301 ], [ 111.058541277554141, -0.219412267676241 ], [ 111.058109663639627, -0.219602423931524 ], [ 111.05804994343579, -0.219559488937657 ], [ 111.058031163766259, -0.219394904253406 ], [ 111.058094576014284, -0.219158726976044 ], [ 111.057961634466011, -0.218864615477038 ], [ 111.056136726616472, -0.217474305120559 ], [ 111.05608190559623, -0.216537717477819 ], [ 111.055303924217455, -0.215578851149156 ], [ 111.059417698604477, -0.215578335479248 ], [ 111.059542642686964, -0.2013412559019 ], [ 111.04821037147822, -0.201342343429784 ], [ 111.048201477927009, -0.20186402072657 ], [ 111.048069789789864, -0.201774714334671 ], [ 111.047701095356089, -0.201711379011172 ], [ 111.047674140402464, -0.201946758278419 ], [ 111.047701121034308, -0.201982967489077 ], [ 111.047539262931224, -0.202037300709136 ], [ 111.047413363294154, -0.201973942129045 ], [ 111.047422342001113, -0.20182909405966 ], [ 111.047323405039933, -0.201611832714277 ], [ 111.047395317786396, -0.20133118436215 ], [ 111.047503219791139, -0.20125875044886 ], [ 111.047629114275125, -0.201267791370751 ], [ 111.047719030612498, -0.201186306235832 ], [ 111.047745994171052, -0.20104145647389 ], [ 111.047575118091615, -0.200824201984957 ], [ 111.04742223703893, -0.200715581152134 ], [ 111.047368252863052, -0.200398733017597 ], [ 111.047395222425365, -0.20031725389616 ], [ 111.04765598594652, -0.200145223058834 ], [ 111.047700949649567, -0.200163324685196 ], [ 111.047727934493352, -0.200244798664171 ], [ 111.047934774997998, -0.200407732069562 ], [ 111.0480336905473, -0.200398669708812 ], [ 111.048087641545152, -0.200362452783978 ], [ 111.048096627146919, -0.200290028347752 ], [ 111.048060634625486, -0.200045602179889 ], [ 111.04801564719088, -0.199774018012805 ], [ 111.048033624365218, -0.19969253977601 ], [ 111.047997642067315, -0.199556748966555 ], [ 111.048006631081392, -0.199520536322534 ], [ 111.047979652190804, -0.19950243298219 ], [ 111.047979647960489, -0.199457168241669 ], [ 111.048000627406012, -0.199426989761123 ], [ 111.0481505052351, -0.19947525795404 ], [ 111.048337110621489, -0.19961556094906 ], [ 111.04836094496487, -0.19966353930604 ], [ 111.048492238375957, -0.199710602173982 ], [ 111.048528206270603, -0.199692492870374 ], [ 111.04861813278302, -0.199719643176515 ], [ 111.048654102370165, -0.199719639763912 ], [ 111.048681085493257, -0.199783007819969 ], [ 111.048777020785991, -0.199958022313207 ], [ 111.048914880163252, -0.199701509132323 ], [ 111.04882086300519, -0.19902365122744 ], [ 111.04902839381424, -0.198943482175854 ], [ 111.051823858347859, -0.19894347357567 ], [ 111.059722379864326, -0.19895079772117 ], [ 111.059723013020246, -0.197821674113876 ], [ 111.059972852365803, -0.198058314046473 ], [ 111.060092279007108, -0.198433039341886 ], [ 111.060263135289688, -0.198451128906891 ], [ 111.060496950978475, -0.198607870992373 ], [ 111.060478984709576, -0.19880417128089 ], [ 111.06039805869861, -0.198858496349429 ], [ 111.06039806550136, -0.198930919505715 ] ] ] } },
{ "type": "Feature", "properties": { "LAYER": "HGU", "GM_TYPE": "Unknown Area Type", "ELEVATION": 135.229, "NO_HGU": "HGU NO 209", "TAHUN": "2015", "BIDANG": "H" }, "geometry": { "type": "Polygon", "coordinates": [ [ [ 111.006120006000899, -0.207147182740114 ], [ 111.006362856152194, -0.207681293841092 ], [ 111.006767514462894, -0.20759977689961 ], [ 111.007343071092805, -0.20793468711833 ], [ 111.00753194696901, -0.208269634382539 ], [ 111.007765769390787, -0.208432567996497 ], [ 111.007972601161697, -0.208459707410263 ], [ 111.008071957597437, -0.208501830628685 ], [ 110.997444493052143, -0.208551801218736 ], [ 110.997444491199857, -0.219738063706142 ], [ 110.996975766958258, -0.219903962567613 ], [ 110.99633277929459, -0.219754650236367 ], [ 110.996049507450067, -0.219713939551631 ], [ 110.995869635963501, -0.219523841156877 ], [ 110.995662797380689, -0.219442383468726 ], [ 110.995330073630967, -0.219478629641916 ], [ 110.995258128979984, -0.219442424201821 ], [ 110.995186173544454, -0.219297580709506 ], [ 110.995033311371699, -0.219424340483698 ], [ 110.994565703398976, -0.219514919261976 ], [ 110.994457798070684, -0.219578302337424 ], [ 110.994399394993167, -0.220071706206049 ], [ 110.994385994068338, -0.220954392040432 ], [ 110.99439508462558, -0.221932133926072 ], [ 110.994951380557552, -0.222301964059665 ], [ 110.995105530123723, -0.22220365677295 ], [ 110.995222449846096, -0.222357548760182 ], [ 110.995600143624671, -0.222389196330782 ], [ 110.995676604705082, -0.222624570919022 ], [ 110.995204670470798, -0.224394513992216 ], [ 110.994898938322493, -0.224566555720079 ], [ 110.99453022824251, -0.224448902424884 ], [ 110.994332410423411, -0.224648092612641 ], [ 110.993963688301577, -0.224412748001027 ], [ 110.993864721544227, -0.223941993010201 ], [ 110.994350279190385, -0.223498337638303 ], [ 110.994377245211851, -0.223380643611443 ], [ 110.99416142097563, -0.223371612532866 ], [ 110.994152420108534, -0.223290134878176 ], [ 110.994314272979366, -0.223145267523429 ], [ 110.994161379864138, -0.222964219658423 ], [ 110.99389156603786, -0.222620226530746 ], [ 110.993199112658658, -0.22242112721015 ], [ 110.993253063961959, -0.222375855819799 ], [ 110.993226072393313, -0.222240060884408 ], [ 110.992578544889767, -0.221669776336431 ], [ 110.992587494969229, -0.221244275891788 ], [ 110.992524127403584, -0.221131579764571 ], [ 110.992553126215171, -0.220911780697043 ], [ 110.992461540124737, -0.220664884991434 ], [ 110.992435240168717, -0.220426003022512 ], [ 110.992435635621462, -0.205328420857232 ], [ 111.007619849059523, -0.205328348293316 ], [ 111.007655826932819, -0.20534863161044 ], [ 111.00711047740802, -0.205690909483835 ], [ 111.006936379758798, -0.205771942427169 ], [ 111.006878328690746, -0.205921016660812 ], [ 111.006944416894257, -0.206131178598664 ], [ 111.006783308616534, -0.2063513206274 ], [ 111.006779311536988, -0.206400379880669 ], [ 111.006705307144827, -0.206448359439234 ], [ 111.006694268128982, -0.206489452618218 ], [ 111.006712296602103, -0.206567479764956 ], [ 111.006125929831526, -0.206888758731323 ], [ 111.006083738209469, -0.206957916862743 ], [ 111.006120006000899, -0.207147182740114 ] ] ] } },
{ "type": "Feature", "properties": { "LAYER": "HGU", "GM_TYPE": "Unknown Area Type", "ELEVATION": 87.6603, "NO_HGU": "HGU NO 207", "TAHUN": "2015", "BIDANG": "F" }, "geometry": { "type": "Polygon", "coordinates": [ [ [ 111.031112508693568, -0.193949625794769 ], [ 111.031076594001703, -0.194111979466306 ], [ 111.031130042005898, -0.194162299326881 ], [ 111.031271296367393, -0.194213460351818 ], [ 111.031535218070289, -0.194496526311023 ], [ 111.031685516660275, -0.194485784692733 ], [ 111.031911043493082, -0.194996593077893 ], [ 111.031936800687433, -0.195683571790054 ], [ 111.031809299328017, -0.195987777598906 ], [ 111.032070833733073, -0.196293583929461 ], [ 111.032561125138685, -0.196387580367571 ], [ 111.032667223411721, -0.196266556411148 ], [ 111.032799286714436, -0.196281478656524 ], [ 111.032997430369278, -0.19643161927792 ], [ 111.033366648323437, -0.196190408844934 ], [ 111.033852259242948, -0.1963895302156 ], [ 111.034324420425335, -0.196797153526386 ], [ 111.034490760018741, -0.19678780346382 ], [ 111.034598652938442, -0.196606733360762 ], [ 111.034589643957744, -0.196425674084967 ], [ 111.034670565314258, -0.196307977535719 ], [ 111.035057268081502, -0.196606690909858 ], [ 111.034967379970936, -0.197005031401309 ], [ 111.034549258201892, -0.197303819366812 ], [ 111.034697684390267, -0.197856038886393 ], [ 111.034870961727918, -0.198011198889534 ], [ 111.035039420135419, -0.198100438148431 ], [ 111.035111374361023, -0.198190970925163 ], [ 111.035003478938492, -0.19831771879078 ], [ 111.034931535969619, -0.198281513492537 ], [ 111.034834408105212, -0.198472740119214 ], [ 111.035003497297623, -0.198516884870339 ], [ 111.035039477135712, -0.198625517549673 ], [ 111.034976534969843, -0.198679841459117 ], [ 111.034868621338646, -0.198634586532483 ], [ 111.034812715795397, -0.198753525003901 ], [ 111.034300180874936, -0.198753526083434 ], [ 111.031807454488245, -0.198753531105483 ], [ 111.030372132937202, -0.198753533825366 ], [ 111.030372128917918, -0.211776306129504 ], [ 111.029780841122644, -0.21190212852383 ], [ 111.029055804070978, -0.21256210269463 ], [ 111.028345653128369, -0.21264112264825 ], [ 111.027192749545691, -0.212176695761281 ], [ 111.02755088750844, -0.211999973283255 ], [ 111.027343101559481, -0.211164685460177 ], [ 111.027379060048304, -0.211046992435309 ], [ 111.027346424908032, -0.210932043157313 ], [ 111.027379037098214, -0.210811613502826 ], [ 111.027334062285576, -0.210684875438536 ], [ 111.027495932448389, -0.210739177673494 ], [ 111.027866313736268, -0.210770260902082 ], [ 111.028143392696848, -0.210748166763376 ], [ 111.02841316913991, -0.210766246174277 ], [ 111.02853937009067, -0.21075525065178 ], [ 111.028647364738049, -0.21082558486595 ], [ 111.028718870523107, -0.210322617481123 ], [ 111.028556994300246, -0.210204944042305 ], [ 111.028503013859705, -0.209942411457569 ], [ 111.028538978536147, -0.209888089731225 ], [ 111.028494002038386, -0.209743245657237 ], [ 111.028431051109919, -0.209707039721535 ], [ 111.028431046719447, -0.209661774564381 ], [ 111.028323130716046, -0.209598413947792 ], [ 111.028098313229052, -0.209544117838623 ], [ 111.027939288363427, -0.209642356479951 ], [ 111.027615568350811, -0.209741971667885 ], [ 111.02760658463977, -0.209832502900809 ], [ 111.027516662356874, -0.209859670847962 ], [ 111.027389320834004, -0.209221788351129 ], [ 111.027148256985043, -0.209386034069012 ], [ 111.026461641018244, -0.209145944748984 ], [ 111.025652332842313, -0.209318031803014 ], [ 111.02477101618166, -0.208783988333036 ], [ 111.024555138624038, -0.208186508247513 ], [ 111.024693232130176, -0.207712513376651 ], [ 111.024770890971979, -0.207480349572494 ], [ 111.024968730345535, -0.207525595604069 ], [ 111.025310464459508, -0.207724729411799 ], [ 111.026005840718639, -0.207669171452622 ], [ 111.026086632542473, -0.207560325426677 ], [ 111.026248494872917, -0.207533150576871 ], [ 111.026491295723019, -0.207569339143936 ], [ 111.026644174210773, -0.20763269555863 ], [ 111.026770068259822, -0.207623630278915 ], [ 111.026841998657432, -0.207524039863703 ], [ 111.026859963686661, -0.207315818239142 ], [ 111.02691390910752, -0.207216229583547 ], [ 111.027120734702663, -0.20719810343519 ], [ 111.027318618284198, -0.207691488141399 ], [ 111.027405798583331, -0.20776528905997 ], [ 111.027768242380787, -0.207686917869226 ], [ 111.027855562055279, -0.207686909370436 ], [ 111.02785982670288, -0.207620371547237 ], [ 111.027648445489532, -0.207018365295714 ], [ 111.027895172804506, -0.206583435662345 ], [ 111.028277889366507, -0.206701448096611 ], [ 111.028687044021908, -0.206665196323388 ], [ 111.029182632511123, -0.20629118857996 ], [ 111.029680645962884, -0.20595896395854 ], [ 111.029624665429125, -0.205865055311567 ], [ 111.02887021819852, -0.20586512816626 ], [ 111.029199798929966, -0.205066348521448 ], [ 111.029668143812785, -0.205168400819809 ], [ 111.029837646177214, -0.205266807735625 ], [ 111.029932308903639, -0.204628144933683 ], [ 111.029815379844891, -0.204329419751854 ], [ 111.029608571662763, -0.20452860616437 ], [ 111.02953663096315, -0.204519560040958 ], [ 111.029446711299755, -0.204573886832484 ], [ 111.029365772970792, -0.20451052340705 ], [ 111.029212902499381, -0.204528644129078 ], [ 111.029114004320448, -0.204745912867117 ], [ 111.028908027751996, -0.204866111468323 ], [ 111.028901628213163, -0.204949345348812 ], [ 111.028704481075039, -0.205153468587212 ], [ 111.028346271625267, -0.205282573006025 ], [ 111.028089124594274, -0.20525158034468 ], [ 111.027804950257277, -0.205054535057026 ], [ 111.027515756793093, -0.204992471660067 ], [ 111.0275297543009, -0.204813347205345 ], [ 111.027486653731032, -0.204612233827949 ], [ 111.027501035039862, -0.204510688762163 ], [ 111.027465359081475, -0.204504656823637 ], [ 111.027441374546143, -0.204456376264338 ], [ 111.027315480548623, -0.204465441359925 ], [ 111.027222553779851, -0.20441917918468 ], [ 111.027153614015546, -0.204447350790282 ], [ 111.027027720856466, -0.204465468921758 ], [ 111.026950014416272, -0.20443088560045 ], [ 111.026939573471324, -0.195494137850816 ], [ 111.027160007427071, -0.195401367678897 ], [ 111.027182394519102, -0.195292802165523 ], [ 111.027169610688858, -0.19525640638876 ], [ 111.027335697355426, -0.195137277483494 ], [ 111.027326702666727, -0.19488809893482 ], [ 111.027231619404716, -0.194642005640217 ], [ 111.02731168930201, -0.194499894591848 ], [ 111.027381779428367, -0.194573579181649 ], [ 111.027704249039445, -0.194688125285447 ], [ 111.02772790842684, -0.194629922292725 ], [ 111.027989066419053, -0.194624920315401 ], [ 111.028105233586288, -0.194511985491702 ], [ 111.028223689599457, -0.194407517190897 ], [ 111.028546524939117, -0.194425511866291 ], [ 111.02867352603586, -0.194352688630882 ], [ 111.028621439610163, -0.193988473551515 ], [ 111.028852564431915, -0.193960393844797 ], [ 111.029111495968365, -0.194539016552501 ], [ 111.029378933964637, -0.194503688610786 ], [ 111.029485991876925, -0.194331615817356 ], [ 111.02950703712979, -0.194181454743287 ], [ 111.029420938719412, -0.194074387066883 ], [ 111.029399936778319, -0.193881327198389 ], [ 111.029507010171102, -0.193881317458818 ], [ 111.02980819808964, -0.193752220181936 ], [ 111.029979272978935, -0.193859280118784 ], [ 111.030019326750192, -0.193998302639247 ], [ 111.030039233622034, -0.193954618428458 ], [ 111.030380949180412, -0.193972693365145 ], [ 111.030695679954391, -0.193909293548472 ], [ 111.030830554801341, -0.193773485945399 ], [ 111.030865263989128, -0.19356480191043 ], [ 111.030972859232662, -0.193517960259166 ], [ 111.031112508693568, -0.193949625794769 ] ] ] } }
]
}
