{
"type": "FeatureCollection",
"name": "pt_btl_boundary",
"crs": { "type": "name", "properties": { "name": "urn:ogc:def:crs:OGC:1.3:CRS84" } },
"features": [
{ "type": "Feature", "properties": { "Nama": "244", "Luas": 314.8, "Ket_1": "NIB. 14.04.00.00.00046", "Ket_2": "Inti", "No_HGU": "No. 244", "Luas_Doc": 315.18, "id": "G" }, "geometry": { "type": "Polygon", "coordinates": [ [ [ 110.700113863538277, 0.823413636666251 ], [ 110.702898367986251, 0.823245719793264 ], [ 110.703010167036851, 0.823235811347977 ], [ 110.703985534403742, 0.823148834017373 ], [ 110.706945508317773, 0.82288559206036 ], [ 110.710504019808454, 0.82257143001357 ], [ 110.710875036182799, 0.818046565794456 ], [ 110.710726399212206, 0.815925656723152 ], [ 110.708535162871371, 0.810539107664821 ], [ 110.710320541004421, 0.80886470894034 ], [ 110.709313950620796, 0.807283118407945 ], [ 110.710399781152134, 0.802900628592919 ], [ 110.695745291137825, 0.802904969807266 ], [ 110.695707210451388, 0.803247944986348 ], [ 110.69576979187741, 0.80423334912419 ], [ 110.695770274623115, 0.804493921409582 ], [ 110.695752200461229, 0.805195792831499 ], [ 110.695825737883581, 0.805835704859614 ], [ 110.695988877698511, 0.80606029237169 ], [ 110.696083681423701, 0.80645212740714 ], [ 110.696112297662211, 0.807100716767505 ], [ 110.696100427796793, 0.807220560613687 ], [ 110.696017149769602, 0.807479159789857 ], [ 110.69603133552117, 0.808191091682939 ], [ 110.696077257632609, 0.808817249980591 ], [ 110.69602470341006, 0.809411673912034 ], [ 110.696210920047449, 0.809718211384237 ], [ 110.696299510525961, 0.810222686060051 ], [ 110.696366146467327, 0.810695816484562 ], [ 110.69632134026007, 0.811148202872463 ], [ 110.696367955359719, 0.811421443916095 ], [ 110.696852108348608, 0.812793345060722 ], [ 110.696866419456626, 0.813684063414091 ], [ 110.697267689669388, 0.814376684213115 ], [ 110.697546777878216, 0.814853302836833 ], [ 110.697875191485522, 0.815290268603765 ], [ 110.698104985913631, 0.816861531268039 ], [ 110.698408851767326, 0.817276205775317 ], [ 110.698771511160331, 0.81850874789077 ], [ 110.698833705135456, 0.819207774279102 ], [ 110.699496454295016, 0.820427037034241 ], [ 110.699835366154517, 0.821808073354151 ], [ 110.700154629228166, 0.822551227754351 ], [ 110.700196413106468, 0.822960111394425 ], [ 110.700113863538277, 0.823413636666251 ] ] ] } },
{ "type": "Feature", "properties": { "Nama": "02", "Luas": 19.27, "Ket_1": "NIB. 14.04.00.00.00271", "Ket_2": "Plasma", "No_HGU": "No. 281", "Luas_Doc": 19.29, "id": "I" }, "geometry": { "type": "Polygon", "coordinates": [ [ [ 110.704073866407612, 0.762320662846145 ], [ 110.70386153114822, 0.759960448021013 ], [ 110.703962760315235, 0.759659247018165 ], [ 110.703740058102696, 0.75959100893282 ], [ 110.703733965853715, 0.759576279775398 ], [ 110.70391316689269, 0.759387222200695 ], [ 110.703879445624068, 0.759182998164849 ], [ 110.703063245904104, 0.758868551578658 ], [ 110.702881735059336, 0.758975050468204 ], [ 110.70280971917775, 0.759410289412071 ], [ 110.702980621357867, 0.759966156810741 ], [ 110.702076981942426, 0.759929480176117 ], [ 110.70162558709454, 0.758385923800689 ], [ 110.701366165313331, 0.758506443778903 ], [ 110.701400784908969, 0.758820265523716 ], [ 110.701025304496071, 0.75892484268607 ], [ 110.700591040102864, 0.759998140594705 ], [ 110.700105204316031, 0.761418900679899 ], [ 110.700119722109491, 0.762349408248716 ], [ 110.700878714983986, 0.763139175854429 ], [ 110.704033088872364, 0.764009631223319 ], [ 110.704405219245857, 0.763623999582823 ], [ 110.704073866407612, 0.762320662846145 ] ] ] } },
{ "type": "Feature", "properties": { "Nama": "03", "Luas": 50.81, "Ket_1": "NIB. 14.04.00.00.00272", "Ket_2": "Plasma", "No_HGU": "No. 283", "Luas_Doc": 50.85, "id": "J" }, "geometry": { "type": "Polygon", "coordinates": [ [ [ 110.695468667499568, 0.762362511329166 ], [ 110.69533620902979, 0.759959250697175 ], [ 110.695353693030469, 0.758204980956035 ], [ 110.695290094975249, 0.755582643843288 ], [ 110.695368762429396, 0.754373926070152 ], [ 110.693551032308235, 0.753624714530174 ], [ 110.693692998468052, 0.753383769887524 ], [ 110.695382635778302, 0.7531943856551 ], [ 110.695142039034494, 0.751163664058425 ], [ 110.693513800616756, 0.749219393147395 ], [ 110.692494821480935, 0.748817982649778 ], [ 110.6918681894645, 0.748801939532712 ], [ 110.691925125835994, 0.74864917214562 ], [ 110.691571526785836, 0.748293241738851 ], [ 110.691247519269865, 0.748196609581554 ], [ 110.691318824433054, 0.748017032426734 ], [ 110.690444510506509, 0.747302681885816 ], [ 110.688579397780984, 0.747431703082265 ], [ 110.689704422211392, 0.74865847614981 ], [ 110.689754960162034, 0.749353807381378 ], [ 110.690503806702282, 0.750719293222898 ], [ 110.691714452539202, 0.752629130193429 ], [ 110.691602881256131, 0.753872165135886 ], [ 110.692030862080173, 0.754324605597917 ], [ 110.692309932441418, 0.754212278642326 ], [ 110.692843651246605, 0.754617484292952 ], [ 110.693026534065496, 0.754608730501343 ], [ 110.693680475384141, 0.755232010710566 ], [ 110.693750809027947, 0.755584241802876 ], [ 110.694058951821546, 0.755885620470725 ], [ 110.694083102276338, 0.756993587098203 ], [ 110.693475522549562, 0.757042467093685 ], [ 110.692597355349932, 0.757500374070399 ], [ 110.692565837189079, 0.758445928511801 ], [ 110.692759994034219, 0.759012925938816 ], [ 110.693759635468311, 0.758759534622758 ], [ 110.693803804086158, 0.759085593523049 ], [ 110.694051763703357, 0.759240160354298 ], [ 110.694451976824951, 0.759224984417686 ], [ 110.694380784648175, 0.7599073827787 ], [ 110.694145128331854, 0.760606846910959 ], [ 110.694198857360291, 0.760931513661617 ], [ 110.693402840791677, 0.761181364883726 ], [ 110.693140865228642, 0.761670104947235 ], [ 110.693101988747074, 0.761439647902113 ], [ 110.692796709965322, 0.760693303414257 ], [ 110.692489961043677, 0.760985770306347 ], [ 110.692552492374858, 0.761182597481 ], [ 110.692145571888219, 0.761327619501862 ], [ 110.692132618104594, 0.762536961158959 ], [ 110.695402349713973, 0.762767064579577 ], [ 110.695439763774985, 0.763249284763155 ], [ 110.695673124233295, 0.763370060469876 ], [ 110.696234678282025, 0.763364584465905 ], [ 110.69658146199086, 0.76275489335136 ], [ 110.697261698865461, 0.762655602023601 ], [ 110.697445246538834, 0.762540131292516 ], [ 110.697284081570643, 0.762377498169604 ], [ 110.695468667499568, 0.762362511329166 ] ] ] } },
{ "type": "Feature", "properties": { "Nama": "02", "Luas": 164.53, "Ket_1": "NIB. 14.04.00.00.00270", "Ket_2": "Plasma", "No_HGU": "No. 280", "Luas_Doc": 164.69, "id": "H" }, "geometry": { "type": "Polygon", "coordinates": [ [ [ 110.706379148208072, 0.770752983201045 ], [ 110.704731649217791, 0.76935215260971 ], [ 110.704749995165074, 0.766700196486229 ], [ 110.703594030383158, 0.764713029151727 ], [ 110.702337006039158, 0.765230103876036 ], [ 110.701824962279446, 0.765644915693641 ], [ 110.69964043903002, 0.765449161014952 ], [ 110.699202163695205, 0.765431618149127 ], [ 110.699112977437309, 0.765405200642159 ], [ 110.698709381130627, 0.764740302757422 ], [ 110.697649400867206, 0.764740227864248 ], [ 110.69761995360868, 0.765174246946122 ], [ 110.697348559204428, 0.765330289894579 ], [ 110.696721990407084, 0.764596885915048 ], [ 110.696354433929812, 0.764385639204712 ], [ 110.696141320692831, 0.764480018362676 ], [ 110.695149183778042, 0.763587231678189 ], [ 110.694914997762069, 0.763550003144139 ], [ 110.694128219574154, 0.764134431822142 ], [ 110.694105853537749, 0.764854582207141 ], [ 110.6941135006672, 0.767200630001549 ], [ 110.69324366209257, 0.767182602048482 ], [ 110.693273384672437, 0.767761679140192 ], [ 110.692753605055501, 0.768273990149109 ], [ 110.692402232686433, 0.768132207806949 ], [ 110.69213739189135, 0.768462381137212 ], [ 110.692411629180896, 0.769086244796784 ], [ 110.693468974160922, 0.769886857687757 ], [ 110.69338154615042, 0.770493855216759 ], [ 110.692859235674504, 0.770226746881497 ], [ 110.692757351953361, 0.769696566671171 ], [ 110.692233021968633, 0.768982912369765 ], [ 110.691600274639484, 0.768982864061684 ], [ 110.691492843008476, 0.767371104406567 ], [ 110.690722619928962, 0.767246330980125 ], [ 110.690302232380361, 0.766111672111548 ], [ 110.690033838988171, 0.76608552183663 ], [ 110.689869001230804, 0.765081018496116 ], [ 110.68932505781639, 0.7651178859022 ], [ 110.689125036633982, 0.765419807456743 ], [ 110.688430684662592, 0.765140314424903 ], [ 110.68858411809299, 0.765966204670444 ], [ 110.688361404708473, 0.76612770412045 ], [ 110.688658152088678, 0.767332445342944 ], [ 110.688205961186611, 0.767819273048706 ], [ 110.688528750823679, 0.769229830619081 ], [ 110.690341645958284, 0.768789870292316 ], [ 110.690536520466395, 0.769579561449382 ], [ 110.690858190635169, 0.769627193543505 ], [ 110.691084295984709, 0.769978379264928 ], [ 110.69060314998282, 0.7701143485015 ], [ 110.691589776168456, 0.771994430354069 ], [ 110.691703539980253, 0.774200588078051 ], [ 110.695663553077608, 0.77422838398276 ], [ 110.700620824451562, 0.77410622797076 ], [ 110.705112229531281, 0.773995546883051 ], [ 110.708636774366127, 0.77390868877203 ], [ 110.707702997687988, 0.771694246879087 ], [ 110.706201961316523, 0.771582336477141 ], [ 110.706379148208072, 0.770752983201045 ] ] ] } },
{ "type": "Feature", "properties": { "Nama": "03", "Luas": 0.86, "Ket_1": "NIB. 14.04.00.00.00273", "Ket_2": "Plasma", "No_HGU": "No. 284", "Luas_Doc": 0.86, "id": "L" }, "geometry": { "type": "Polygon", "coordinates": [ [ [ 110.690472211778626, 0.754118302729301 ], [ 110.69050815064162, 0.754145438775513 ], [ 110.690669932932479, 0.754082132070688 ], [ 110.690687880600805, 0.75398254981857 ], [ 110.690562128452427, 0.753846863778615 ], [ 110.690759864078572, 0.753566379683956 ], [ 110.690795813455694, 0.753466882910764 ], [ 110.690661035121551, 0.753204557470641 ], [ 110.690767981798331, 0.753059746701273 ], [ 110.690705954249424, 0.753023566158785 ], [ 110.690391350545838, 0.753168361689548 ], [ 110.6899959374405, 0.752752157193689 ], [ 110.689708381893595, 0.753032539356208 ], [ 110.689753272684541, 0.75327685864641 ], [ 110.689852121928453, 0.753448722656134 ], [ 110.690409323199319, 0.753756398261403 ], [ 110.690472211778626, 0.754118302729301 ] ] ] } },
{ "type": "Feature", "properties": { "Nama": "04", "Luas": 77.68, "Ket_1": "NIB. 14.04.00.00.00269", "Ket_2": "Plasma", "No_HGU": "No. 290", "Luas_Doc": 77.75, "id": "R" }, "geometry": { "type": "Polygon", "coordinates": [ [ [ 110.642058037538177, 0.791140146009594 ], [ 110.641844664645959, 0.790996109862533 ], [ 110.641824036041953, 0.791344758753556 ], [ 110.641679607306415, 0.791404587775307 ], [ 110.641580201303455, 0.791871624504311 ], [ 110.641865218246721, 0.792250824658763 ], [ 110.642161680883277, 0.792458137990812 ], [ 110.642165946950186, 0.792862303262808 ], [ 110.643173892255561, 0.793475085641182 ], [ 110.643921725175588, 0.793585070533898 ], [ 110.644563757132289, 0.79402433085695 ], [ 110.644603421650544, 0.793955398197041 ], [ 110.644735547455568, 0.794435029985464 ], [ 110.644710676224932, 0.794772205466644 ], [ 110.645420993324237, 0.79532354472789 ], [ 110.645745758699306, 0.7947845456762 ], [ 110.64543405336245, 0.793782886933822 ], [ 110.645220373742873, 0.793485404558583 ], [ 110.644643152452389, 0.793502604715003 ], [ 110.644377237942237, 0.792189710469627 ], [ 110.643908616513031, 0.791328151402837 ], [ 110.643611780858251, 0.791234203086425 ], [ 110.64324241539093, 0.791477833361386 ], [ 110.643968467432828, 0.792358522988933 ], [ 110.643395318292917, 0.792552974476777 ], [ 110.643197000523514, 0.792129542641913 ], [ 110.642548140037817, 0.791550036509842 ], [ 110.644385067435223, 0.787138248196576 ], [ 110.643276951925543, 0.785001494379283 ], [ 110.643933043958739, 0.784947274168219 ], [ 110.644238621226322, 0.784549217827677 ], [ 110.643465761276232, 0.784350155013311 ], [ 110.643879328069147, 0.784098225684766 ], [ 110.64433750356163, 0.784305008770445 ], [ 110.644652119528573, 0.784078807802487 ], [ 110.645182346149511, 0.784277946266934 ], [ 110.645464256758501, 0.783266146165064 ], [ 110.643573638819404, 0.783752995112969 ], [ 110.643639199771059, 0.782767740268475 ], [ 110.640185606105959, 0.781201491793176 ], [ 110.640204321680812, 0.78068222311984 ], [ 110.640309440380747, 0.780774538726866 ], [ 110.640948668641556, 0.780712928074996 ], [ 110.641533822861106, 0.779998307505597 ], [ 110.642432660179225, 0.779428448652548 ], [ 110.642522452988743, 0.779754081508475 ], [ 110.642037081229745, 0.780061668416703 ], [ 110.643771367997147, 0.780177963518511 ], [ 110.643582960296612, 0.779591356363814 ], [ 110.643061778012552, 0.779283682898322 ], [ 110.643331401213473, 0.779102799043796 ], [ 110.642900062421148, 0.778541867129376 ], [ 110.642441722548924, 0.778288468987704 ], [ 110.642477707215008, 0.777781846859947 ], [ 110.641427762965506, 0.776770219044546 ], [ 110.640436679412346, 0.777814052291582 ], [ 110.640527024392952, 0.77812302852141 ], [ 110.637902937201929, 0.780025132623724 ], [ 110.637599098439495, 0.780212708491508 ], [ 110.637158785929699, 0.779688346513492 ], [ 110.636804072588973, 0.780399568020028 ], [ 110.636907691482747, 0.781298031491167 ], [ 110.63637484129427, 0.782268676189697 ], [ 110.635449146774633, 0.782322868719383 ], [ 110.634588560863946, 0.781805954505475 ], [ 110.634172932851968, 0.782250394521536 ], [ 110.634820001571057, 0.782775170867011 ], [ 110.634469836549044, 0.783531126607264 ], [ 110.635053558743138, 0.78399657197862 ], [ 110.635826527121012, 0.78382469256568 ], [ 110.635880488501186, 0.782856673902616 ], [ 110.636320915465049, 0.782901939547869 ], [ 110.636527542241353, 0.783625758637078 ], [ 110.636773633966015, 0.783857177817312 ], [ 110.637111696823169, 0.784096249125006 ], [ 110.637605945153439, 0.78482009765738 ], [ 110.635871309529549, 0.78536275101771 ], [ 110.635826126544586, 0.785802885190924 ], [ 110.636796937166139, 0.786122815524434 ], [ 110.638873020113977, 0.786077773618176 ], [ 110.640625630647236, 0.785905976635275 ], [ 110.641014154396174, 0.785691700670225 ], [ 110.641066056885037, 0.785055572239863 ], [ 110.642528573273779, 0.78534187130709 ], [ 110.641218726526745, 0.78678359587532 ], [ 110.64124557444643, 0.78743503914697 ], [ 110.642084247572768, 0.788168204017047 ], [ 110.642058037538177, 0.791140146009594 ] ] ] } },
{ "type": "Feature", "properties": { "Nama": "97", "Luas": 186.37, "Ket_1": "NIB 14.04.00.00.00015", "Ket_2": "Inti", "No_HGU": "No. 97", "Luas_Doc": 186.55, "id": "B" }, "geometry": { "type": "Polygon", "coordinates": [ [ [ 110.642756890006936, 0.802835206565935 ], [ 110.642371219468217, 0.801965946989427 ], [ 110.642233759392539, 0.802029131198475 ], [ 110.641816525687332, 0.802277863499645 ], [ 110.641618521452017, 0.802451282165673 ], [ 110.641379177258784, 0.802655264448535 ], [ 110.64109199126483, 0.802854134342179 ], [ 110.640786574717069, 0.803116514238828 ], [ 110.640474412260446, 0.803332118415635 ], [ 110.64013179578275, 0.803650657519609 ], [ 110.639812526427249, 0.803953310236123 ], [ 110.639538334745524, 0.804091412496581 ], [ 110.639484544621524, 0.804113088915106 ], [ 110.639149783486104, 0.804225521268316 ], [ 110.638434214630465, 0.804373488605162 ], [ 110.637980963437144, 0.804417488247801 ], [ 110.637357168649118, 0.804688057424503 ], [ 110.637265580992207, 0.804734187452962 ], [ 110.636798892456298, 0.804920481134067 ], [ 110.636388134305932, 0.805210972938088 ], [ 110.636385615369193, 0.805212643778257 ], [ 110.636391900960831, 0.827599235659269 ], [ 110.640928039210536, 0.82808637662483 ], [ 110.645146853218279, 0.828463535404556 ], [ 110.644738199953963, 0.828085168079013 ], [ 110.64397405214558, 0.82762593535882 ], [ 110.643297310624703, 0.826918222462471 ], [ 110.642922279947442, 0.826038046204426 ], [ 110.642624740665553, 0.821294782818489 ], [ 110.642678348470639, 0.820127378354026 ], [ 110.642605603632603, 0.819670543386582 ], [ 110.6419758024782, 0.818448718446594 ], [ 110.641761105566772, 0.817773999419146 ], [ 110.64171653935594, 0.817228589321553 ], [ 110.642001618979378, 0.816483625138696 ], [ 110.642414507291875, 0.815850755722079 ], [ 110.642685124885418, 0.815205533158808 ], [ 110.642901463407313, 0.814178745653431 ], [ 110.642793462907861, 0.813455363172339 ], [ 110.642936808506619, 0.812778032340926 ], [ 110.642918316173876, 0.812389427176406 ], [ 110.642578172797187, 0.811372667901787 ], [ 110.642305325300839, 0.8097297400293 ], [ 110.642324955607592, 0.8083465894055 ], [ 110.642293200142532, 0.807426954471564 ], [ 110.641981044804368, 0.806435002104696 ], [ 110.642371573526049, 0.805451398558474 ], [ 110.643016116821258, 0.804865325623737 ], [ 110.643287053471312, 0.80410259632811 ], [ 110.642988416597731, 0.80356851084623 ], [ 110.642756890006936, 0.802835206565935 ] ] ] } },
{ "type": "Feature", "properties": { "Nama": "243", "Luas": 2598.17, "Ket_1": "NIB. 14.04.00.00.00832", "Ket_2": "Inti", "No_HGU": "No. 243", "Luas_Doc": 2600.9, "id": "F" }, "geometry": { "type": "Polygon", "coordinates": [ [ [ 110.701536258738329, 0.84580432244565 ], [ 110.701323809846045, 0.842195574951452 ], [ 110.701111833419787, 0.835348021374393 ], [ 110.700930290483413, 0.834985440808733 ], [ 110.700164817274214, 0.833456629553454 ], [ 110.699616953767432, 0.832362439506526 ], [ 110.698041771715936, 0.831793924673332 ], [ 110.697871306838138, 0.830673344741499 ], [ 110.69746037571656, 0.827972032678673 ], [ 110.697700600783605, 0.823706234482816 ], [ 110.699246691105955, 0.823510029673839 ], [ 110.699747513177925, 0.823446468165008 ], [ 110.69976471913688, 0.8234442846019 ], [ 110.699793163841207, 0.823243418885664 ], [ 110.699829309112275, 0.823097692210337 ], [ 110.69985230592205, 0.822950792455091 ], [ 110.699820447802111, 0.822639039860424 ], [ 110.69950919860743, 0.821914540353806 ], [ 110.699488303388122, 0.821820022396028 ], [ 110.69925607179573, 0.820787474306045 ], [ 110.699180881106983, 0.820560633164268 ], [ 110.698828451896958, 0.819869347329612 ], [ 110.69851406490514, 0.819339148974321 ], [ 110.698441308853802, 0.81903612681563 ], [ 110.698450665398241, 0.818789327736052 ], [ 110.698434793410286, 0.818582428854946 ], [ 110.698304455025706, 0.818224137475341 ], [ 110.698092808677586, 0.81741729473009 ], [ 110.697993206450846, 0.817263144183428 ], [ 110.69780156879753, 0.81703179307095 ], [ 110.697734594782744, 0.816829738277771 ], [ 110.697678855871061, 0.816391259198335 ], [ 110.69754894512171, 0.815425707456462 ], [ 110.697306604557582, 0.815103264823063 ], [ 110.697136888991878, 0.814982746581974 ], [ 110.696966248405559, 0.814544155589907 ], [ 110.696719430527708, 0.814207175083621 ], [ 110.696619424327309, 0.814016040101634 ], [ 110.696528444164258, 0.813751718519133 ], [ 110.696490644339306, 0.813108123942138 ], [ 110.696507359790957, 0.812837620166451 ], [ 110.696373257268732, 0.812424617837251 ], [ 110.696203066825404, 0.811983178986127 ], [ 110.696036437517179, 0.811508376137341 ], [ 110.695977082736405, 0.811160458517835 ], [ 110.696021847687774, 0.810708492175028 ], [ 110.695961468816733, 0.810271667770705 ], [ 110.682366451002281, 0.810303244382869 ], [ 110.682362911364322, 0.798005250429516 ], [ 110.692291359508545, 0.798002365245122 ], [ 110.692321786597077, 0.798002356366773 ], [ 110.692413067860613, 0.798002329602951 ], [ 110.692400394205634, 0.797906676561441 ], [ 110.692468612169051, 0.797844381930272 ], [ 110.692519106754204, 0.797805488494401 ], [ 110.692763195494507, 0.797565750429879 ], [ 110.692795871405394, 0.79750862159326 ], [ 110.692715037521651, 0.797246301123566 ], [ 110.692894768174014, 0.797038181711632 ], [ 110.692751019455969, 0.796721494124405 ], [ 110.692742066961927, 0.796522496322949 ], [ 110.692679150794206, 0.796486310304871 ], [ 110.693059318482895, 0.795963660754026 ], [ 110.693270228556912, 0.79587387947504 ], [ 110.693724789690492, 0.79590365367174 ], [ 110.694322781653227, 0.795759119638937 ], [ 110.694428491703292, 0.79600045435352 ], [ 110.694322858334033, 0.795220582957538 ], [ 110.694243509394425, 0.794848356353871 ], [ 110.693702105638977, 0.794720775398431 ], [ 110.693702055945991, 0.794547678060393 ], [ 110.693575637217677, 0.79432572787377 ], [ 110.693591579594383, 0.794317813776403 ], [ 110.693570359239544, 0.79427082963761 ], [ 110.693533134261784, 0.794188409548253 ], [ 110.693610835899733, 0.793821429675855 ], [ 110.69372194130635, 0.793500798026725 ], [ 110.693820808452031, 0.793428442792365 ], [ 110.69384461176351, 0.793417419355849 ], [ 110.693686373258274, 0.793102751866821 ], [ 110.693239426877966, 0.792685624927133 ], [ 110.693178522642597, 0.792478928568855 ], [ 110.693119373168031, 0.79213194570809 ], [ 110.692885006293949, 0.792012211609938 ], [ 110.69271442322453, 0.791976150241406 ], [ 110.692605403571932, 0.791988938231665 ], [ 110.692353873363757, 0.79196188325045 ], [ 110.692174260968258, 0.792124702269841 ], [ 110.692174297152519, 0.792251298821581 ], [ 110.692149205644057, 0.792333652855778 ], [ 110.692310980203473, 0.792415072867183 ], [ 110.692221064275188, 0.792704516505563 ], [ 110.692364828948939, 0.792804116274672 ], [ 110.692598488213008, 0.792903632307696 ], [ 110.692564301010904, 0.793212889382481 ], [ 110.692489031441454, 0.793408661791445 ], [ 110.692149093352796, 0.793853538591605 ], [ 110.691987310053648, 0.793889707758903 ], [ 110.691834500676677, 0.793835424357862 ], [ 110.691762613979151, 0.793844464288146 ], [ 110.691592461791529, 0.793970333704925 ], [ 110.691464829028433, 0.794186054464439 ], [ 110.691370535731991, 0.794623639846349 ], [ 110.69119636018857, 0.794640591057426 ], [ 110.690971665850782, 0.794568211364293 ], [ 110.690900736644977, 0.794650518846613 ], [ 110.690585177255628, 0.794685771727814 ], [ 110.690060330453619, 0.794669528837949 ], [ 110.689663923233681, 0.794159041101813 ], [ 110.689523624370409, 0.794061756043142 ], [ 110.689855097005335, 0.794000995099727 ], [ 110.690351073507856, 0.793355025870715 ], [ 110.690656387988298, 0.792984190156536 ], [ 110.690648242933975, 0.792704398539455 ], [ 110.690054933087069, 0.792463486924171 ], [ 110.689841982098798, 0.792372287742099 ], [ 110.688862732001894, 0.791158140069181 ], [ 110.688823133460659, 0.79041661573748 ], [ 110.68846452334283, 0.789935822924914 ], [ 110.688302738885611, 0.789990082636642 ], [ 110.688014605864282, 0.79019982564461 ], [ 110.687834908218321, 0.790064237985444 ], [ 110.687780381791512, 0.78987885698247 ], [ 110.687826381066344, 0.789772958958452 ], [ 110.687726909961228, 0.789349901583709 ], [ 110.687871428084975, 0.788931566678359 ], [ 110.687828349665011, 0.788897082721957 ], [ 110.687852512289581, 0.788789222658258 ], [ 110.687816536891447, 0.788635508351567 ], [ 110.688007220990855, 0.788414608237918 ], [ 110.688039305189136, 0.788375828765355 ], [ 110.68799568312096, 0.788287254309801 ], [ 110.687833935380283, 0.78815164780497 ], [ 110.687816969188276, 0.787989618762628 ], [ 110.68770321078685, 0.788011507443121 ], [ 110.687600478517552, 0.787908151671553 ], [ 110.687591807926879, 0.787786444255472 ], [ 110.687557548744977, 0.78778701393788 ], [ 110.687241144898508, 0.787929611650316 ], [ 110.686989878006457, 0.787833753190318 ], [ 110.686989867447636, 0.78779645364492 ], [ 110.686723476897711, 0.787800883302313 ], [ 110.686735443764192, 0.787839660455952 ], [ 110.686595435296411, 0.787963052924677 ], [ 110.686545112668483, 0.788042038452984 ], [ 110.68639809822281, 0.788361658031398 ], [ 110.686371106008352, 0.788643265054602 ], [ 110.686082929266362, 0.789373364823018 ], [ 110.685966047017814, 0.789184740253666 ], [ 110.685885161249146, 0.78916663978675 ], [ 110.685668150228139, 0.789472481740716 ], [ 110.685547646760213, 0.789521042719939 ], [ 110.685401320730449, 0.789499381494726 ], [ 110.685261163406835, 0.789424186095744 ], [ 110.685079814093214, 0.789403954594953 ], [ 110.68473222326358, 0.789542187805556 ], [ 110.684618747011612, 0.789142813427388 ], [ 110.684609689868211, 0.788880579561302 ], [ 110.684587164696978, 0.788640956143506 ], [ 110.684717278355592, 0.788148095184537 ], [ 110.684552762538161, 0.78781711295897 ], [ 110.68130154152287, 0.787819389595065 ], [ 110.679358306931945, 0.787710367475338 ], [ 110.67562578447523, 0.787633660561013 ], [ 110.67512946620964, 0.787676160489004 ], [ 110.675285038082208, 0.787743865363649 ], [ 110.675258218359403, 0.788205049009722 ], [ 110.675150480752606, 0.788413060970288 ], [ 110.674818153063072, 0.788566880750814 ], [ 110.674677858074716, 0.788505330779506 ], [ 110.674602314446005, 0.788469736983018 ], [ 110.674471194559928, 0.787890108349142 ], [ 110.674552092099233, 0.78775440746605 ], [ 110.674539066422724, 0.787726716480391 ], [ 110.672866018441539, 0.787869979263572 ], [ 110.672302918672472, 0.78791819723086 ], [ 110.672215332541796, 0.788061826122857 ], [ 110.672098456142677, 0.788568457117904 ], [ 110.672096372526028, 0.78881180543598 ], [ 110.672332058225237, 0.789482237538483 ], [ 110.67229427716444, 0.789806443772778 ], [ 110.672312434567843, 0.790489160713521 ], [ 110.67217771861857, 0.79059318978472 ], [ 110.671782481452169, 0.790647558163191 ], [ 110.671351350200766, 0.790837576912679 ], [ 110.671279481040699, 0.790819511968952 ], [ 110.671196755731756, 0.790528361159279 ], [ 110.671324264315942, 0.790349279889211 ], [ 110.67113885202204, 0.789610494881119 ], [ 110.670785000212305, 0.789336652598278 ], [ 110.670461649771227, 0.789472384469084 ], [ 110.670290975083631, 0.789481475515073 ], [ 110.670228066191186, 0.789382023820141 ], [ 110.670057377590311, 0.789341380092904 ], [ 110.669940604748604, 0.789364019876894 ], [ 110.669913764411248, 0.789752862915724 ], [ 110.670210503750951, 0.790824336829922 ], [ 110.670165597540532, 0.790855998967339 ], [ 110.670003877944197, 0.790765618018801 ], [ 110.669590770603165, 0.791163613376431 ], [ 110.669393075858821, 0.790919516945221 ], [ 110.668611593688823, 0.791064421552259 ], [ 110.668570168097617, 0.790879988666974 ], [ 110.668306135569097, 0.790937910483305 ], [ 110.66836009692905, 0.791163962430166 ], [ 110.668297284086407, 0.791408132859144 ], [ 110.668018843272449, 0.791525766780345 ], [ 110.668072802146, 0.791742776052451 ], [ 110.668207570279932, 0.791824122038027 ], [ 110.668189632080555, 0.79192359671755 ], [ 110.667902276576257, 0.792285385873026 ], [ 110.667794477737473, 0.7922763737702 ], [ 110.667713640632471, 0.79231256747262 ], [ 110.667676333420445, 0.79252170101158 ], [ 110.667577468986309, 0.792557874233907 ], [ 110.667496549053467, 0.79246741467722 ], [ 110.66710110142904, 0.792485473310013 ], [ 110.666837847327344, 0.792498191106939 ], [ 110.66670872559132, 0.792213645072403 ], [ 110.666761378817469, 0.792095812759315 ], [ 110.666786640211356, 0.791761642856118 ], [ 110.666750741349887, 0.791209786124848 ], [ 110.666478092518645, 0.790863244657936 ], [ 110.666241896417901, 0.790593017819373 ], [ 110.666031554968612, 0.79051161344051 ], [ 110.665751506967226, 0.790533142779109 ], [ 110.66556481307353, 0.790547495661972 ], [ 110.665392554198704, 0.790646270084591 ], [ 110.665149234288407, 0.790409870926767 ], [ 110.665020899555472, 0.790133436151862 ], [ 110.664970954659708, 0.790075994445465 ], [ 110.664928278142753, 0.790079809768321 ], [ 110.664865389374711, 0.790052699415998 ], [ 110.664865371745336, 0.789989400514645 ], [ 110.665474042504485, 0.789468512898962 ], [ 110.663516744111789, 0.789989349799235 ], [ 110.663591530869198, 0.79003372855338 ], [ 110.66359060258975, 0.790039972342998 ], [ 110.663609644792203, 0.790044477425788 ], [ 110.664060824258115, 0.790312209042091 ], [ 110.664114731547556, 0.790988712388074 ], [ 110.664109285668317, 0.791037711039099 ], [ 110.664127285221085, 0.791146256307484 ], [ 110.664459762621973, 0.791770499258195 ], [ 110.664540687546079, 0.791797641747236 ], [ 110.664578412966677, 0.791792897925807 ], [ 110.66461257407245, 0.791788602302397 ], [ 110.664656862468249, 0.791807707525363 ], [ 110.664747375568609, 0.791824794474206 ], [ 110.665144320835424, 0.791788723738032 ], [ 110.665163378708414, 0.79178699193274 ], [ 110.665315521504468, 0.791773166582809 ], [ 110.665510392461542, 0.791951581166471 ], [ 110.666004676151559, 0.792250116202502 ], [ 110.666292288463396, 0.792313547087009 ], [ 110.666606803124637, 0.792367844380336 ], [ 110.666714705970776, 0.792367853119444 ], [ 110.666750609835461, 0.792856392742478 ], [ 110.666570814630887, 0.792937785880638 ], [ 110.666453998398651, 0.793191135285908 ], [ 110.666067430143428, 0.794303856772539 ], [ 110.665222639970409, 0.793634345346587 ], [ 110.664845205931755, 0.793588997629942 ], [ 110.66461921361828, 0.793624332795993 ], [ 110.663919497449641, 0.793733737256392 ], [ 110.663398248415078, 0.793308475127142 ], [ 110.663389600838201, 0.793306540403668 ], [ 110.663056692071351, 0.793154586632292 ], [ 110.662957829821877, 0.793163623827193 ], [ 110.662679254513023, 0.793154555684913 ], [ 110.662517472917244, 0.793172723456644 ], [ 110.662355691330077, 0.793190800768491 ], [ 110.661991681584823, 0.793155009527975 ], [ 110.661705491800831, 0.793155123121563 ], [ 110.660977859920308, 0.792963565076196 ], [ 110.659973188103294, 0.792906032706926 ], [ 110.660060386421506, 0.793372729617629 ], [ 110.66006634447595, 0.793393699085131 ], [ 110.660090939920664, 0.793480262991748 ], [ 110.660114337680966, 0.79356261145354 ], [ 110.660674982239001, 0.793959629076372 ], [ 110.660863736734314, 0.793986754444408 ], [ 110.660896367178168, 0.79406712025628 ], [ 110.660944573523238, 0.794185848076134 ], [ 110.661088374553003, 0.794330595821581 ], [ 110.6611367636159, 0.794442286457924 ], [ 110.661196214340961, 0.794448217503854 ], [ 110.661222112496006, 0.794343973200695 ], [ 110.661223185524761, 0.794339654084893 ], [ 110.661372159129712, 0.794258544963923 ], [ 110.661465839186405, 0.794402978191179 ], [ 110.661708460586212, 0.794547813386638 ], [ 110.661963782709293, 0.794762908334604 ], [ 110.662229719019692, 0.79485539640901 ], [ 110.662901896720797, 0.795234264930689 ], [ 110.662996557627935, 0.795379272649051 ], [ 110.662750945437438, 0.795561153688463 ], [ 110.662562163668042, 0.79587781415167 ], [ 110.66225779180084, 0.796089455589433 ], [ 110.662021281549997, 0.79614045081437 ], [ 110.66187803617423, 0.796171336701725 ], [ 110.661828865480331, 0.796181938652267 ], [ 110.661853303585275, 0.79613145361334 ], [ 110.661857729237866, 0.795994607970325 ], [ 110.661999875231103, 0.79558231173744 ], [ 110.662013657355402, 0.795453386075446 ], [ 110.662016405620307, 0.795427677281923 ], [ 110.66202243500436, 0.795371275086566 ], [ 110.661923256783254, 0.795257805346234 ], [ 110.661512990489555, 0.795146579174852 ], [ 110.661259081849366, 0.795226263973286 ], [ 110.661025406244576, 0.795343833509268 ], [ 110.660674882728799, 0.795190034495338 ], [ 110.660279429548396, 0.795280454717494 ], [ 110.660009842306877, 0.795009073173813 ], [ 110.659919947950868, 0.795009066042941 ], [ 110.659695231926619, 0.795217089478357 ], [ 110.659533457038307, 0.795162803866094 ], [ 110.659048379314541, 0.794767734369704 ], [ 110.659204702828177, 0.794477802413507 ], [ 110.659202329797907, 0.79441795906727 ], [ 110.65877858008443, 0.794276121598807 ], [ 110.658757282342364, 0.794263069011816 ], [ 110.658231576005619, 0.793940883275263 ], [ 110.658235409354944, 0.793934545089747 ], [ 110.65780001226824, 0.793687119763938 ], [ 110.657511423409815, 0.793859842190488 ], [ 110.657313797426028, 0.794152098322665 ], [ 110.655318736076225, 0.795334430781093 ], [ 110.654913855864606, 0.796193761874562 ], [ 110.655183782208923, 0.797678443612028 ], [ 110.655309569948599, 0.797768835281655 ], [ 110.655821819918089, 0.798537322482471 ], [ 110.655803934604279, 0.798826694894976 ], [ 110.65581651771295, 0.798805970113193 ], [ 110.656028094925531, 0.798763260924832 ], [ 110.656153926214628, 0.798835633851487 ], [ 110.656239795005717, 0.798950940551809 ], [ 110.656369559425855, 0.799125191586938 ], [ 110.656557919090858, 0.79925614200144 ], [ 110.65688171422714, 0.799459334270011 ], [ 110.656873082635201, 0.799405126508797 ], [ 110.656891018417923, 0.799296608707806 ], [ 110.656989817065721, 0.79924232433411 ], [ 110.657367108738242, 0.799251260047056 ], [ 110.657510855645313, 0.799314518335649 ], [ 110.657753461952609, 0.799540517576964 ], [ 110.657978147762165, 0.799929290862404 ], [ 110.657960204430438, 0.800010680464056 ], [ 110.657726697732897, 0.800200643988353 ], [ 110.657744558246776, 0.80029242140461 ], [ 110.657699646589748, 0.800310508216993 ], [ 110.657609735663613, 0.800509497092998 ], [ 110.657735564041303, 0.800618051174684 ], [ 110.657816414903579, 0.800645193844615 ], [ 110.657798475982958, 0.800699464092179 ], [ 110.657860624895221, 0.800848530605014 ], [ 110.657816161174651, 0.800886284862504 ], [ 110.657461212836779, 0.801004777651767 ], [ 110.65701982093529, 0.801279370649925 ], [ 110.656918525079107, 0.80133274138152 ], [ 110.656773039469911, 0.801418635202212 ], [ 110.65672975769742, 0.801468404834635 ], [ 110.656720782955176, 0.801558856991138 ], [ 110.656759382579651, 0.801647343778513 ], [ 110.656718826000301, 0.801654896662238 ], [ 110.656419680123719, 0.801852530051773 ], [ 110.655998064957373, 0.802043233575573 ], [ 110.655961480595252, 0.80205978132047 ], [ 110.655891186874143, 0.802132782461659 ], [ 110.655836996382945, 0.802228733090727 ], [ 110.655696157237927, 0.802354937304739 ], [ 110.655587335440316, 0.802707784837053 ], [ 110.655030200650074, 0.803206997196468 ], [ 110.65484979282256, 0.80314795064568 ], [ 110.654571736570944, 0.80278006010467 ], [ 110.654401030440965, 0.802291509810124 ], [ 110.654178899573353, 0.802055411026564 ], [ 110.654097990968964, 0.801838408354606 ], [ 110.654008122083212, 0.801702792828218 ], [ 110.654035010594711, 0.801485759553627 ], [ 110.65491528232684, 0.801232313257646 ], [ 110.655795601841234, 0.801150678778017 ], [ 110.656020082622589, 0.800806991328091 ], [ 110.656244624187707, 0.800680329379467 ], [ 110.656307457617643, 0.800508499707845 ], [ 110.656462923632034, 0.800362164136185 ], [ 110.656244449438645, 0.800056381182659 ], [ 110.655521176128289, 0.799572800220004 ], [ 110.65528311057399, 0.799523132644711 ], [ 110.655103405977556, 0.799369457102567 ], [ 110.654477991661636, 0.799480686158198 ], [ 110.65445422700077, 0.799683588324145 ], [ 110.654266417412998, 0.800002588093461 ], [ 110.653879901109605, 0.800445864893669 ], [ 110.65371818433816, 0.800572485191683 ], [ 110.653713153268896, 0.800636622103338 ], [ 110.653214118637095, 0.800719435104622 ], [ 110.653178885270947, 0.800653846904354 ], [ 110.653063078598976, 0.800573114294374 ], [ 110.653037368793946, 0.800592964345721 ], [ 110.653072165832384, 0.800742991650218 ], [ 110.65303462565177, 0.800768658495901 ], [ 110.652620052296754, 0.801052109157569 ], [ 110.652876323322317, 0.80195631047979 ], [ 110.651636855787984, 0.802671038410729 ], [ 110.651522637970544, 0.801888915094887 ], [ 110.651430049811097, 0.801974805779891 ], [ 110.651322245040333, 0.801947708075629 ], [ 110.651250397932188, 0.802011027627348 ], [ 110.651079825169873, 0.802390871197666 ], [ 110.651007970470886, 0.802427062529102 ], [ 110.650873206257103, 0.802363801480694 ], [ 110.650828275586974, 0.802309557731509 ], [ 110.650668322903996, 0.802372226748623 ], [ 110.650594778101649, 0.802535692495828 ], [ 110.650109693030259, 0.802544872580468 ], [ 110.649929960229585, 0.802291726499491 ], [ 110.649816203040217, 0.802300919888373 ], [ 110.649637689908175, 0.802408717985905 ], [ 110.649488684133502, 0.802283700304974 ], [ 110.649404025352879, 0.802300132330978 ], [ 110.649377052980441, 0.802417742634729 ], [ 110.649314124625676, 0.80260772683739 ], [ 110.649224240066033, 0.802725331706932 ], [ 110.649260177548896, 0.802870088813992 ], [ 110.649244888467535, 0.802992223684661 ], [ 110.649152314984761, 0.803023880626536 ], [ 110.649098385627966, 0.803078158717821 ], [ 110.648945592723209, 0.803150522511683 ], [ 110.648873686908573, 0.803222893293471 ], [ 110.648864695592962, 0.803268128140141 ], [ 110.648912323892645, 0.803329200352331 ], [ 110.648972518108948, 0.80334952388626 ], [ 110.648905572314604, 0.803645027517076 ], [ 110.648828724714178, 0.803602869845725 ], [ 110.648639966367057, 0.803629989357957 ], [ 110.648532142952917, 0.803566663037307 ], [ 110.648527497854076, 0.803565332612666 ], [ 110.648552333120222, 0.828563995735314 ], [ 110.652856966266484, 0.828580790033304 ], [ 110.655097823739425, 0.83244299394451 ], [ 110.656421257136657, 0.836699670269598 ], [ 110.660948514116527, 0.837120665032007 ], [ 110.665648133070817, 0.837275795129282 ], [ 110.670887685940698, 0.837548566544098 ], [ 110.675576583247448, 0.837161269629677 ], [ 110.67969445452772, 0.839769186533839 ], [ 110.683865589225348, 0.843529323922911 ], [ 110.687936729698805, 0.845617254653655 ], [ 110.690269569862423, 0.844621253473251 ], [ 110.693257496638083, 0.845084406695552 ], [ 110.695374065461024, 0.847533684526191 ], [ 110.701536258738329, 0.84580432244565 ] ], [ [ 110.65786085746528, 0.800966633926937 ], [ 110.657905532236555, 0.800928700562403 ], [ 110.658346847155229, 0.80133080793405 ], [ 110.658499402074312, 0.801577097255671 ], [ 110.658526602684987, 0.801665337431962 ], [ 110.658463446365118, 0.801730954671594 ], [ 110.658391550693338, 0.801848537442582 ], [ 110.658382485366062, 0.802138076507569 ], [ 110.658526331341463, 0.802138088591696 ], [ 110.65857166807973, 0.802198845115914 ], [ 110.658018225825003, 0.802386680909126 ], [ 110.657718357003219, 0.802488455388353 ], [ 110.657646477107463, 0.802434219525729 ], [ 110.657444407364707, 0.802610610209302 ], [ 110.657407322634711, 0.802544489874012 ], [ 110.657340858671958, 0.802400302317044 ], [ 110.657322868195251, 0.802183213794594 ], [ 110.657286943297436, 0.801966033308268 ], [ 110.657206114990146, 0.801667531865813 ], [ 110.657071325427651, 0.801486524218685 ], [ 110.657037642960191, 0.801412000739157 ], [ 110.65708292881925, 0.80134641355908 ], [ 110.657315219458113, 0.801201903536095 ], [ 110.657499481441931, 0.801087272586009 ], [ 110.65786085746528, 0.800966633926937 ] ] ] } },
{ "type": "Feature", "properties": { "Nama": "98", "Luas": 178.1, "Ket_1": "NIB 14.04.00.00.01154", "Ket_2": "Inti", "No_HGU": "No. 98", "Luas_Doc": 178.28, "id": "C" }, "geometry": { "type": "Polygon", "coordinates": [ [ [ 110.698851256305787, 0.792698981509712 ], [ 110.699547128318073, 0.792649922121156 ], [ 110.700191530910018, 0.792656567706417 ], [ 110.70033771265264, 0.792629780131929 ], [ 110.70065881144761, 0.792615115760072 ], [ 110.700622829775696, 0.792542726948694 ], [ 110.70066320994718, 0.792393512538499 ], [ 110.701309745682551, 0.79157949153132 ], [ 110.701414577588992, 0.791259298432291 ], [ 110.701596946589547, 0.79070227746995 ], [ 110.701701088046477, 0.790492459267435 ], [ 110.701417176582325, 0.790313498864081 ], [ 110.701673103803984, 0.790015019188038 ], [ 110.701587706412454, 0.789807064699568 ], [ 110.700985656762569, 0.789129046193011 ], [ 110.701415000855448, 0.788247386377493 ], [ 110.7015306162196, 0.78841015903806 ], [ 110.701761097562667, 0.788697249145703 ], [ 110.702029321279028, 0.788914599078993 ], [ 110.702454695562267, 0.789156915896988 ], [ 110.702572131761315, 0.789256884485213 ], [ 110.702655855095031, 0.789372408874813 ], [ 110.702778265916834, 0.789971930417007 ], [ 110.702861202467673, 0.790378120473735 ], [ 110.702848057685273, 0.790477695730085 ], [ 110.702620620262053, 0.790980005757977 ], [ 110.702458391811305, 0.791317708350192 ], [ 110.702385699872266, 0.79144412761753 ], [ 110.701758082656568, 0.792535627625362 ], [ 110.70197915732291, 0.792499561655097 ], [ 110.702406860422997, 0.792452636931272 ], [ 110.702891477797564, 0.792443113767872 ], [ 110.703345369907296, 0.792470954451395 ], [ 110.703630745524251, 0.792503700871917 ], [ 110.703952316417627, 0.792431667307517 ], [ 110.704272732145199, 0.792462786586585 ], [ 110.704652479219362, 0.792534797723222 ], [ 110.704869325781544, 0.792250191965823 ], [ 110.704997253628932, 0.791906481203951 ], [ 110.705267307732186, 0.791372858900841 ], [ 110.705295381337322, 0.791359047312981 ], [ 110.705392328676993, 0.791311351380542 ], [ 110.705766177982156, 0.79112742581021 ], [ 110.706371151132544, 0.791174984534167 ], [ 110.706771649850921, 0.791087102592721 ], [ 110.707254509894639, 0.790952283913866 ], [ 110.70762127718605, 0.790855929028715 ], [ 110.707980212906222, 0.790678213446246 ], [ 110.708561518539867, 0.790570639427892 ], [ 110.709022710640738, 0.790511742399135 ], [ 110.708708531749977, 0.785989738738016 ], [ 110.709584590922091, 0.782870622082498 ], [ 110.689112002525931, 0.782877712191411 ], [ 110.68909798441112, 0.784449490194784 ], [ 110.690546227752066, 0.784665014257066 ], [ 110.690676848248089, 0.78563921009161 ], [ 110.690720170103035, 0.78565580920206 ], [ 110.690978317163314, 0.78591552405955 ], [ 110.691117851314374, 0.786008847198471 ], [ 110.69112155189454, 0.786134274444575 ], [ 110.691013822000883, 0.786364892079117 ], [ 110.690803978461318, 0.786587374970494 ], [ 110.690968482826463, 0.78781428173183 ], [ 110.69127986602517, 0.788209662986001 ], [ 110.691310961303159, 0.788190544981538 ], [ 110.691320132994406, 0.788203570035239 ], [ 110.69130068579706, 0.788236098729973 ], [ 110.691375595359531, 0.788331215868018 ], [ 110.691356711556679, 0.788282678760954 ], [ 110.691405940721708, 0.788200335196248 ], [ 110.691348793339515, 0.788119175199206 ], [ 110.691498978459535, 0.787914511160493 ], [ 110.691670035884243, 0.787983331356405 ], [ 110.691927611763589, 0.787983257173187 ], [ 110.691876568946725, 0.787721036105272 ], [ 110.691966336660698, 0.787503987558419 ], [ 110.692289658139956, 0.787277829185918 ], [ 110.692487277571985, 0.787259687071755 ], [ 110.692469329687356, 0.787322990514818 ], [ 110.692622106397224, 0.787558054391478 ], [ 110.692783809503197, 0.787594178249015 ], [ 110.692855660122461, 0.787548944500549 ], [ 110.693116226922001, 0.787765892030442 ], [ 110.693358794422053, 0.787865290791062 ], [ 110.693879827660126, 0.78794652397912 ], [ 110.693942736502237, 0.788045974494791 ], [ 110.69368225721945, 0.78813647571468 ], [ 110.69330504867682, 0.788398820160765 ], [ 110.692939596703567, 0.789079862994516 ], [ 110.69288109023816, 0.789131393821012 ], [ 110.692758426428995, 0.789131429230586 ], [ 110.692342041252886, 0.789024540045892 ], [ 110.692318094623971, 0.78895229287395 ], [ 110.692442505731094, 0.788782226056935 ], [ 110.69246112685498, 0.78859423565847 ], [ 110.692335577122321, 0.788484824618982 ], [ 110.69207137791534, 0.788553616497463 ], [ 110.691866784983887, 0.788552955680386 ], [ 110.691656293097708, 0.788603387319033 ], [ 110.691540573338841, 0.788540697595751 ], [ 110.691642630940223, 0.788670285794451 ], [ 110.691655065200806, 0.788676279275662 ], [ 110.691803578119661, 0.788874648649897 ], [ 110.692454184227586, 0.789700759485813 ], [ 110.692508565654578, 0.789653687694165 ], [ 110.692504176619437, 0.789593900124644 ], [ 110.692431971463748, 0.789372212432971 ], [ 110.692243438460395, 0.78924938409159 ], [ 110.692282521890888, 0.789093248510782 ], [ 110.692610361169457, 0.789177407523887 ], [ 110.692748291706835, 0.789212815644398 ], [ 110.69291367028498, 0.789212767898857 ], [ 110.693061118326767, 0.789081418506504 ], [ 110.693256813424682, 0.78935883443287 ], [ 110.693354393848082, 0.789329334577206 ], [ 110.693497287096619, 0.78921862082539 ], [ 110.693853200892406, 0.789076857434206 ], [ 110.693952036370959, 0.789158212331718 ], [ 110.693925123670752, 0.789284816591164 ], [ 110.693790679839907, 0.789449193057822 ], [ 110.693287422916001, 0.789592449507436 ], [ 110.692904859408429, 0.789898326822875 ], [ 110.692712322900988, 0.790029280341362 ], [ 110.692856446782841, 0.790216606520288 ], [ 110.695102050495649, 0.789854160223268 ], [ 110.695200942844878, 0.790134452245341 ], [ 110.695350753554777, 0.790086092428548 ], [ 110.695618070100053, 0.789852743940601 ], [ 110.695831963287063, 0.789807821652108 ], [ 110.696018077845508, 0.789964690289598 ], [ 110.696299574596011, 0.790201953402974 ], [ 110.696377781703731, 0.790396346581049 ], [ 110.696368899722501, 0.790749010469676 ], [ 110.696456349328216, 0.791068543257737 ], [ 110.696533459580607, 0.79135029543742 ], [ 110.696653639790057, 0.791426476064181 ], [ 110.697024676848585, 0.792355863911838 ], [ 110.697334340011039, 0.792587347610724 ], [ 110.697583886390305, 0.792623598211432 ], [ 110.697965759021358, 0.792644438814485 ], [ 110.698371590878011, 0.792712328354482 ], [ 110.698851256305787, 0.792698981509712 ] ], [ [ 110.697527583367929, 0.790350800011892 ], [ 110.697662316873334, 0.790314590528114 ], [ 110.697940836741608, 0.790486318928905 ], [ 110.698389956962018, 0.790395762565157 ], [ 110.698749323087512, 0.7905674673665 ], [ 110.69890209500339, 0.790784445107244 ], [ 110.699108730727403, 0.790883853497566 ], [ 110.699234572091356, 0.791164137131247 ], [ 110.699719790084146, 0.791652295594217 ], [ 110.699423478464183, 0.792086426093358 ], [ 110.69940557762736, 0.79231249599917 ], [ 110.699313418820438, 0.792505098329989 ], [ 110.699250511700953, 0.79250926178837 ], [ 110.699229821503451, 0.792181871870812 ], [ 110.698871871807967, 0.792213393714772 ], [ 110.698892069274095, 0.792532986395731 ], [ 110.69815703533115, 0.792606038589797 ], [ 110.698156927703735, 0.792231476385506 ], [ 110.697392927567336, 0.790658287303399 ], [ 110.697527583367929, 0.790350800011892 ] ] ] } },
{ "type": "Feature", "properties": { "Nama": "100", "Luas": 185.45, "Ket_1": "NIB 14.04.00.00.00018", "Ket_2": "Inti", "No_HGU": "No. 100", "Luas_Doc": 185.69, "id": "E" }, "geometry": { "type": "Polygon", "coordinates": [ [ [ 110.710013638823852, 0.79830988175342 ], [ 110.711106745912801, 0.794930824975034 ], [ 110.709097276907713, 0.790848591025741 ], [ 110.708723201422785, 0.790896362786863 ], [ 110.70880361931313, 0.791203026866977 ], [ 110.708549194640625, 0.791258052041967 ], [ 110.708801580383124, 0.792281486906069 ], [ 110.708621261344987, 0.792305453602713 ], [ 110.708303892932506, 0.791060328618034 ], [ 110.708498647175404, 0.791053079916837 ], [ 110.70847391962252, 0.790936228163505 ], [ 110.708088437501402, 0.791007561124158 ], [ 110.707740918570437, 0.791179624076085 ], [ 110.707343231428098, 0.791284102082398 ], [ 110.707028496872056, 0.791371978721491 ], [ 110.706853681782462, 0.791420788609329 ], [ 110.706788264487827, 0.791435143220397 ], [ 110.706728845917993, 0.79144818152159 ], [ 110.706639249169783, 0.791478556446318 ], [ 110.706803151264012, 0.79233505071714 ], [ 110.706719986504879, 0.79276930928986 ], [ 110.706621437498356, 0.79320061984922 ], [ 110.70644480655919, 0.793601406063222 ], [ 110.706305236693481, 0.793911289284692 ], [ 110.705819211532315, 0.794133046122885 ], [ 110.705216919344679, 0.794204189716565 ], [ 110.704998461740374, 0.793965467652858 ], [ 110.704630353965698, 0.793010615727259 ], [ 110.704638957705484, 0.792911117669363 ], [ 110.704643750970405, 0.792882803919009 ], [ 110.704224648425253, 0.79280332989456 ], [ 110.703973521034072, 0.792778940040525 ], [ 110.703648987901346, 0.792851637197964 ], [ 110.703315638655212, 0.792813385921021 ], [ 110.702884417224865, 0.792786935858707 ], [ 110.702428727330172, 0.792795890629097 ], [ 110.702024984673869, 0.792840186623004 ], [ 110.70140816756691, 0.792940813634666 ], [ 110.700819563040326, 0.792951745664701 ], [ 110.700376189842544, 0.792971994535331 ], [ 110.700220612498583, 0.793000503856984 ], [ 110.699557320513861, 0.792993663557229 ], [ 110.698867903969898, 0.793042267916317 ], [ 110.698348111192544, 0.793056731381567 ], [ 110.697928426376706, 0.792986524504982 ], [ 110.697550203039555, 0.792965883106892 ], [ 110.69702247303276, 0.792889222557216 ], [ 110.69542982021305, 0.792728168827369 ], [ 110.695006694258367, 0.793714689403923 ], [ 110.694588982548808, 0.794831240741612 ], [ 110.69465932901268, 0.795161238599156 ], [ 110.694836342842564, 0.796468092713474 ], [ 110.695312681261555, 0.797497352421979 ], [ 110.695881069062779, 0.799064766437038 ], [ 110.695963396544215, 0.799798352760754 ], [ 110.695700875715758, 0.80022928631711 ], [ 110.695592797456996, 0.800649430848452 ], [ 110.695824643211822, 0.802190316604187 ], [ 110.695745291137825, 0.802904969807266 ], [ 110.7103997809688, 0.802900628654886 ], [ 110.710013638823852, 0.79830988175342 ] ], [ [ 110.702313128329109, 0.794716398299898 ], [ 110.702018517420527, 0.794045665553443 ], [ 110.701871447337851, 0.79352844280502 ], [ 110.701872232769972, 0.792908837628175 ], [ 110.702411976540901, 0.792834795443982 ], [ 110.702752880025415, 0.792829031080187 ], [ 110.702597111070816, 0.794778831684471 ], [ 110.702773271148288, 0.794750351651035 ], [ 110.702846847151477, 0.794955052856728 ], [ 110.702801179907212, 0.795176750649847 ], [ 110.702687571811708, 0.795154038631112 ], [ 110.702641988838451, 0.795233543798562 ], [ 110.702613368365022, 0.795432539036005 ], [ 110.702488110837137, 0.795608823474917 ], [ 110.702073158373366, 0.795802182533037 ], [ 110.701937032437655, 0.795620271011425 ], [ 110.701817951266619, 0.795444059288351 ], [ 110.701812479816127, 0.795267855828143 ], [ 110.701880817249801, 0.795148462416958 ], [ 110.702147992237471, 0.795000590649823 ], [ 110.702313128329109, 0.794716398299898 ] ], [ [ 110.697536249949451, 0.793836209917507 ], [ 110.697325372887732, 0.7943307929244 ], [ 110.696825507777106, 0.794296836064281 ], [ 110.69666108026307, 0.794006921173381 ], [ 110.696912387892269, 0.792949540913504 ], [ 110.697094100656059, 0.792995052300059 ], [ 110.697378004426739, 0.793119989182691 ], [ 110.697462991318517, 0.793347394987709 ], [ 110.697536249949451, 0.793836209917507 ] ] ] } },
{ "type": "Feature", "properties": { "Nama": "96", "Luas": 188.54, "Ket_1": "NIB 14.04.00.00.01152", "Ket_2": "Inti", "No_HGU": "No. 96", "Luas_Doc": 188.73, "id": "A" }, "geometry": { "type": "Polygon", "coordinates": [ [ [ 110.693940157916828, 0.802474170483508 ], [ 110.693940116295749, 0.802330619136402 ], [ 110.694136077899429, 0.802346252376621 ], [ 110.694235758307244, 0.802303656395293 ], [ 110.694096254774436, 0.801702764960622 ], [ 110.693940711662805, 0.801532339340369 ], [ 110.693821094548653, 0.801592210390675 ], [ 110.693726000498444, 0.801609335263332 ], [ 110.693705131211857, 0.800966989578674 ], [ 110.693703398674813, 0.800729548916299 ], [ 110.693427571598193, 0.800165964868264 ], [ 110.693469786507507, 0.799801177513687 ], [ 110.693541823497299, 0.799620627111486 ], [ 110.693510379713459, 0.799489098097935 ], [ 110.69366758103854, 0.799037708688421 ], [ 110.693478829728207, 0.798965331920644 ], [ 110.693047433488914, 0.799037662096156 ], [ 110.692705942715719, 0.798965273807977 ], [ 110.692616064817457, 0.798739043490805 ], [ 110.692414183224614, 0.798129198643398 ], [ 110.692413199121106, 0.798129237032519 ], [ 110.692304441118907, 0.798133479598136 ], [ 110.692299319846271, 0.798020880692916 ], [ 110.692291359508545, 0.798002365245156 ], [ 110.682362909274786, 0.798005250430247 ], [ 110.682366448011706, 0.810303244383998 ], [ 110.695961466461725, 0.810271667771572 ], [ 110.695886018123844, 0.809842029334529 ], [ 110.695679930644744, 0.809502781873843 ], [ 110.695690566625913, 0.80920050174172 ], [ 110.695734478080595, 0.808810492243438 ], [ 110.695689984591922, 0.808203808871951 ], [ 110.69568976323562, 0.80744767867844 ], [ 110.695763351669569, 0.807160281207899 ], [ 110.695770189404612, 0.807091245452327 ], [ 110.695744142586506, 0.806500866361222 ], [ 110.695673277900994, 0.806207974328649 ], [ 110.695497001906375, 0.805965302957655 ], [ 110.695410484684729, 0.805212450117358 ], [ 110.695428236548949, 0.804241163302591 ], [ 110.695364639111645, 0.803239759017814 ], [ 110.695400877806847, 0.802913391864699 ], [ 110.695240120545904, 0.802891858912794 ], [ 110.694700841878245, 0.802674730604001 ], [ 110.694269453258784, 0.802638516865231 ], [ 110.693940157916828, 0.802474170483508 ] ] ] } },
{ "type": "Feature", "properties": { "Nama": "04", "Luas": 18.39, "Ket_1": "NIB. 14.04.00.00.00268", "Ket_2": "Plasma", "No_HGU": "No. 289", "Luas_Doc": 18.4, "id": "Q" }, "geometry": { "type": "Polygon", "coordinates": [ [ [ 110.700821636460731, 0.826829092783773 ], [ 110.700316371568917, 0.825501153656078 ], [ 110.699966976892838, 0.825224534442535 ], [ 110.699299156927836, 0.824336967371504 ], [ 110.699930005151614, 0.824125948199593 ], [ 110.699747513177925, 0.823446468164984 ], [ 110.699246691105955, 0.823510029673834 ], [ 110.699301814802354, 0.823673548157216 ], [ 110.699391682495715, 0.823709736489671 ], [ 110.699444702122648, 0.823836407057269 ], [ 110.699345840745494, 0.823854495059966 ], [ 110.699282928293684, 0.823809255976904 ], [ 110.698887472805922, 0.823818264639119 ], [ 110.69881124653115, 0.823894991729721 ], [ 110.69866278140654, 0.823908722406608 ], [ 110.698483037054004, 0.823836336658078 ], [ 110.698294291882078, 0.823854415686463 ], [ 110.69819316902678, 0.824090078118174 ], [ 110.698725600460534, 0.82520247172864 ], [ 110.69895027351545, 0.825410572977499 ], [ 110.698984464428833, 0.825596116498027 ], [ 110.697566085889235, 0.827219891066752 ], [ 110.69747085558943, 0.827785986289531 ], [ 110.697460375905379, 0.827972032678596 ], [ 110.697871306838138, 0.830673344741475 ], [ 110.698087066068922, 0.830721195575245 ], [ 110.698147726463702, 0.830292481337479 ], [ 110.698414523304706, 0.830273239527292 ], [ 110.698414448126996, 0.83002415815119 ], [ 110.699023917601906, 0.82996396357819 ], [ 110.699138448325613, 0.829420394295329 ], [ 110.699499118166756, 0.829219478083898 ], [ 110.699171088790536, 0.829065650695563 ], [ 110.698923942395254, 0.828911825720348 ], [ 110.698079121998404, 0.828776055419187 ], [ 110.698374895577473, 0.827545675828507 ], [ 110.700083732101419, 0.827937699408602 ], [ 110.700521225807449, 0.828867424175723 ], [ 110.70026072786041, 0.829357792840209 ], [ 110.700479341677678, 0.829383085857276 ], [ 110.700662702022484, 0.830338950363317 ], [ 110.700920629713494, 0.830355601572008 ], [ 110.701736325067941, 0.831442787229613 ], [ 110.702321945535218, 0.831116063813309 ], [ 110.702119765992848, 0.830404724270518 ], [ 110.701441890702199, 0.830504062581172 ], [ 110.701441786819828, 0.830160722129433 ], [ 110.701747542590738, 0.829940275781802 ], [ 110.701625153123857, 0.829740458223186 ], [ 110.701762608374679, 0.829197220765385 ], [ 110.70178855621235, 0.828622453974221 ], [ 110.700821636460731, 0.826829092783773 ] ] ] } },
{ "type": "Feature", "properties": { "Nama": "04", "Luas": 23.66, "Ket_1": "NIB. 14.04.00.00.00266", "Ket_2": "Plasma", "No_HGU": "No. 287", "Luas_Doc": 23.68, "id": "O" }, "geometry": { "type": "Polygon", "coordinates": [ [ [ 110.706757283135545, 0.823824781523299 ], [ 110.706829389275256, 0.823267674313985 ], [ 110.706945508317773, 0.822885592060335 ], [ 110.706415203360734, 0.822932409591695 ], [ 110.703985534403742, 0.823148834017381 ], [ 110.704203508592599, 0.82403887205652 ], [ 110.70350704915738, 0.824126218168132 ], [ 110.703010167036851, 0.823235811347959 ], [ 110.702898367986251, 0.82324571979325 ], [ 110.7028420358277, 0.823275740163865 ], [ 110.702653273791583, 0.823655703207479 ], [ 110.702572401772954, 0.824234775519847 ], [ 110.70240157625355, 0.824243755098387 ], [ 110.701997117566847, 0.824515137250331 ], [ 110.701799369244384, 0.824795580571777 ], [ 110.70170395287721, 0.82509830989336 ], [ 110.701098318919207, 0.825066944440937 ], [ 110.700682240193245, 0.825107160681214 ], [ 110.700609126817497, 0.825575855432719 ], [ 110.70090903549665, 0.826359115657527 ], [ 110.701956772949032, 0.828412838807286 ], [ 110.702610176180997, 0.828221206425593 ], [ 110.703540082096254, 0.827572509096669 ], [ 110.704379528001226, 0.826725176391022 ], [ 110.705265826853747, 0.82655442945757 ], [ 110.705959255552585, 0.825771576768229 ], [ 110.706689581016477, 0.825309521358482 ], [ 110.706414927927469, 0.824782597994735 ], [ 110.706216236179358, 0.824686786981127 ], [ 110.706179272166267, 0.824422411670743 ], [ 110.706355929800509, 0.82438198918923 ], [ 110.706757283135545, 0.823824781523299 ] ] ] } },
{ "type": "Feature", "properties": { "Nama": "04", "Luas": 34.93, "Ket_1": "NIB. 14.04.00.00.00264", "Ket_2": "Plasma", "No_HGU": "No. 285", "Luas_Doc": 34.96, "id": "M" }, "geometry": { "type": "Polygon", "coordinates": [ [ [ 110.702228065049184, 0.830156099095144 ], [ 110.702639107372789, 0.831250590972496 ], [ 110.703315868313979, 0.833167459276742 ], [ 110.703548924251891, 0.834141984496188 ], [ 110.703733955516313, 0.83403238246675 ], [ 110.703955698128667, 0.83392434020113 ], [ 110.703927475196735, 0.833178543861384 ], [ 110.704194270071667, 0.83315871372831 ], [ 110.704562686244714, 0.833414622603194 ], [ 110.705139542566897, 0.833914445507282 ], [ 110.705519470117693, 0.834883464485009 ], [ 110.705788691199672, 0.83506337362517 ], [ 110.706067663485058, 0.835462525693976 ], [ 110.706319316658551, 0.835444444179965 ], [ 110.706490106721674, 0.835109717123271 ], [ 110.707065313822767, 0.835046431320657 ], [ 110.707137152337694, 0.835462249319107 ], [ 110.707515252487582, 0.835451507353651 ], [ 110.707996809947318, 0.835236109311829 ], [ 110.708134844294861, 0.835005797893869 ], [ 110.709087527153656, 0.835010386023631 ], [ 110.709806494094821, 0.835526131314465 ], [ 110.709788500957188, 0.835788497468864 ], [ 110.709590748115957, 0.836105138519792 ], [ 110.709617699384083, 0.836258943963734 ], [ 110.70974351797885, 0.836385609158038 ], [ 110.709977186896651, 0.836485149379898 ], [ 110.710121014913653, 0.836168506976224 ], [ 110.710049120490325, 0.836068979850372 ], [ 110.710318765586166, 0.835815677674571 ], [ 110.710777131749438, 0.835788570570692 ], [ 110.710624374614255, 0.83534525279005 ], [ 110.710696298878716, 0.835073836488741 ], [ 110.710651407463374, 0.834413391728094 ], [ 110.710795223709908, 0.834232460046507 ], [ 110.7108042150617, 0.834141986571275 ], [ 110.710597514140872, 0.834015310229508 ], [ 110.710471728860469, 0.833436282430883 ], [ 110.710021215321433, 0.833285713803295 ], [ 110.709779501567922, 0.833466533714826 ], [ 110.70935795061537, 0.833447966354259 ], [ 110.709195525170443, 0.833047160044233 ], [ 110.708555344098016, 0.833034117888552 ], [ 110.708296794791565, 0.832658065104522 ], [ 110.708072108097625, 0.832585667372221 ], [ 110.707766512045822, 0.832856826492307 ], [ 110.707424980149725, 0.832992745921254 ], [ 110.706562195406391, 0.832594605708165 ], [ 110.706553223837304, 0.832395563596343 ], [ 110.706155595027994, 0.831958430083387 ], [ 110.705690637912014, 0.829337552312262 ], [ 110.705537868207443, 0.829084226468503 ], [ 110.706769229247314, 0.828197695900824 ], [ 110.706877097954376, 0.827962474864163 ], [ 110.707173695355564, 0.827953449913275 ], [ 110.707272573682971, 0.827663949178571 ], [ 110.706949092714268, 0.826786350196881 ], [ 110.706625542636374, 0.82672298849795 ], [ 110.706427812825694, 0.826704882474159 ], [ 110.706521735275402, 0.825601077429902 ], [ 110.706081194866812, 0.825918702576676 ], [ 110.705796051702478, 0.826484053777594 ], [ 110.705322970432761, 0.826738339877154 ], [ 110.704473279260938, 0.826988717423381 ], [ 110.703874725747937, 0.827615169515512 ], [ 110.704118098375687, 0.827674152450987 ], [ 110.704205443494871, 0.828261350972184 ], [ 110.704425643695473, 0.828446722185842 ], [ 110.704581087117006, 0.829114193784384 ], [ 110.704552325082901, 0.829346099796967 ], [ 110.704735034993519, 0.829703551630342 ], [ 110.704956137748709, 0.829896731594699 ], [ 110.705008545752762, 0.831169175118411 ], [ 110.70425907030824, 0.831436589201737 ], [ 110.703870670999549, 0.831457261258389 ], [ 110.703856962346151, 0.831196932413723 ], [ 110.703270828356651, 0.830806612572559 ], [ 110.703114154435582, 0.830977932156122 ], [ 110.702759679437492, 0.830519032323613 ], [ 110.702827736581213, 0.830238126146959 ], [ 110.702439233290761, 0.829923104385583 ], [ 110.702228065049184, 0.830156099095144 ] ] ] } },
{ "type": "Feature", "properties": { "Nama": "04", "Luas": 6.33, "Ket_1": "NIB. 14.04.00.00.00267", "Ket_2": "Plasma", "No_HGU": "No. 288", "Luas_Doc": 6.33, "id": "P" }, "geometry": { "type": "Polygon", "coordinates": [ [ [ 110.702167211034507, 0.833453754142617 ], [ 110.702772564807304, 0.832399368296603 ], [ 110.702436391095802, 0.831370613557434 ], [ 110.702230283487907, 0.831354817121321 ], [ 110.701744919109203, 0.831789045782889 ], [ 110.701486374012788, 0.831868333210247 ], [ 110.701187623413801, 0.832684667105614 ], [ 110.70094649587071, 0.833052769575797 ], [ 110.700423656484048, 0.833019359366406 ], [ 110.700164817274214, 0.83345662955344 ], [ 110.700930290483399, 0.834985440808733 ], [ 110.701511013210123, 0.834828870782684 ], [ 110.70199637029387, 0.834457975788223 ], [ 110.702104212999956, 0.834611783973883 ], [ 110.702319905419117, 0.834675133189431 ], [ 110.702400862475955, 0.83376137407021 ], [ 110.702167211034507, 0.833453754142617 ] ] ] } },
{ "type": "Feature", "properties": { "Nama": "03", "Luas": 114.1, "Ket_1": "NIB. 14.04.00.00.00263", "Ket_2": "Plasma", "No_HGU": "No. 282", "Luas_Doc": 113.42, "id": "K" }, "geometry": { "type": "Polygon", "coordinates": [ [ [ 110.719898843727464, 0.848632554353774 ], [ 110.719909006952577, 0.844919554019194 ], [ 110.719876485508209, 0.839972448574043 ], [ 110.719897962963401, 0.835676034588151 ], [ 110.719809673727099, 0.83554495473087 ], [ 110.719674868705496, 0.835436378140085 ], [ 110.719540063117321, 0.83535494717361 ], [ 110.719297396225087, 0.835409214797683 ], [ 110.719054711267702, 0.835608235080299 ], [ 110.718892931392816, 0.83573488090184 ], [ 110.718740128872625, 0.835843438885439 ], [ 110.718731132846727, 0.83603342506103 ], [ 110.71866820030661, 0.836214367488351 ], [ 110.718560345709633, 0.836313877972907 ], [ 110.718506409655618, 0.836422441259591 ], [ 110.718218806529563, 0.836494798982592 ], [ 110.71803005355288, 0.836630495814726 ], [ 110.71801208379506, 0.836530970375926 ], [ 110.717985141826333, 0.836350028857665 ], [ 110.717814387628508, 0.836214308698607 ], [ 110.717715525706836, 0.836141917994477 ], [ 110.717625657509558, 0.83598811462488 ], [ 110.717571752089341, 0.835789069309655 ], [ 110.717454916460639, 0.835662401905989 ], [ 110.717445939249401, 0.835535737012401 ], [ 110.717418990523285, 0.835390983629892 ], [ 110.717365068764224, 0.835255272138214 ], [ 110.717302159478805, 0.835191939818818 ], [ 110.717356098441371, 0.835092419048832 ], [ 110.717230275472744, 0.835038130777531 ], [ 110.716942662015072, 0.835164770585676 ], [ 110.716852784112533, 0.83518285652548 ], [ 110.716717965473237, 0.835291408875531 ], [ 110.716673023727779, 0.835291413840014 ], [ 110.716547179466858, 0.835517579565672 ], [ 110.716358433304691, 0.835617088130224 ], [ 110.716340456606076, 0.83569851266504 ], [ 110.716241596331145, 0.835689455739665 ], [ 110.716079812616542, 0.835716588541845 ], [ 110.715873099527442, 0.83572561411082 ], [ 110.715720307755916, 0.835752744101797 ], [ 110.715648401350109, 0.835788927589574 ], [ 110.715495540192492, 0.835824087367555 ], [ 110.715498818454279, 0.835735107832607 ], [ 110.715426613453772, 0.835589699281926 ], [ 110.715243304504838, 0.835231771541689 ], [ 110.715032202172168, 0.835047197756323 ], [ 110.714854428167456, 0.835013632925628 ], [ 110.714543313296346, 0.834957684066998 ], [ 110.714415543572386, 0.834940904684538 ], [ 110.714237757118639, 0.835013589614622 ], [ 110.714076631803024, 0.835226094110689 ], [ 110.714009944076608, 0.835494524471126 ], [ 110.714132147760964, 0.835695854701516 ], [ 110.714021024376734, 0.835858031005721 ], [ 110.714454339789256, 0.836249528342409 ], [ 110.714215442052037, 0.836350173827821 ], [ 110.714337641910717, 0.836685731398359 ], [ 110.714154289401677, 0.836915007778001 ], [ 110.714187602660701, 0.83713311241301 ], [ 110.714337595919147, 0.83732326635134 ], [ 110.714415345636809, 0.837709150391322 ], [ 110.714537395491874, 0.837645461907466 ], [ 110.714537392140755, 0.837722006967488 ], [ 110.714390001518524, 0.837815408090595 ], [ 110.714318093213208, 0.837933019661606 ], [ 110.714372012685146, 0.83803253402491 ], [ 110.714506817563461, 0.838141110882201 ], [ 110.714425912662875, 0.838331101720621 ], [ 110.714336029429816, 0.838448709874319 ], [ 110.71444386745226, 0.838557277050243 ], [ 110.714156251994112, 0.838765345198757 ], [ 110.714130525888763, 0.838827475457937 ], [ 110.714084348739163, 0.83878343464232 ], [ 110.713751824840131, 0.838548179306661 ], [ 110.713787119440184, 0.838987084017691 ], [ 110.712781125715082, 0.839081892612441 ], [ 110.712700241361802, 0.839018556767995 ], [ 110.712601381419873, 0.838982363193121 ], [ 110.712421624352913, 0.839045680896462 ], [ 110.712178952576849, 0.839145179354636 ], [ 110.712035155676617, 0.839154212496926 ], [ 110.71193629829115, 0.839009454120637 ], [ 110.711822163747897, 0.838932546702145 ], [ 110.71168464202313, 0.839045621382506 ], [ 110.711567805860753, 0.839063706727798 ], [ 110.711504880893131, 0.839154178923881 ], [ 110.711522851151969, 0.83922655889461 ], [ 110.711648678651642, 0.839235616458613 ], [ 110.711666646993564, 0.839389415496406 ], [ 110.711585739574147, 0.839543209206459 ], [ 110.711540797898152, 0.839660821523264 ], [ 110.711576739697804, 0.839751299056942 ], [ 110.711728941826408, 0.839820607879818 ], [ 110.711684574083407, 0.84002272259583 ], [ 110.711603668781549, 0.840212704587327 ], [ 110.7112530856364, 0.841135488280835 ], [ 110.711217131628416, 0.841180721287069 ], [ 110.711199155368377, 0.841235009307949 ], [ 110.711073323089963, 0.841298328365172 ], [ 110.711001413583872, 0.841325460388545 ], [ 110.711001414415534, 0.841415931068499 ], [ 110.710902536014842, 0.84152449061531 ], [ 110.710812662646859, 0.841587816531327 ], [ 110.710794673314567, 0.841687335387436 ], [ 110.710758722724023, 0.84171447426566 ], [ 110.710740511318988, 0.841763626203547 ], [ 110.710812645680974, 0.841795903636649 ], [ 110.710821627371303, 0.841850183240786 ], [ 110.710857566510512, 0.841931609186143 ], [ 110.710947442469148, 0.842022087938213 ], [ 110.710992374840941, 0.84204923769817 ], [ 110.71106427753179, 0.842058284886332 ], [ 110.711137068977663, 0.842094486561147 ], [ 110.711253010791012, 0.842175914591678 ], [ 110.711324896632973, 0.842275441487504 ], [ 110.711360848254756, 0.842338773269691 ], [ 110.71148667644033, 0.842320684973387 ], [ 110.713725752136341, 0.842324061798237 ], [ 110.713706477699375, 0.844184569946286 ], [ 110.713675302614305, 0.844200386097607 ], [ 110.713544706748181, 0.844139326700419 ], [ 110.713508750047865, 0.844175508149052 ], [ 110.713409889309986, 0.844166451454565 ], [ 110.713346969007262, 0.84418454725421 ], [ 110.713337985449755, 0.844211686734986 ], [ 110.713284054319161, 0.844220728129787 ], [ 110.713231901816997, 0.844229750880479 ], [ 110.712939139572768, 0.844267505007895 ], [ 110.712563800913685, 0.844377046656469 ], [ 110.712443696634665, 0.844429928980196 ], [ 110.712222246137713, 0.844482806952769 ], [ 110.712034576798487, 0.844581022670963 ], [ 110.712097664313944, 0.844609667726543 ], [ 110.712157648009025, 0.844652166929717 ], [ 110.712340321546819, 0.844781580686109 ], [ 110.712415529649718, 0.844876241519451 ], [ 110.712358281922661, 0.844908242973791 ], [ 110.712232451949021, 0.845007759508718 ], [ 110.712205484409822, 0.845034895607794 ], [ 110.712142569701157, 0.845071076499858 ], [ 110.712052684649748, 0.845125359993459 ], [ 110.711989772742456, 0.845170583429556 ], [ 110.711955524119418, 0.845182078218221 ], [ 110.711935844407549, 0.845188676414318 ], [ 110.71189090187984, 0.845215818162594 ], [ 110.711827993346319, 0.845242956512201 ], [ 110.711819003594726, 0.845279138553921 ], [ 110.711827988834358, 0.845315333034168 ], [ 110.711854943450788, 0.845333427738846 ], [ 110.711890899035069, 0.845351519615059 ], [ 110.711944824001961, 0.845351529800299 ], [ 110.711980768367368, 0.845333433420184 ], [ 110.71201672732839, 0.845333440206972 ], [ 110.712088617164014, 0.845387727131034 ], [ 110.712079627416699, 0.845423918212874 ], [ 110.712133554054475, 0.845487253320426 ], [ 110.7121784830954, 0.845532488082596 ], [ 110.712259368862789, 0.845541541370264 ], [ 110.712394191954601, 0.845532501657939 ], [ 110.712412163573745, 0.845550599176786 ], [ 110.712349245484091, 0.845604874209113 ], [ 110.712340249561706, 0.845650116875222 ], [ 110.712304295642269, 0.845695349932597 ], [ 110.712313286494407, 0.845749629486259 ], [ 110.712259355343889, 0.845758670900965 ], [ 110.712205434311556, 0.845713429929433 ], [ 110.712124549110698, 0.845677239974507 ], [ 110.711980749758439, 0.845650085206338 ], [ 110.71196276688498, 0.845740561504496 ], [ 110.711971751552127, 0.845803883610881 ], [ 110.712034655016723, 0.845876267478074 ], [ 110.712043639119656, 0.845966744339036 ], [ 110.712115533435963, 0.846093407756089 ], [ 110.712070590325396, 0.846147686191154 ], [ 110.712088558002336, 0.846211023552799 ], [ 110.71210653242477, 0.846238163612492 ], [ 110.712133492089194, 0.846301498143655 ], [ 110.712133487576253, 0.846373874657051 ], [ 110.712178422232967, 0.846437203530123 ], [ 110.712241334731885, 0.846364834352416 ], [ 110.712340207332204, 0.846238180525329 ], [ 110.712367173746671, 0.846265326794435 ], [ 110.71241210954237, 0.846274373282398 ], [ 110.71243907091295, 0.846256279715362 ], [ 110.712448055589334, 0.846319610850126 ], [ 110.712484004443752, 0.846373899999464 ], [ 110.712430075521326, 0.846419129679764 ], [ 110.712313229058779, 0.846491497745601 ], [ 110.712331202916573, 0.846545783511446 ], [ 110.712358156975952, 0.846591023907911 ], [ 110.712304228048808, 0.846636253592851 ], [ 110.712268284237723, 0.846627204279111 ], [ 110.712205367834983, 0.846600060283904 ], [ 110.71218739397915, 0.846545774515307 ], [ 110.71210651042658, 0.84657290951169 ], [ 110.712124478100961, 0.846636237826806 ], [ 110.712151434391828, 0.846717666482264 ], [ 110.712214336729573, 0.846844332702487 ], [ 110.712259264073367, 0.846970995533081 ], [ 110.712205331194795, 0.847061465066959 ], [ 110.712259261223451, 0.847106706008356 ], [ 110.712241272157499, 0.847206224851819 ], [ 110.712250257396903, 0.847242410276072 ], [ 110.712272303484269, 0.847306144212149 ], [ 110.712286194985822, 0.84740526418346 ], [ 110.712331136401417, 0.847432404778396 ], [ 110.712340112089208, 0.847495735914437 ], [ 110.712357587156959, 0.847505794757309 ], [ 110.712331094816733, 0.847559081762452 ], [ 110.712313187523264, 0.847748555788998 ], [ 110.712313142753956, 0.847749026015281 ], [ 110.712313367491674, 0.847749550411892 ], [ 110.712465858271031, 0.84811094177477 ], [ 110.712618676086421, 0.848165230209202 ], [ 110.712843384411244, 0.848101924842832 ], [ 110.713202881628717, 0.848237639402597 ], [ 110.71321536193642, 0.848247012576841 ], [ 110.713166919276205, 0.848255762957807 ], [ 110.712717523900068, 0.848509050681642 ], [ 110.712900957540953, 0.848510882682738 ], [ 110.712807391601359, 0.848572383401696 ], [ 110.712735484264783, 0.848635712922657 ], [ 110.712718891808493, 0.848643702230536 ], [ 110.716218032983889, 0.848627801255502 ], [ 110.719898843727464, 0.848632554353774 ] ] ] } },
{ "type": "Feature", "properties": { "Nama": "04", "Luas": 24.3, "Ket_1": "NIB. 14.04.00.00.00265", "Ket_2": "Plasma", "No_HGU": "No. 286", "Luas_Doc": 24.34, "id": "N" }, "geometry": { "type": "Polygon", "coordinates": [ [ [ 110.714160781316494, 0.829749953822551 ], [ 110.714065109169752, 0.829147572226398 ], [ 110.713376903725589, 0.8287080113412 ], [ 110.712766504842747, 0.828246528038718 ], [ 110.711142479636976, 0.828212567249473 ], [ 110.711132714489182, 0.823473572992358 ], [ 110.711126406165747, 0.823265580429835 ], [ 110.711132283243089, 0.823264312363054 ], [ 110.711131285603997, 0.822780218621635 ], [ 110.710734347095695, 0.822906757528172 ], [ 110.710014314254622, 0.823992831811126 ], [ 110.709647049261562, 0.824257626686426 ], [ 110.709582944150043, 0.824638971233453 ], [ 110.709178115459608, 0.825785127661117 ], [ 110.709114685685236, 0.826400882682974 ], [ 110.710517039486348, 0.828279393236319 ], [ 110.710333804421751, 0.829530947866373 ], [ 110.710635417898388, 0.829614239130546 ], [ 110.710912371705675, 0.829962198273754 ], [ 110.710561829172349, 0.83031501091173 ], [ 110.710642704055545, 0.830554767237827 ], [ 110.710930311777858, 0.830495983364473 ], [ 110.711563054805524, 0.830440209776637 ], [ 110.712740903386788, 0.83033527524183 ], [ 110.713219495531234, 0.830548951901926 ], [ 110.71354916962224, 0.830623687894775 ], [ 110.713559960287412, 0.831136862482023 ], [ 110.71342147004404, 0.831422777612443 ], [ 110.713537294372202, 0.831666068902324 ], [ 110.713937127167426, 0.831560150685093 ], [ 110.714220929884803, 0.832292698188067 ], [ 110.71410816665788, 0.83259516279182 ], [ 110.714337317181034, 0.833020393860208 ], [ 110.714858584848386, 0.833183287092961 ], [ 110.715136259814884, 0.833007264850573 ], [ 110.71538946974222, 0.832770728956317 ], [ 110.715570241875085, 0.832302304438267 ], [ 110.715466145231659, 0.832074973668276 ], [ 110.715719715439462, 0.831343620784806 ], [ 110.715073648497935, 0.829609665347222 ], [ 110.714753201053796, 0.829880796668792 ], [ 110.714374097742848, 0.829944442014385 ], [ 110.714160781316494, 0.829749953822551 ] ] ] } },
{ "type": "Feature", "properties": { "Nama": "99", "Luas": 180.22, "Ket_1": "NIB 14.04.00.00.01155", "Ket_2": "Inti", "No_HGU": "No. 99", "Luas_Doc": 168.27, "id": "D" }, "geometry": { "type": "Polygon", "coordinates": [ [ [ 110.648536411799, 0.828536564458587 ], [ 110.648536409812365, 0.828536564450074 ], [ 110.64851910895031, 0.800812550303755 ], [ 110.648410933311581, 0.800805376852467 ], [ 110.648325519757051, 0.800493026535444 ], [ 110.648468192194898, 0.800123190764738 ], [ 110.648518685572569, 0.800132558440351 ], [ 110.648518651038145, 0.800077355095489 ], [ 110.648434079130837, 0.80006166507369 ], [ 110.648268793910873, 0.800490117736643 ], [ 110.648334807555969, 0.800731524203177 ], [ 110.647785542856909, 0.800840568183822 ], [ 110.647560872868766, 0.800650559147794 ], [ 110.647220409967289, 0.800186644346137 ], [ 110.64747965961476, 0.800129381526258 ], [ 110.647508236752074, 0.800158153359836 ], [ 110.647697474275532, 0.80017935378851 ], [ 110.647964298571821, 0.799955978858287 ], [ 110.648198640121166, 0.799832133571794 ], [ 110.648509556832948, 0.799429800231216 ], [ 110.648518244746668, 0.799427934582199 ], [ 110.648518210026097, 0.799372440144282 ], [ 110.648479068026532, 0.799380846244683 ], [ 110.648163242365996, 0.799789531878961 ], [ 110.647934193896006, 0.799910579868656 ], [ 110.647680635137164, 0.800122849409326 ], [ 110.647532998206614, 0.800106309528642 ], [ 110.647496927668968, 0.800069993242461 ], [ 110.647180101355801, 0.800139973544554 ], [ 110.646868903614347, 0.799899588002873 ], [ 110.64683296929843, 0.799718642429625 ], [ 110.646734105080839, 0.799745775235205 ], [ 110.64671851968896, 0.799938040627135 ], [ 110.646811493032303, 0.800242677980007 ], [ 110.646689118329164, 0.800324787201924 ], [ 110.646428432788014, 0.800903780437284 ], [ 110.646554222946264, 0.80130186475679 ], [ 110.646313949137067, 0.801749678253973 ], [ 110.646356459505711, 0.801763250824385 ], [ 110.646365441521482, 0.801826581462704 ], [ 110.646338462868556, 0.802016568688432 ], [ 110.64628452807257, 0.802134176588256 ], [ 110.646347420028064, 0.802369407243071 ], [ 110.646419307981475, 0.80250512033508 ], [ 110.646401319871913, 0.802658919852221 ], [ 110.646527134092068, 0.802776543393553 ], [ 110.646311436809924, 0.802758430375151 ], [ 110.646113708993212, 0.802803648766845 ], [ 110.646113704326709, 0.802857931499613 ], [ 110.645880001009544, 0.803201701766742 ], [ 110.646059721247141, 0.803536460955513 ], [ 110.645978819374321, 0.803708349217915 ], [ 110.646032719165092, 0.803997861826331 ], [ 110.645861922458579, 0.804404967403094 ], [ 110.645475453334058, 0.804504451962596 ], [ 110.644846339370716, 0.804413925684601 ], [ 110.644486849064251, 0.804323422971317 ], [ 110.64455878311766, 0.803925355971248 ], [ 110.644630694467452, 0.803789655461142 ], [ 110.644621730471982, 0.803518241055304 ], [ 110.644513895130174, 0.803355383441118 ], [ 110.644450979063777, 0.803400613533802 ], [ 110.644190360987295, 0.803192506931608 ], [ 110.644046578610457, 0.802997981246115 ], [ 110.643956691198284, 0.803147250847907 ], [ 110.643830876296818, 0.803038674374866 ], [ 110.643902799375553, 0.802767267081663 ], [ 110.643818089830319, 0.802426053859852 ], [ 110.643678152296516, 0.802314891393545 ], [ 110.643264777487204, 0.801762980850895 ], [ 110.643291756265384, 0.80157299370817 ], [ 110.643228855887713, 0.801437281401743 ], [ 110.643046455839809, 0.801333213961832 ], [ 110.642966161346877, 0.801415117044621 ], [ 110.642991184345291, 0.801274649860042 ], [ 110.643802542989619, 0.800587900971107 ], [ 110.644681288421722, 0.799784122090704 ], [ 110.646196231547719, 0.798328444750497 ], [ 110.646769708395482, 0.797986377952606 ], [ 110.646634822660758, 0.798117284515239 ], [ 110.646651151086942, 0.798117285927274 ], [ 110.646985749032197, 0.797947651153399 ], [ 110.647952174994501, 0.798682469574742 ], [ 110.64807569864773, 0.798605953579657 ], [ 110.648283814575365, 0.798605971509616 ], [ 110.64831323593171, 0.798657811075474 ], [ 110.648278857161074, 0.79868376174311 ], [ 110.648290047065132, 0.79872883497453 ], [ 110.648412593491145, 0.798823744219801 ], [ 110.648517853458017, 0.798802561859774 ], [ 110.648516810165503, 0.797135455107458 ], [ 110.647526308015202, 0.797252097955667 ], [ 110.646772520036166, 0.797983649255524 ], [ 110.646195685168109, 0.798327719041985 ], [ 110.644680675849017, 0.799783459986835 ], [ 110.643801951368445, 0.800587219702101 ], [ 110.642990357098782, 0.801274168029294 ], [ 110.642965045506529, 0.801416255238887 ], [ 110.642652621260453, 0.801734938412692 ], [ 110.643067417019083, 0.80267076398653 ], [ 110.643293971261883, 0.803389231899583 ], [ 110.643651723370155, 0.804029588956012 ], [ 110.643298910116187, 0.805021662131081 ], [ 110.642648902488716, 0.805612266254088 ], [ 110.642332637198024, 0.806407975784321 ], [ 110.642621831669373, 0.807328140755676 ], [ 110.642655163355826, 0.808303805683679 ], [ 110.642633714009776, 0.809660055089905 ], [ 110.642898152204509, 0.81125105309443 ], [ 110.643244586548846, 0.812287888105403 ], [ 110.643267305833916, 0.812769053808453 ], [ 110.643127340308595, 0.813429210593092 ], [ 110.643235101528234, 0.814152822794588 ], [ 110.642998647621866, 0.815273026670992 ], [ 110.642702853018932, 0.815977545129866 ], [ 110.642292543577895, 0.816605950726199 ], [ 110.642048322222152, 0.817243434185369 ], [ 110.642083142187616, 0.817671525234713 ], [ 110.642276986096363, 0.818281494345329 ], [ 110.642918692000109, 0.81952755353038 ], [ 110.643005546630249, 0.820074309231183 ], [ 110.642950710818312, 0.821258823612941 ], [ 110.643241753868068, 0.825926446489671 ], [ 110.643568843156146, 0.826694907987836 ], [ 110.644170717032779, 0.827324803096957 ], [ 110.644926351625273, 0.827779309950456 ], [ 110.645678483834317, 0.828469223109386 ], [ 110.648536411799839, 0.828536565812586 ], [ 110.648536411799, 0.828536564458587 ] ] ] } }
]
}
