{
  "type": "FeatureCollection",
  "name": "pt_bsl_boundary",
  "crs": {
    "type": "name",
    "properties": {
      "name": "urn:ogc:def:crs:OGC:1.3:CRS84"
    }
  },
  "features": [
    {
      "type": "Feature",
      "properties": {
        "LAYER": "HGU",
        "GM_TYPE": "Unknown Area Type",
        "ELEVATION": 199.235,
        "NO_HGU": "HGU NO 04",
        "TAHUN": "2007",
        "BIDANG": "A"
      },
      "geometry": {
        "type": "Polygon",
        "coordinates": [
          [
            [
              111.0099989657116,
              -0.208496337696494
            ],
            [
              111.00999907029947,
              -0.221427035860474
            ],
            [
              110.99744449091178,
              -0.221427039033335
            ],
            [
              110.99744449305214,
              -0.208551801218736
            ],
            [
              111.0099989657116,
              -0.208496337696494
            ]
          ]
        ]
      }
    },
    {
      "type": "Feature",
      "properties": {
        "LAYER": "HGU",
        "GM_TYPE": "Unknown Area Type",
        "ELEVATION": 198.975,
        "NO_HGU": "HGU NO 07",
        "TAHUN": "2007",
        "BIDANG": "D"
      },
      "geometry": {
        "type": "Polygon",
        "coordinates": [
          [
            [
              111.05953292724534,
              -0.201344046800021
            ],
            [
              111.059450203561,
              -0.210717057796255
            ],
            [
              111.05940671382184,
              -0.215572321849471
            ],
            [
              111.04804596444073,
              -0.21557261637379
            ],
            [
              111.04804786694606,
              -0.210780281817893
            ],
            [
              111.04819928037529,
              -0.201834373797692
            ],
            [
              111.04821037147822,
              -0.201342343429784
            ],
            [
              111.05953292724534,
              -0.201344046800021
            ]
          ]
        ]
      }
    },
    {
      "type": "Feature",
      "properties": {
        "LAYER": "HGU",
        "GM_TYPE": "Unknown Area Type",
        "ELEVATION": 199.476,
        "NO_HGU": "HGU NO 08",
        "TAHUN": "2007",
        "BIDANG": "E"
      },
      "geometry": {
        "type": "Polygon",
        "coordinates": [
          [
            [
              111.06170018427478,
              -0.214141832830744
            ],
            [
              111.061661388297,
              -0.198644878377854
            ],
            [
              111.06345253629324,
              -0.198644871552063
            ],
            [
              111.07215512001792,
              -0.198646549008465
            ],
            [
              111.07213813425079,
              -0.214142869655533
            ],
            [
              111.06170018427478,
              -0.214141832830744
            ]
          ]
        ]
      }
    },
    {
      "type": "Feature",
      "properties": {
        "LAYER": "HGU",
        "GM_TYPE": "Unknown Area Type",
        "ELEVATION": 199.879,
        "NO_HGU": "HGU NO 06",
        "TAHUN": "2007",
        "BIDANG": "C"
      },
      "geometry": {
        "type": "Polygon",
        "coordinates": [
          [
            [
              111.05973677456369,
              -0.184117363633148
            ],
            [
              111.05972301302025,
              -0.197821674113876
            ],
            [
              111.05972237986433,
              -0.19895079772117
            ],
            [
              111.05182385834779,
              -0.19894347357567
            ],
            [
              111.04913062658069,
              -0.198941041429122
            ],
            [
              111.04912739504285,
              -0.198943481879422
            ],
            [
              111.04874115076004,
              -0.198943483032539
            ],
            [
              111.04879828318134,
              -0.184117397149846
            ],
            [
              111.05973677456369,
              -0.184117363633148
            ]
          ]
        ]
      }
    },
    {
      "type": "Feature",
      "properties": {
        "LAYER": "HGU",
        "GM_TYPE": "Unknown Area Type",
        "ELEVATION": 198.815,
        "NO_HGU": "HGU NO 05",
        "TAHUN": "2007",
        "BIDANG": "B"
      },
      "geometry": {
        "type": "Polygon",
        "coordinates": [
          [
            [
              111.03037213293716,
              -0.198753533825366
            ],
            [
              111.04032052000095,
              -0.198753512392504
            ],
            [
              111.04032052534563,
              -0.215002337985319
            ],
            [
              111.03037212816304,
              -0.215002361170388
            ],
            [
              111.03037213293716,
              -0.198753533825366
            ]
          ]
        ]
      }
    },
    {
      "type": "Feature",
      "properties": {
        "LAYER": "HGU",
        "GM_TYPE": "Unknown Area Type",
        "ELEVATION": 199.633,
        "NO_HGU": "HGU NO 210",
        "TAHUN": "2015",
        "BIDANG": "I"
      },
      "geometry": {
        "type": "Polygon",
        "coordinates": [
          [
            [
              111.01900986449706,
              -0.212670194112159
            ],
            [
              111.0191087858581,
              -0.212706396593367
            ],
            [
              111.01902788765035,
              -0.213059474389294
            ],
            [
              111.01893795526169,
              -0.212987058743906
            ],
            [
              111.01883904984393,
              -0.213113811566575
            ],
            [
              111.01892899022764,
              -0.21326770485455
            ],
            [
              111.01902791604512,
              -0.213349172665866
            ],
            [
              111.01912683298075,
              -0.213340109761779
            ],
            [
              111.01910886835502,
              -0.213548332177975
            ],
            [
              111.01935164619901,
              -0.213340087411636
            ],
            [
              111.01938759234643,
              -0.213095650955448
            ],
            [
              111.01956742782134,
              -0.212941730922182
            ],
            [
              111.01959441160952,
              -0.213005099725935
            ],
            [
              111.01989820580357,
              -0.212894088071021
            ],
            [
              111.0208713394223,
              -0.212896336133364
            ],
            [
              111.02077249543892,
              -0.213647750251277
            ],
            [
              111.02099802895005,
              -0.213868891270725
            ],
            [
              111.02112116496674,
              -0.214330219669382
            ],
            [
              111.02138642791955,
              -0.214675795123171
            ],
            [
              111.02126832593866,
              -0.214887451499762
            ],
            [
              111.02185275444947,
              -0.21524667272004
            ],
            [
              111.02184075589673,
              -0.21538678676457
            ],
            [
              111.02140247583345,
              -0.215649044633135
            ],
            [
              111.02191627699463,
              -0.215999922722568
            ],
            [
              111.02204071061738,
              -0.216372594416043
            ],
            [
              111.02183005597396,
              -0.216960428447015
            ],
            [
              111.02262201426873,
              -0.216623552126889
            ],
            [
              111.02213330137496,
              -0.219235056390291
            ],
            [
              111.0226475800918,
              -0.219560586164463
            ],
            [
              111.02303448398015,
              -0.219863589141071
            ],
            [
              111.02343532179482,
              -0.219863547965547
            ],
            [
              111.02358772157179,
              -0.219341839098356
            ],
            [
              111.02375856102488,
              -0.219160760561925
            ],
            [
              111.0241205793891,
              -0.219033980780487
            ],
            [
              111.02535933427555,
              -0.2202107496592
            ],
            [
              111.02554253729926,
              -0.220039365189255
            ],
            [
              111.02615421677403,
              -0.219790124850511
            ],
            [
              111.02673634539313,
              -0.220575616113437
            ],
            [
              111.02732073720279,
              -0.22067059327265
            ],
            [
              111.02731070512078,
              -0.220457438695995
            ],
            [
              111.02775992476035,
              -0.22005320760211
            ],
            [
              111.02808406299296,
              -0.220038455295955
            ],
            [
              111.02849773528003,
              -0.220500094799444
            ],
            [
              111.02951397025308,
              -0.221206153974507
            ],
            [
              111.02939708271248,
              -0.221351014540629
            ],
            [
              111.02916337272755,
              -0.222274447689241
            ],
            [
              111.0287317358453,
              -0.222301651772799
            ],
            [
              111.0284110362692,
              -0.222241488417424
            ],
            [
              111.02845597035136,
              -0.222343927994369
            ],
            [
              111.02838103785497,
              -0.222392218639981
            ],
            [
              111.02840804516163,
              -0.222681912831037
            ],
            [
              111.02849797757874,
              -0.222754327691049
            ],
            [
              111.02846920663096,
              -0.22280321706414
            ],
            [
              111.0283900648329,
              -0.222727179865721
            ],
            [
              111.02812927218193,
              -0.22262762373443
            ],
            [
              111.0281472376101,
              -0.222437508175885
            ],
            [
              111.02798535869962,
              -0.222301729553784
            ],
            [
              111.02776054625514,
              -0.222301752974381
            ],
            [
              111.02776954992206,
              -0.222410388446531
            ],
            [
              111.02789544303226,
              -0.222392269257853
            ],
            [
              111.02795839517094,
              -0.222437527863504
            ],
            [
              111.02802135569327,
              -0.222564263763309
            ],
            [
              111.02800337815368,
              -0.222636689903935
            ],
            [
              111.0276886332668,
              -0.222564298466285
            ],
            [
              111.02761670166092,
              -0.222645783281042
            ],
            [
              111.02739189196777,
              -0.222672965839256
            ],
            [
              111.02732893515073,
              -0.222582442046331
            ],
            [
              111.02707714140446,
              -0.222546256150995
            ],
            [
              111.02706814424819,
              -0.222500991903179
            ],
            [
              111.02699620330583,
              -0.222491946362972
            ],
            [
              111.02697824531201,
              -0.222754486322394
            ],
            [
              111.02693328559822,
              -0.222781650126083
            ],
            [
              111.02676063287367,
              -0.222718296870389
            ],
            [
              111.02685365689688,
              -0.222795952816139
            ],
            [
              111.02699776979706,
              -0.223164230906737
            ],
            [
              111.02719094173537,
              -0.223253274466291
            ],
            [
              111.02725072331886,
              -0.22335736723976
            ],
            [
              111.02729302670296,
              -0.223179946178581
            ],
            [
              111.02746387580613,
              -0.223098450996281
            ],
            [
              111.02766171826795,
              -0.223170854592695
            ],
            [
              111.02779659547821,
              -0.223071257113312
            ],
            [
              111.02769766772359,
              -0.222971684075164
            ],
            [
              111.02772463962125,
              -0.22291736305099
            ],
            [
              111.02796743614124,
              -0.22290828465397
            ],
            [
              111.02802146496703,
              -0.22362346862361
            ],
            [
              111.02774385799508,
              -0.223862232880374
            ],
            [
              111.02766178374529,
              -0.223804567008705
            ],
            [
              111.02737096727218,
              -0.22388005627436
            ],
            [
              111.0275152133802,
              -0.224070744292847
            ],
            [
              111.02732659949889,
              -0.224415837210376
            ],
            [
              111.0274922899492,
              -0.224681068641741
            ],
            [
              111.02719005693181,
              -0.2247341404519
            ],
            [
              111.02680445811683,
              -0.224669150481449
            ],
            [
              111.02713141707179,
              -0.225642389096977
            ],
            [
              111.02706852058355,
              -0.226131259747756
            ],
            [
              111.02674482735121,
              -0.226484362528534
            ],
            [
              111.02508112400488,
              -0.22562902608205
            ],
            [
              111.02458658439859,
              -0.22609531022084
            ],
            [
              111.02384925956622,
              -0.226683836454053
            ],
            [
              111.02342660553163,
              -0.22662956291342
            ],
            [
              111.02291397426981,
              -0.226077380854887
            ],
            [
              111.02315676005972,
              -0.225959665516506
            ],
            [
              111.02337255130774,
              -0.225678998099922
            ],
            [
              111.02349840421559,
              -0.225271597478732
            ],
            [
              111.02344443030952,
              -0.225090542111371
            ],
            [
              111.02296872818536,
              -0.224744249558495
            ],
            [
              111.02286574994709,
              -0.224950684664093
            ],
            [
              111.02255308047958,
              -0.225204136692046
            ],
            [
              111.02260819084265,
              -0.225715290904336
            ],
            [
              111.02235643224253,
              -0.226023121379878
            ],
            [
              111.02196076966719,
              -0.226104640660588
            ],
            [
              111.02154717671536,
              -0.226711239359218
            ],
            [
              111.02140329816771,
              -0.22672936070343
            ],
            [
              111.0211245024057,
              -0.226466851393247
            ],
            [
              111.02120542383881,
              -0.226358206100188
            ],
            [
              111.02130434164752,
              -0.226358195652537
            ],
            [
              111.0216252778582,
              -0.225273541617896
            ],
            [
              111.02143908376506,
              -0.224954956978685
            ],
            [
              111.02100743495457,
              -0.224882577783536
            ],
            [
              111.02063914454476,
              -0.225076152374617
            ],
            [
              111.02080093914779,
              -0.226044594064961
            ],
            [
              111.02060439581089,
              -0.226659571679873
            ],
            [
              111.01983870944775,
              -0.227797788137563
            ],
            [
              111.0194160706996,
              -0.227897416775431
            ],
            [
              111.01938907222748,
              -0.227698252113048
            ],
            [
              111.01911931222513,
              -0.227852182937099
            ],
            [
              111.01882534688457,
              -0.22770288082245
            ],
            [
              111.01868307853005,
              -0.226937868919461
            ],
            [
              111.01753637617995,
              -0.225462338481571
            ],
            [
              111.01689776260359,
              -0.2240772842355
            ],
            [
              111.01683480547801,
              -0.22398675999557
            ],
            [
              111.01666394339126,
              -0.223950565475686
            ],
            [
              111.01612438871422,
              -0.223932515510271
            ],
            [
              111.01524310023865,
              -0.223751545516017
            ],
            [
              111.01462845297303,
              -0.222949176943152
            ],
            [
              111.01451463668269,
              -0.223099798763412
            ],
            [
              111.01423398262742,
              -0.222919293510474
            ],
            [
              111.01353275567187,
              -0.223027716240885
            ],
            [
              111.01322134760183,
              -0.222492474217235
            ],
            [
              111.0128223240423,
              -0.222837674738302
            ],
            [
              111.0126244544656,
              -0.222511783666743
            ],
            [
              111.012543514954,
              -0.222448420333595
            ],
            [
              111.0124445958468,
              -0.222439377443009
            ],
            [
              111.01235467390683,
              -0.222475599118569
            ],
            [
              111.01202192510367,
              -0.222240252839499
            ],
            [
              111.01175213435894,
              -0.222104484118247
            ],
            [
              111.01113164911025,
              -0.222122654216282
            ],
            [
              111.01089549873083,
              -0.222186220808053
            ],
            [
              111.01085745448806,
              -0.222206328527746
            ],
            [
              111.01056261149287,
              -0.222207286252051
            ],
            [
              111.01055612653336,
              -0.222140819670882
            ],
            [
              111.01040323904978,
              -0.222005038795036
            ],
            [
              111.01040322710982,
              -0.22188734840026
            ],
            [
              111.01036725040035,
              -0.22182398034573
            ],
            [
              111.01007049554364,
              -0.221824010838363
            ],
            [
              111.00968384061679,
              -0.222077537650685
            ],
            [
              111.0094590014763,
              -0.221833126764048
            ],
            [
              111.00934206866764,
              -0.221543439194656
            ],
            [
              111.00925201754686,
              -0.221491986165188
            ],
            [
              111.01005090581617,
              -0.221491904230131
            ],
            [
              111.0100500282424,
              -0.212645467716009
            ],
            [
              111.01018387003603,
              -0.213051798376786
            ],
            [
              111.0105161732096,
              -0.213163275386918
            ],
            [
              111.01106939440326,
              -0.212923980992705
            ],
            [
              111.01129765839347,
              -0.213304256969101
            ],
            [
              111.01105102080975,
              -0.213495337587851
            ],
            [
              111.01095370020316,
              -0.213908573181681
            ],
            [
              111.01192224059298,
              -0.214572286520358
            ],
            [
              111.0121920173766,
              -0.214572259672802
            ],
            [
              111.01226395072831,
              -0.214499827714536
            ],
            [
              111.01286989882013,
              -0.214842329656182
            ],
            [
              111.013020888018,
              -0.214317081458546
            ],
            [
              111.01317387681652,
              -0.21442707188251
            ],
            [
              111.0139291359714,
              -0.213250094649153
            ],
            [
              111.01398307712749,
              -0.213105239827979
            ],
            [
              111.01448667228405,
              -0.213231933247117
            ],
            [
              111.01443668555115,
              -0.21350886611728
            ],
            [
              111.01471334818463,
              -0.213566540776865
            ],
            [
              111.01518159716788,
              -0.213408459568667
            ],
            [
              111.01567001748103,
              -0.214030774587489
            ],
            [
              111.01545886979297,
              -0.214384065645124
            ],
            [
              111.01543792559144,
              -0.214796261382954
            ],
            [
              111.01561476232824,
              -0.214865064207872
            ],
            [
              111.0165874105147,
              -0.215697499996662
            ],
            [
              111.01679799216829,
              -0.215630770486211
            ],
            [
              111.0167799873825,
              -0.21543160451767
            ],
            [
              111.01738527583773,
              -0.215746194701494
            ],
            [
              111.01748140361558,
              -0.215413428044583
            ],
            [
              111.01737344932857,
              -0.214969838037575
            ],
            [
              111.01765220903577,
              -0.214879279374337
            ],
            [
              111.01804168005543,
              -0.21417645134577
            ],
            [
              111.01843450330445,
              -0.214308857458431
            ],
            [
              111.01850641683276,
              -0.214037258077657
            ],
            [
              111.01847943300353,
              -0.213973889253021
            ],
            [
              111.0182923731822,
              -0.214026589626434
            ],
            [
              111.0183302405904,
              -0.213689245684883
            ],
            [
              111.01776896862813,
              -0.213421722374132
            ],
            [
              111.01776894290626,
              -0.213159183157134
            ],
            [
              111.01755311142793,
              -0.213050567644508
            ],
            [
              111.01763138227349,
              -0.212743638487078
            ],
            [
              111.01800832192048,
              -0.212676517311046
            ],
            [
              111.01820954339895,
              -0.212815122589483
            ],
            [
              111.01828148237209,
              -0.212801947351649
            ],
            [
              111.01836240052027,
              -0.212652152107117
            ],
            [
              111.01890193821806,
              -0.212507249514285
            ],
            [
              111.01900986449706,
              -0.212670194112159
            ]
          ]
        ]
      }
    },
    {
      "type": "Feature",
      "properties": {
        "LAYER": "HGU",
        "GM_TYPE": "Unknown Area Type",
        "ELEVATION": 196.645,
        "NO_HGU": "HGU NO 211",
        "TAHUN": "2015",
        "BIDANG": "J"
      },
      "geometry": {
        "type": "Polygon",
        "coordinates": [
          [
            [
              111.04032489262913,
              -0.183050551792034
            ],
            [
              111.04049999115199,
              -0.183402716427984
            ],
            [
              111.04057641057646,
              -0.183535273512559
            ],
            [
              111.04055950290693,
              -0.183760001897741
            ],
            [
              111.04056852250277,
              -0.184076855417711
            ],
            [
              111.04062293190226,
              -0.184177219650454
            ],
            [
              111.04117349298198,
              -0.18435925930607
            ],
            [
              111.04139563325327,
              -0.184203198389039
            ],
            [
              111.04166580317931,
              -0.18468143672668
            ],
            [
              111.04178689026254,
              -0.184681426150451
            ],
            [
              111.04166287862348,
              -0.185161780614094
            ],
            [
              111.04152580919603,
              -0.185197807989971
            ],
            [
              111.0411531524366,
              -0.185498233001363
            ],
            [
              111.04167192004502,
              -0.185829133073973
            ],
            [
              111.04142580228351,
              -0.185955246521832
            ],
            [
              111.04111764114258,
              -0.186492579964438
            ],
            [
              111.04108597061717,
              -0.186657314444455
            ],
            [
              111.04032661379523,
              -0.186948447637213
            ],
            [
              111.04028103445883,
              -0.187191105993851
            ],
            [
              111.03987213461618,
              -0.187400796045768
            ],
            [
              111.04005010526656,
              -0.188340876351777
            ],
            [
              111.04039439451569,
              -0.188455885684715
            ],
            [
              111.04050541126597,
              -0.188614994804228
            ],
            [
              111.0406975414065,
              -0.188696075867203
            ],
            [
              111.04067257606674,
              -0.188960190278985
            ],
            [
              111.0407155992877,
              -0.189143290939963
            ],
            [
              111.04103884301364,
              -0.189407464680326
            ],
            [
              111.04106486496238,
              -0.189354422818165
            ],
            [
              111.04138306187407,
              -0.189566552918516
            ],
            [
              111.04158223358688,
              -0.189617583457384
            ],
            [
              111.04177234816802,
              -0.189546515018641
            ],
            [
              111.0418625719016,
              -0.189803433116301
            ],
            [
              111.04223260171517,
              -0.189599024075173
            ],
            [
              111.04225991126205,
              -0.189408909196545
            ],
            [
              111.04243939291449,
              -0.189209727727759
            ],
            [
              111.0426821849773,
              -0.189173494106228
            ],
            [
              111.04282605963975,
              -0.189128216373691
            ],
            [
              111.04279908798917,
              -0.189191589581376
            ],
            [
              111.04280808520458,
              -0.189245906598457
            ],
            [
              111.04309671299092,
              -0.189143182040046
            ],
            [
              111.0430912221513,
              -0.189076055006107
            ],
            [
              111.04288194435792,
              -0.188869934220152
            ],
            [
              111.04283090407824,
              -0.188585823873403
            ],
            [
              111.04296798023778,
              -0.188275629500865
            ],
            [
              111.04309534237483,
              -0.188197711017897
            ],
            [
              111.0434842907761,
              -0.188318576327651
            ],
            [
              111.04363533377835,
              -0.188639283703909
            ],
            [
              111.04393361746905,
              -0.188904868026536
            ],
            [
              111.04414283868901,
              -0.189499270014631
            ],
            [
              111.0448722669411,
              -0.189568231066348
            ],
            [
              111.0454158994892,
              -0.189417679063137
            ],
            [
              111.04602735248137,
              -0.189073611793052
            ],
            [
              111.04604490662275,
              -0.188936427219095
            ],
            [
              111.04614418895228,
              -0.188340311866633
            ],
            [
              111.04657578829902,
              -0.187932890363141
            ],
            [
              111.04728081882143,
              -0.188007540274906
            ],
            [
              111.04741210599326,
              -0.18821345724999
            ],
            [
              111.0475829575191,
              -0.188168177235154
            ],
            [
              111.04773583222199,
              -0.188213428324932
            ],
            [
              111.04769090620468,
              -0.188620815068242
            ],
            [
              111.04788873648452,
              -0.18859363850534
            ],
            [
              111.04817809101534,
              -0.188778994087832
            ],
            [
              111.04877078752737,
              -0.188850307613113
            ],
            [
              111.04874527799412,
              -0.19753787139404
            ],
            [
              111.04855498288971,
              -0.197537889251097
            ],
            [
              111.04824023979272,
              -0.197438336363549
            ],
            [
              111.04770970336591,
              -0.197601339190101
            ],
            [
              111.04769173701068,
              -0.197800505762931
            ],
            [
              111.04761981543348,
              -0.197990624461118
            ],
            [
              111.04757485763022,
              -0.198035893436299
            ],
            [
              111.0474579639802,
              -0.19811738097896
            ],
            [
              111.04713425852935,
              -0.19834373521299
            ],
            [
              111.04622602904848,
              -0.19838003250167
            ],
            [
              111.04584834878891,
              -0.198389120991028
            ],
            [
              111.04588427896866,
              -0.197963628623301
            ],
            [
              111.04649573996008,
              -0.197719141439137
            ],
            [
              111.04670254683641,
              -0.197519957059664
            ],
            [
              111.04685535168127,
              -0.196804759450101
            ],
            [
              111.04699023271463,
              -0.196750429139288
            ],
            [
              111.04687780185166,
              -0.196469798095008
            ],
            [
              111.04626363399242,
              -0.196614702628604
            ],
            [
              111.04625199367896,
              -0.196667420955092
            ],
            [
              111.04556861996957,
              -0.197201609241193
            ],
            [
              111.04543372966307,
              -0.197156357056314
            ],
            [
              111.04522456832045,
              -0.196964133567183
            ],
            [
              111.04507487434734,
              -0.197013143715226
            ],
            [
              111.04481409275893,
              -0.196995062139723
            ],
            [
              111.04473871907472,
              -0.197005743132153
            ],
            [
              111.04467711799815,
              -0.197003893793312
            ],
            [
              111.0445891041929,
              -0.19699969956821
            ],
            [
              111.04436448797576,
              -0.197167110414426
            ],
            [
              111.04424761748875,
              -0.197502081005951
            ],
            [
              111.04380702761243,
              -0.197918558659843
            ],
            [
              111.043258500187,
              -0.198027245683055
            ],
            [
              111.04431973061162,
              -0.199376037784265
            ],
            [
              111.04466146008221,
              -0.199566117716193
            ],
            [
              111.04495821647089,
              -0.199638513342063
            ],
            [
              111.0450841398447,
              -0.199955355048931
            ],
            [
              111.04500325559577,
              -0.200462328526531
            ],
            [
              111.04481441831543,
              -0.200498558312546
            ],
            [
              111.04449972118928,
              -0.200896918584529
            ],
            [
              111.04368139851957,
              -0.20076120195104
            ],
            [
              111.04355547793094,
              -0.200476045456041
            ],
            [
              111.04277692842042,
              -0.200879523575705
            ],
            [
              111.04316913243511,
              -0.201559561676473
            ],
            [
              111.04299844264122,
              -0.201753691753734
            ],
            [
              111.04277702939308,
              -0.201953168385594
            ],
            [
              111.04262696776614,
              -0.202146333814411
            ],
            [
              111.04255619071577,
              -0.202321041401389
            ],
            [
              111.04246758528792,
              -0.20249948787748
            ],
            [
              111.04245859457514,
              -0.202517594682958
            ],
            [
              111.04279526959616,
              -0.202759249683609
            ],
            [
              111.04347475973682,
              -0.20274382147031
            ],
            [
              111.04387043477675,
              -0.202834313142931
            ],
            [
              111.04392439958791,
              -0.20294294354556
            ],
            [
              111.04401433923216,
              -0.203105888273818
            ],
            [
              111.04405031492085,
              -0.203169255568096
            ],
            [
              111.04414025285902,
              -0.203314094347339
            ],
            [
              111.04418522183092,
              -0.203386513732055
            ],
            [
              111.04419422199484,
              -0.203467989544327
            ],
            [
              111.04426615875325,
              -0.203440823719031
            ],
            [
              111.04432011583984,
              -0.203467977410767
            ],
            [
              111.04435609842695,
              -0.20360376839767
            ],
            [
              111.04434711376499,
              -0.203685245937789
            ],
            [
              111.04441905568753,
              -0.203712397886193
            ],
            [
              111.04430217151065,
              -0.203893468443958
            ],
            [
              111.04418529856761,
              -0.204192227556926
            ],
            [
              111.0440863949272,
              -0.204328031594785
            ],
            [
              111.04407676358912,
              -0.204363597745994
            ],
            [
              111.04410438581658,
              -0.204391400606859
            ],
            [
              111.04412237065384,
              -0.204391398865837
            ],
            [
              111.04413136134303,
              -0.204373292066132
            ],
            [
              111.04414934618,
              -0.204373290325202
            ],
            [
              111.04415834032788,
              -0.204391395383614
            ],
            [
              111.04415834465206,
              -0.204436660205777
            ],
            [
              111.044176332949,
              -0.204472870321681
            ],
            [
              111.04414036760089,
              -0.204518138627872
            ],
            [
              111.04410440787915,
              -0.204622251205808
            ],
            [
              111.04405944708327,
              -0.204635835010566
            ],
            [
              111.04394255429159,
              -0.20472637599381
            ],
            [
              111.04393356533645,
              -0.204762588727298
            ],
            [
              111.04389779632925,
              -0.204925359238779
            ],
            [
              111.0439370288428,
              -0.205022926918485
            ],
            [
              111.0440011027704,
              -0.205108996875451
            ],
            [
              111.04404413448479,
              -0.205366135090222
            ],
            [
              111.04410448377327,
              -0.205414385613252
            ],
            [
              111.04414944586902,
              -0.205414381238753
            ],
            [
              111.0441944053566,
              -0.20538721797129
            ],
            [
              111.0442033960375,
              -0.20536911116806
            ],
            [
              111.0442483581309,
              -0.205369106794251
            ],
            [
              111.04428433041203,
              -0.205396262186764
            ],
            [
              111.04433828492209,
              -0.205396256937216
            ],
            [
              111.04434729820964,
              -0.205613527188844
            ],
            [
              111.04430234481939,
              -0.205704061206195
            ],
            [
              111.04430235352507,
              -0.205794590844158
            ],
            [
              111.04434733565564,
              -0.206002804623962
            ],
            [
              111.0444013032458,
              -0.206138593809312
            ],
            [
              111.04437434431618,
              -0.206328708676851
            ],
            [
              111.04422149240908,
              -0.206527888829016
            ],
            [
              111.04417653642923,
              -0.206591263977713
            ],
            [
              111.04417654342289,
              -0.206663687692404
            ],
            [
              111.04404616295395,
              -0.20676328306907
            ],
            [
              111.04392476965072,
              -0.20680855978372
            ],
            [
              111.04388880346686,
              -0.206844775168781
            ],
            [
              111.04372695301088,
              -0.206980585517089
            ],
            [
              111.04355609261509,
              -0.206935337426685
            ],
            [
              111.04310193542632,
              -0.207329875071343
            ],
            [
              111.04383496212499,
              -0.208012613039788
            ],
            [
              111.04352932383055,
              -0.209080893269089
            ],
            [
              111.04245927556106,
              -0.209597018545839
            ],
            [
              111.04235140453628,
              -0.209986307046986
            ],
            [
              111.04201870415399,
              -0.210185505514342
            ],
            [
              111.0419377864875,
              -0.210330361141967
            ],
            [
              111.04174893831681,
              -0.210257956129056
            ],
            [
              111.04146116360866,
              -0.210085978196532
            ],
            [
              111.04138021751848,
              -0.209941138615274
            ],
            [
              111.04144314771177,
              -0.20976912582326
            ],
            [
              111.04150606552618,
              -0.209470371380936
            ],
            [
              111.04121828291247,
              -0.209216916524142
            ],
            [
              111.04112835769068,
              -0.209207872440652
            ],
            [
              111.0411105560359,
              -0.209138871949541
            ],
            [
              111.04109237117754,
              -0.209035869425346
            ],
            [
              111.041155307626,
              -0.208927227478424
            ],
            [
              111.04114630549036,
              -0.208827645616555
            ],
            [
              111.04090351417429,
              -0.208872934474497
            ],
            [
              111.04080910419093,
              -0.208981579540282
            ],
            [
              111.04057485158201,
              -0.209099291412896
            ],
            [
              111.04041628149847,
              -0.209382024986951
            ],
            [
              111.04048028780622,
              -0.209532086520345
            ],
            [
              111.04045931590183,
              -0.209661157823975
            ],
            [
              111.04032052319494,
              -0.209555000757201
            ],
            [
              111.04032785404301,
              -0.198744889686376
            ],
            [
              111.03735191719304,
              -0.198745168870732
            ],
            [
              111.03761193027006,
              -0.197367260534526
            ],
            [
              111.03870610893813,
              -0.196338483760832
            ],
            [
              111.03863789527166,
              -0.195853716286094
            ],
            [
              111.03848326430744,
              -0.195230319077275
            ],
            [
              111.03824431111299,
              -0.195005006988564
            ],
            [
              111.03772107516508,
              -0.194900621744397
            ],
            [
              111.03736820215755,
              -0.195234843423872
            ],
            [
              111.03740631987831,
              -0.194837828240298
            ],
            [
              111.03718923697924,
              -0.194859871277849
            ],
            [
              111.03720696422798,
              -0.194997255896594
            ],
            [
              111.03689778922683,
              -0.195018803240603
            ],
            [
              111.03683464244138,
              -0.195145976262498
            ],
            [
              111.03684663675052,
              -0.195194257803763
            ],
            [
              111.03670920002335,
              -0.195492362138597
            ],
            [
              111.0363130424657,
              -0.195726794459494
            ],
            [
              111.03627116629694,
              -0.1957012786546
            ],
            [
              111.03627114736024,
              -0.195493059694913
            ],
            [
              111.03611825601782,
              -0.195275801804059
            ],
            [
              111.03596715092894,
              -0.195254172248913
            ],
            [
              111.03573159799909,
              -0.195465950390791
            ],
            [
              111.03560457901459,
              -0.195383639849574
            ],
            [
              111.03562656462755,
              -0.194975340055343
            ],
            [
              111.03547974127761,
              -0.194714574438914
            ],
            [
              111.03560562410816,
              -0.194587820877123
            ],
            [
              111.03558518395496,
              -0.194500764523643
            ],
            [
              111.03556060954108,
              -0.194008432915722
            ],
            [
              111.03551363067498,
              -0.193876044268701
            ],
            [
              111.03539873320898,
              -0.193872652677081
            ],
            [
              111.03523486149632,
              -0.193769563997038
            ],
            [
              111.0352233669773,
              -0.193723294142686
            ],
            [
              111.03525482548471,
              -0.193555810723225
            ],
            [
              111.03524582652192,
              -0.193483387521807
            ],
            [
              111.03530876634964,
              -0.193401904764634
            ],
            [
              111.03539868515378,
              -0.193338525559814
            ],
            [
              111.03548861127514,
              -0.193356623374308
            ],
            [
              111.035704425979,
              -0.193311338714083
            ],
            [
              111.0360641108688,
              -0.193166457967933
            ],
            [
              111.03617920719293,
              -0.193088591702574
            ],
            [
              111.03627992551426,
              -0.193121173332051
            ],
            [
              111.03632488611697,
              -0.193103063243883
            ],
            [
              111.0364777463089,
              -0.192976307367829
            ],
            [
              111.0365244988992,
              -0.192885773142752
            ],
            [
              111.03671153849105,
              -0.192849544151512
            ],
            [
              111.03697830909366,
              -0.19272880199336
            ],
            [
              111.03699028880709,
              -0.192677511898421
            ],
            [
              111.03713366469601,
              -0.192560305945079
            ],
            [
              111.03690352767494,
              -0.192377608491916
            ],
            [
              111.0368184677283,
              -0.192270631569761
            ],
            [
              111.03671042887397,
              -0.192249552172937
            ],
            [
              111.03673236769875,
              -0.192141479405322
            ],
            [
              111.03666732833747,
              -0.192034500651901
            ],
            [
              111.03683942926905,
              -0.192013395884437
            ],
            [
              111.03703258109813,
              -0.191905307635003
            ],
            [
              111.0370114936859,
              -0.191583179012379
            ],
            [
              111.03705452343704,
              -0.191003810841773
            ],
            [
              111.03707550227057,
              -0.190939726792042
            ],
            [
              111.0371405358765,
              -0.190982713910562
            ],
            [
              111.03730114535219,
              -0.190982699446477
            ],
            [
              111.03750477335868,
              -0.191110845400958
            ],
            [
              111.03769796157272,
              -0.191411959745675
            ],
            [
              111.03763389762568,
              -0.191432964198159
            ],
            [
              111.03767693350369,
              -0.191755181253451
            ],
            [
              111.03802019805542,
              -0.19201328895946
            ],
            [
              111.03832140974734,
              -0.19216342020327
            ],
            [
              111.03835125514627,
              -0.192223139775693
            ],
            [
              111.03845147130822,
              -0.192186398321552
            ],
            [
              111.03923283323337,
              -0.190984607017596
            ],
            [
              111.03943729912679,
              -0.190855724734146
            ],
            [
              111.0395820213313,
              -0.190317144321132
            ],
            [
              111.03929980661695,
              -0.190327216453592
            ],
            [
              111.03959398139008,
              -0.189726827773802
            ],
            [
              111.03919312606736,
              -0.189191912071962
            ],
            [
              111.0385726418304,
              -0.189119543578836
            ],
            [
              111.03843773460171,
              -0.18888417790202
            ],
            [
              111.03851863866453,
              -0.188567316082016
            ],
            [
              111.038292959742,
              -0.187583832142038
            ],
            [
              111.03824057087832,
              -0.187605162407634
            ],
            [
              111.03813184581952,
              -0.187561562047961
            ],
            [
              111.03787669446454,
              -0.1875566064944
            ],
            [
              111.03783664722616,
              -0.187486554141442
            ],
            [
              111.03768960600516,
              -0.187471542236978
            ],
            [
              111.03761852248117,
              -0.187491361160182
            ],
            [
              111.03757654550174,
              -0.187684706828617
            ],
            [
              111.0374284850425,
              -0.187885836513259
            ],
            [
              111.03680205366493,
              -0.187902894965782
            ],
            [
              111.0365709186975,
              -0.187804800920824
            ],
            [
              111.03640176488788,
              -0.187609763492632
            ],
            [
              111.03631268605875,
              -0.187330543209585
            ],
            [
              111.03632469335139,
              -0.187272524240552
            ],
            [
              111.03638875614335,
              -0.18723749061438
            ],
            [
              111.03641876854391,
              -0.187025328882432
            ],
            [
              111.03652475806882,
              -0.186502977384675
            ],
            [
              111.03656880133548,
              -0.186479983579566
            ],
            [
              111.03665682273616,
              -0.186537993742393
            ],
            [
              111.03679496589582,
              -0.186552010883278
            ],
            [
              111.03693200643417,
              -0.186677085768655
            ],
            [
              111.0370281021242,
              -0.186642049349292
            ],
            [
              111.03702504963005,
              -0.186499946517989
            ],
            [
              111.03722914637385,
              -0.185954585930421
            ],
            [
              111.03723416760074,
              -0.185675471908179
            ],
            [
              111.0373942904851,
              -0.185190649485372
            ],
            [
              111.03705475251189,
              -0.184843281544142
            ],
            [
              111.0369235344239,
              -0.184843292979059
            ],
            [
              111.03676477074012,
              -0.184648827390741
            ],
            [
              111.03661965842952,
              -0.184645853140752
            ],
            [
              111.03656158760982,
              -0.184515793099729
            ],
            [
              111.03658664189528,
              -0.184416680775982
            ],
            [
              111.03676673983178,
              -0.184264605732649
            ],
            [
              111.03698542147644,
              -0.184318208275652
            ],
            [
              111.03781535788602,
              -0.183960318690481
            ],
            [
              111.03793141102487,
              -0.184054350057022
            ],
            [
              111.03812553584409,
              -0.184049355067894
            ],
            [
              111.03818357472102,
              -0.183807231820078
            ],
            [
              111.03826461703325,
              -0.183762150076076
            ],
            [
              111.03830159322274,
              -0.183607087500659
            ],
            [
              111.03850971793345,
              -0.183432925406991
            ],
            [
              111.03853573746879,
              -0.183348838003907
            ],
            [
              111.03899100573408,
              -0.183186692603756
            ],
            [
              111.0393001943457,
              -0.182980571330975
            ],
            [
              111.0393792291185,
              -0.182871498230553
            ],
            [
              111.03949631835252,
              -0.182943535211879
            ],
            [
              111.03968347341404,
              -0.182944514666826
            ],
            [
              111.03968349005356,
              -0.183074924090412
            ],
            [
              111.03977521884009,
              -0.183066082115922
            ],
            [
              111.03987256513021,
              -0.18291346612749
            ],
            [
              111.0400046099878,
              -0.18271939827228
            ],
            [
              111.04022000491493,
              -0.1829968753991
            ],
            [
              111.04032489262913,
              -0.183050551792034
            ]
          ]
        ]
      }
    },
    {
      "type": "Feature",
      "properties": {
        "LAYER": "HGU",
        "GM_TYPE": "Unknown Area Type",
        "ELEVATION": 101.045,
        "NO_HGU": "HGU NO 208",
        "TAHUN": "2015",
        "BIDANG": "G"
      },
      "geometry": {
        "type": "Polygon",
        "coordinates": [
          [
            [
              111.06039806550136,
              -0.198930919505715
            ],
            [
              111.06044303233443,
              -0.198985232590605
            ],
            [
              111.06052395323817,
              -0.198876590154174
            ],
            [
              111.06072177802484,
              -0.19880414817456
            ],
            [
              111.06105449899644,
              -0.198849380963036
            ],
            [
              111.06138722672611,
              -0.198967036852443
            ],
            [
              111.06151312631759,
              -0.199039447972683
            ],
            [
              111.06161204632717,
              -0.1990847029885
            ],
            [
              111.06165439051117,
              -0.199087743879854
            ],
            [
              111.06170018427478,
              -0.214141832830744
            ],
            [
              111.06219367233832,
              -0.214141782201709
            ],
            [
              111.06191927918877,
              -0.214365948536452
            ],
            [
              111.06145166695119,
              -0.21426641476421
            ],
            [
              111.06130780676725,
              -0.21443843444633
            ],
            [
              111.06138427801203,
              -0.214796015754891
            ],
            [
              111.0616405953999,
              -0.215144525614057
            ],
            [
              111.06219808880336,
              -0.214827617119237
            ],
            [
              111.06341215769449,
              -0.21583236192793
            ],
            [
              111.06344817704431,
              -0.216321213785205
            ],
            [
              111.06302349918414,
              -0.216956238508208
            ],
            [
              111.06244106964257,
              -0.216665327878064
            ],
            [
              111.06161376241748,
              -0.216556779089243
            ],
            [
              111.06136193955936,
              -0.216194689598255
            ],
            [
              111.0610943233509,
              -0.216157419391813
            ],
            [
              111.06063386476774,
              -0.216850659108644
            ],
            [
              111.06073256935215,
              -0.217118149832616
            ],
            [
              111.06108329903557,
              -0.217389700117631
            ],
            [
              111.06126013265111,
              -0.218441587040396
            ],
            [
              111.06060276949218,
              -0.218894932434781
            ],
            [
              111.06024431784898,
              -0.218259632374389
            ],
            [
              111.05958895920202,
              -0.218132433719671
            ],
            [
              111.05910338007605,
              -0.218213960480755
            ],
            [
              111.05891501152695,
              -0.218086999026012
            ],
            [
              111.05861948203429,
              -0.218259034980924
            ],
            [
              111.05862849584553,
              -0.218467250787866
            ],
            [
              111.05882634652657,
              -0.218648288146517
            ],
            [
              111.0589073011584,
              -0.218874602204301
            ],
            [
              111.05854127755414,
              -0.219412267676241
            ],
            [
              111.05810966363963,
              -0.219602423931524
            ],
            [
              111.05804994343579,
              -0.219559488937657
            ],
            [
              111.05803116376626,
              -0.219394904253406
            ],
            [
              111.05809457601428,
              -0.219158726976044
            ],
            [
              111.05796163446601,
              -0.218864615477038
            ],
            [
              111.05613672661647,
              -0.217474305120559
            ],
            [
              111.05608190559623,
              -0.216537717477819
            ],
            [
              111.05530392421745,
              -0.215578851149156
            ],
            [
              111.05941769860448,
              -0.215578335479248
            ],
            [
              111.05954264268696,
              -0.2013412559019
            ],
            [
              111.04821037147822,
              -0.201342343429784
            ],
            [
              111.04820147792701,
              -0.20186402072657
            ],
            [
              111.04806978978986,
              -0.201774714334671
            ],
            [
              111.04770109535609,
              -0.201711379011172
            ],
            [
              111.04767414040246,
              -0.201946758278419
            ],
            [
              111.04770112103431,
              -0.201982967489077
            ],
            [
              111.04753926293122,
              -0.202037300709136
            ],
            [
              111.04741336329415,
              -0.201973942129045
            ],
            [
              111.04742234200111,
              -0.20182909405966
            ],
            [
              111.04732340503993,
              -0.201611832714277
            ],
            [
              111.0473953177864,
              -0.20133118436215
            ],
            [
              111.04750321979114,
              -0.20125875044886
            ],
            [
              111.04762911427513,
              -0.201267791370751
            ],
            [
              111.0477190306125,
              -0.201186306235832
            ],
            [
              111.04774599417105,
              -0.20104145647389
            ],
            [
              111.04757511809161,
              -0.200824201984957
            ],
            [
              111.04742223703893,
              -0.200715581152134
            ],
            [
              111.04736825286305,
              -0.200398733017597
            ],
            [
              111.04739522242537,
              -0.20031725389616
            ],
            [
              111.04765598594652,
              -0.200145223058834
            ],
            [
              111.04770094964957,
              -0.200163324685196
            ],
            [
              111.04772793449335,
              -0.200244798664171
            ],
            [
              111.047934774998,
              -0.200407732069562
            ],
            [
              111.0480336905473,
              -0.200398669708812
            ],
            [
              111.04808764154515,
              -0.200362452783978
            ],
            [
              111.04809662714692,
              -0.200290028347752
            ],
            [
              111.04806063462549,
              -0.200045602179889
            ],
            [
              111.04801564719088,
              -0.199774018012805
            ],
            [
              111.04803362436522,
              -0.19969253977601
            ],
            [
              111.04799764206732,
              -0.199556748966555
            ],
            [
              111.04800663108139,
              -0.199520536322534
            ],
            [
              111.0479796521908,
              -0.19950243298219
            ],
            [
              111.04797964796049,
              -0.199457168241669
            ],
            [
              111.04800062740601,
              -0.199426989761123
            ],
            [
              111.0481505052351,
              -0.19947525795404
            ],
            [
              111.04833711062149,
              -0.19961556094906
            ],
            [
              111.04836094496487,
              -0.19966353930604
            ],
            [
              111.04849223837596,
              -0.199710602173982
            ],
            [
              111.0485282062706,
              -0.199692492870374
            ],
            [
              111.04861813278302,
              -0.199719643176515
            ],
            [
              111.04865410237016,
              -0.199719639763912
            ],
            [
              111.04868108549326,
              -0.199783007819969
            ],
            [
              111.04877702078599,
              -0.199958022313207
            ],
            [
              111.04891488016325,
              -0.199701509132323
            ],
            [
              111.04882086300519,
              -0.19902365122744
            ],
            [
              111.04902839381424,
              -0.198943482175854
            ],
            [
              111.05182385834786,
              -0.19894347357567
            ],
            [
              111.05972237986433,
              -0.19895079772117
            ],
            [
              111.05972301302025,
              -0.197821674113876
            ],
            [
              111.0599728523658,
              -0.198058314046473
            ],
            [
              111.06009227900711,
              -0.198433039341886
            ],
            [
              111.06026313528969,
              -0.198451128906891
            ],
            [
              111.06049695097848,
              -0.198607870992373
            ],
            [
              111.06047898470958,
              -0.19880417128089
            ],
            [
              111.06039805869861,
              -0.198858496349429
            ],
            [
              111.06039806550136,
              -0.198930919505715
            ]
          ]
        ]
      }
    },
    {
      "type": "Feature",
      "properties": {
        "LAYER": "HGU",
        "GM_TYPE": "Unknown Area Type",
        "ELEVATION": 135.229,
        "NO_HGU": "HGU NO 209",
        "TAHUN": "2015",
        "BIDANG": "H"
      },
      "geometry": {
        "type": "Polygon",
        "coordinates": [
          [
            [
              111.0061200060009,
              -0.207147182740114
            ],
            [
              111.0063628561522,
              -0.207681293841092
            ],
            [
              111.0067675144629,
              -0.20759977689961
            ],
            [
              111.0073430710928,
              -0.20793468711833
            ],
            [
              111.00753194696901,
              -0.208269634382539
            ],
            [
              111.00776576939079,
              -0.208432567996497
            ],
            [
              111.0079726011617,
              -0.208459707410263
            ],
            [
              111.00807195759744,
              -0.208501830628685
            ],
            [
              110.99744449305214,
              -0.208551801218736
            ],
            [
              110.99744449119986,
              -0.219738063706142
            ],
            [
              110.99697576695826,
              -0.219903962567613
            ],
            [
              110.99633277929459,
              -0.219754650236367
            ],
            [
              110.99604950745007,
              -0.219713939551631
            ],
            [
              110.9958696359635,
              -0.219523841156877
            ],
            [
              110.99566279738069,
              -0.219442383468726
            ],
            [
              110.99533007363097,
              -0.219478629641916
            ],
            [
              110.99525812897998,
              -0.219442424201821
            ],
            [
              110.99518617354445,
              -0.219297580709506
            ],
            [
              110.9950333113717,
              -0.219424340483698
            ],
            [
              110.99456570339898,
              -0.219514919261976
            ],
            [
              110.99445779807068,
              -0.219578302337424
            ],
            [
              110.99439939499317,
              -0.220071706206049
            ],
            [
              110.99438599406834,
              -0.220954392040432
            ],
            [
              110.99439508462558,
              -0.221932133926072
            ],
            [
              110.99495138055755,
              -0.222301964059665
            ],
            [
              110.99510553012372,
              -0.22220365677295
            ],
            [
              110.9952224498461,
              -0.222357548760182
            ],
            [
              110.99560014362467,
              -0.222389196330782
            ],
            [
              110.99567660470508,
              -0.222624570919022
            ],
            [
              110.9952046704708,
              -0.224394513992216
            ],
            [
              110.99489893832249,
              -0.224566555720079
            ],
            [
              110.99453022824251,
              -0.224448902424884
            ],
            [
              110.99433241042341,
              -0.224648092612641
            ],
            [
              110.99396368830158,
              -0.224412748001027
            ],
            [
              110.99386472154423,
              -0.223941993010201
            ],
            [
              110.99435027919039,
              -0.223498337638303
            ],
            [
              110.99437724521185,
              -0.223380643611443
            ],
            [
              110.99416142097563,
              -0.223371612532866
            ],
            [
              110.99415242010853,
              -0.223290134878176
            ],
            [
              110.99431427297937,
              -0.223145267523429
            ],
            [
              110.99416137986414,
              -0.222964219658423
            ],
            [
              110.99389156603786,
              -0.222620226530746
            ],
            [
              110.99319911265866,
              -0.22242112721015
            ],
            [
              110.99325306396196,
              -0.222375855819799
            ],
            [
              110.99322607239331,
              -0.222240060884408
            ],
            [
              110.99257854488977,
              -0.221669776336431
            ],
            [
              110.99258749496923,
              -0.221244275891788
            ],
            [
              110.99252412740358,
              -0.221131579764571
            ],
            [
              110.99255312621517,
              -0.220911780697043
            ],
            [
              110.99246154012474,
              -0.220664884991434
            ],
            [
              110.99243524016872,
              -0.220426003022512
            ],
            [
              110.99243563562146,
              -0.205328420857232
            ],
            [
              111.00761984905952,
              -0.205328348293316
            ],
            [
              111.00765582693282,
              -0.20534863161044
            ],
            [
              111.00711047740802,
              -0.205690909483835
            ],
            [
              111.0069363797588,
              -0.205771942427169
            ],
            [
              111.00687832869075,
              -0.205921016660812
            ],
            [
              111.00694441689426,
              -0.206131178598664
            ],
            [
              111.00678330861653,
              -0.2063513206274
            ],
            [
              111.00677931153699,
              -0.206400379880669
            ],
            [
              111.00670530714483,
              -0.206448359439234
            ],
            [
              111.00669426812898,
              -0.206489452618218
            ],
            [
              111.0067122966021,
              -0.206567479764956
            ],
            [
              111.00612592983153,
              -0.206888758731323
            ],
            [
              111.00608373820947,
              -0.206957916862743
            ],
            [
              111.0061200060009,
              -0.207147182740114
            ]
          ]
        ]
      }
    },
    {
      "type": "Feature",
      "properties": {
        "LAYER": "HGU",
        "GM_TYPE": "Unknown Area Type",
        "ELEVATION": 87.6603,
        "NO_HGU": "HGU NO 207",
        "TAHUN": "2015",
        "BIDANG": "F"
      },
      "geometry": {
        "type": "Polygon",
        "coordinates": [
          [
            [
              111.03111250869357,
              -0.193949625794769
            ],
            [
              111.0310765940017,
              -0.194111979466306
            ],
            [
              111.0311300420059,
              -0.194162299326881
            ],
            [
              111.0312712963674,
              -0.194213460351818
            ],
            [
              111.03153521807029,
              -0.194496526311023
            ],
            [
              111.03168551666027,
              -0.194485784692733
            ],
            [
              111.03191104349308,
              -0.194996593077893
            ],
            [
              111.03193680068743,
              -0.195683571790054
            ],
            [
              111.03180929932802,
              -0.195987777598906
            ],
            [
              111.03207083373307,
              -0.196293583929461
            ],
            [
              111.03256112513868,
              -0.196387580367571
            ],
            [
              111.03266722341172,
              -0.196266556411148
            ],
            [
              111.03279928671444,
              -0.196281478656524
            ],
            [
              111.03299743036928,
              -0.19643161927792
            ],
            [
              111.03336664832344,
              -0.196190408844934
            ],
            [
              111.03385225924295,
              -0.1963895302156
            ],
            [
              111.03432442042534,
              -0.196797153526386
            ],
            [
              111.03449076001874,
              -0.19678780346382
            ],
            [
              111.03459865293844,
              -0.196606733360762
            ],
            [
              111.03458964395774,
              -0.196425674084967
            ],
            [
              111.03467056531426,
              -0.196307977535719
            ],
            [
              111.0350572680815,
              -0.196606690909858
            ],
            [
              111.03496737997094,
              -0.197005031401309
            ],
            [
              111.03454925820189,
              -0.197303819366812
            ],
            [
              111.03469768439027,
              -0.197856038886393
            ],
            [
              111.03487096172792,
              -0.198011198889534
            ],
            [
              111.03503942013542,
              -0.198100438148431
            ],
            [
              111.03511137436102,
              -0.198190970925163
            ],
            [
              111.03500347893849,
              -0.19831771879078
            ],
            [
              111.03493153596962,
              -0.198281513492537
            ],
            [
              111.03483440810521,
              -0.198472740119214
            ],
            [
              111.03500349729762,
              -0.198516884870339
            ],
            [
              111.03503947713571,
              -0.198625517549673
            ],
            [
              111.03497653496984,
              -0.198679841459117
            ],
            [
              111.03486862133865,
              -0.198634586532483
            ],
            [
              111.0348127157954,
              -0.198753525003901
            ],
            [
              111.03430018087494,
              -0.198753526083434
            ],
            [
              111.03180745448824,
              -0.198753531105483
            ],
            [
              111.0303721329372,
              -0.198753533825366
            ],
            [
              111.03037212891792,
              -0.211776306129504
            ],
            [
              111.02978084112264,
              -0.21190212852383
            ],
            [
              111.02905580407098,
              -0.21256210269463
            ],
            [
              111.02834565312837,
              -0.21264112264825
            ],
            [
              111.02719274954569,
              -0.212176695761281
            ],
            [
              111.02755088750844,
              -0.211999973283255
            ],
            [
              111.02734310155948,
              -0.211164685460177
            ],
            [
              111.0273790600483,
              -0.211046992435309
            ],
            [
              111.02734642490803,
              -0.210932043157313
            ],
            [
              111.02737903709821,
              -0.210811613502826
            ],
            [
              111.02733406228558,
              -0.210684875438536
            ],
            [
              111.02749593244839,
              -0.210739177673494
            ],
            [
              111.02786631373627,
              -0.210770260902082
            ],
            [
              111.02814339269685,
              -0.210748166763376
            ],
            [
              111.02841316913991,
              -0.210766246174277
            ],
            [
              111.02853937009067,
              -0.21075525065178
            ],
            [
              111.02864736473805,
              -0.21082558486595
            ],
            [
              111.02871887052311,
              -0.210322617481123
            ],
            [
              111.02855699430025,
              -0.210204944042305
            ],
            [
              111.0285030138597,
              -0.209942411457569
            ],
            [
              111.02853897853615,
              -0.209888089731225
            ],
            [
              111.02849400203839,
              -0.209743245657237
            ],
            [
              111.02843105110992,
              -0.209707039721535
            ],
            [
              111.02843104671945,
              -0.209661774564381
            ],
            [
              111.02832313071605,
              -0.209598413947792
            ],
            [
              111.02809831322905,
              -0.209544117838623
            ],
            [
              111.02793928836343,
              -0.209642356479951
            ],
            [
              111.02761556835081,
              -0.209741971667885
            ],
            [
              111.02760658463977,
              -0.209832502900809
            ],
            [
              111.02751666235687,
              -0.209859670847962
            ],
            [
              111.027389320834,
              -0.209221788351129
            ],
            [
              111.02714825698504,
              -0.209386034069012
            ],
            [
              111.02646164101824,
              -0.209145944748984
            ],
            [
              111.02565233284231,
              -0.209318031803014
            ],
            [
              111.02477101618166,
              -0.208783988333036
            ],
            [
              111.02455513862404,
              -0.208186508247513
            ],
            [
              111.02469323213018,
              -0.207712513376651
            ],
            [
              111.02477089097198,
              -0.207480349572494
            ],
            [
              111.02496873034553,
              -0.207525595604069
            ],
            [
              111.02531046445951,
              -0.207724729411799
            ],
            [
              111.02600584071864,
              -0.207669171452622
            ],
            [
              111.02608663254247,
              -0.207560325426677
            ],
            [
              111.02624849487292,
              -0.207533150576871
            ],
            [
              111.02649129572302,
              -0.207569339143936
            ],
            [
              111.02664417421077,
              -0.20763269555863
            ],
            [
              111.02677006825982,
              -0.207623630278915
            ],
            [
              111.02684199865743,
              -0.207524039863703
            ],
            [
              111.02685996368666,
              -0.207315818239142
            ],
            [
              111.02691390910752,
              -0.207216229583547
            ],
            [
              111.02712073470266,
              -0.20719810343519
            ],
            [
              111.0273186182842,
              -0.207691488141399
            ],
            [
              111.02740579858333,
              -0.20776528905997
            ],
            [
              111.02776824238079,
              -0.207686917869226
            ],
            [
              111.02785556205528,
              -0.207686909370436
            ],
            [
              111.02785982670288,
              -0.207620371547237
            ],
            [
              111.02764844548953,
              -0.207018365295714
            ],
            [
              111.0278951728045,
              -0.206583435662345
            ],
            [
              111.0282778893665,
              -0.206701448096611
            ],
            [
              111.02868704402191,
              -0.206665196323388
            ],
            [
              111.02918263251112,
              -0.20629118857996
            ],
            [
              111.02968064596288,
              -0.20595896395854
            ],
            [
              111.02962466542913,
              -0.205865055311567
            ],
            [
              111.02887021819852,
              -0.20586512816626
            ],
            [
              111.02919979892997,
              -0.205066348521448
            ],
            [
              111.02966814381278,
              -0.205168400819809
            ],
            [
              111.02983764617721,
              -0.205266807735625
            ],
            [
              111.02993230890364,
              -0.204628144933683
            ],
            [
              111.02981537984489,
              -0.204329419751854
            ],
            [
              111.02960857166276,
              -0.20452860616437
            ],
            [
              111.02953663096315,
              -0.204519560040958
            ],
            [
              111.02944671129976,
              -0.204573886832484
            ],
            [
              111.02936577297079,
              -0.20451052340705
            ],
            [
              111.02921290249938,
              -0.204528644129078
            ],
            [
              111.02911400432045,
              -0.204745912867117
            ],
            [
              111.028908027752,
              -0.204866111468323
            ],
            [
              111.02890162821316,
              -0.204949345348812
            ],
            [
              111.02870448107504,
              -0.205153468587212
            ],
            [
              111.02834627162527,
              -0.205282573006025
            ],
            [
              111.02808912459427,
              -0.20525158034468
            ],
            [
              111.02780495025728,
              -0.205054535057026
            ],
            [
              111.0275157567931,
              -0.204992471660067
            ],
            [
              111.0275297543009,
              -0.204813347205345
            ],
            [
              111.02748665373103,
              -0.204612233827949
            ],
            [
              111.02750103503986,
              -0.204510688762163
            ],
            [
              111.02746535908148,
              -0.204504656823637
            ],
            [
              111.02744137454614,
              -0.204456376264338
            ],
            [
              111.02731548054862,
              -0.204465441359925
            ],
            [
              111.02722255377985,
              -0.20441917918468
            ],
            [
              111.02715361401555,
              -0.204447350790282
            ],
            [
              111.02702772085647,
              -0.204465468921758
            ],
            [
              111.02695001441627,
              -0.20443088560045
            ],
            [
              111.02693957347132,
              -0.195494137850816
            ],
            [
              111.02716000742707,
              -0.195401367678897
            ],
            [
              111.0271823945191,
              -0.195292802165523
            ],
            [
              111.02716961068886,
              -0.19525640638876
            ],
            [
              111.02733569735543,
              -0.195137277483494
            ],
            [
              111.02732670266673,
              -0.19488809893482
            ],
            [
              111.02723161940472,
              -0.194642005640217
            ],
            [
              111.02731168930201,
              -0.194499894591848
            ],
            [
              111.02738177942837,
              -0.194573579181649
            ],
            [
              111.02770424903945,
              -0.194688125285447
            ],
            [
              111.02772790842684,
              -0.194629922292725
            ],
            [
              111.02798906641905,
              -0.194624920315401
            ],
            [
              111.02810523358629,
              -0.194511985491702
            ],
            [
              111.02822368959946,
              -0.194407517190897
            ],
            [
              111.02854652493912,
              -0.194425511866291
            ],
            [
              111.02867352603586,
              -0.194352688630882
            ],
            [
              111.02862143961016,
              -0.193988473551515
            ],
            [
              111.02885256443192,
              -0.193960393844797
            ],
            [
              111.02911149596837,
              -0.194539016552501
            ],
            [
              111.02937893396464,
              -0.194503688610786
            ],
            [
              111.02948599187692,
              -0.194331615817356
            ],
            [
              111.02950703712979,
              -0.194181454743287
            ],
            [
              111.02942093871941,
              -0.194074387066883
            ],
            [
              111.02939993677832,
              -0.193881327198389
            ],
            [
              111.0295070101711,
              -0.193881317458818
            ],
            [
              111.02980819808964,
              -0.193752220181936
            ],
            [
              111.02997927297893,
              -0.193859280118784
            ],
            [
              111.03001932675019,
              -0.193998302639247
            ],
            [
              111.03003923362203,
              -0.193954618428458
            ],
            [
              111.03038094918041,
              -0.193972693365145
            ],
            [
              111.03069567995439,
              -0.193909293548472
            ],
            [
              111.03083055480134,
              -0.193773485945399
            ],
            [
              111.03086526398913,
              -0.19356480191043
            ],
            [
              111.03097285923266,
              -0.193517960259166
            ],
            [
              111.03111250869357,
              -0.193949625794769
            ]
          ]
        ]
      }
    }
  ]
}