{
"type": "FeatureCollection",
"name": "pt_boundary",
"crs": { "type": "name", "properties": { "name": "urn:ogc:def:crs:OGC:1.3:CRS84" } },
"features": [
{ "type": "Feature", "properties": { "Id": 0, "Luas": 1727.608102, "No": "NIB. 17.04.00.00.00021" }, "geometry": { "type": "Polygon", "coordinates": [ [ [ 115.072971658004207, -2.811205600296478 ], [ 115.110178611569552, -2.793226951499035 ], [ 115.123689274783814, -2.803654134652322 ], [ 115.125206631945616, -2.805352298127208 ], [ 115.128986192959346, -2.812411910475929 ], [ 115.127961560699845, -2.81289682892702 ], [ 115.126242917277935, -2.813710195768635 ], [ 115.122873796989325, -2.815145377056973 ], [ 115.119513042194285, -2.816580875806716 ], [ 115.116141696083574, -2.81801202723272 ], [ 115.112799227203851, -2.819488968541 ], [ 115.109443615631605, -2.820838868918139 ], [ 115.110570088440028, -2.822276520644651 ], [ 115.10833314895666, -2.823615559910187 ], [ 115.107903690304454, -2.825782423319651 ], [ 115.110079441714262, -2.828599902163191 ], [ 115.110040502868202, -2.831938199987226 ], [ 115.110381517694279, -2.834261835015233 ], [ 115.107017018121994, -2.836386342155487 ], [ 115.104706376499223, -2.834898048705315 ], [ 115.101371227201497, -2.835333108336267 ], [ 115.100537091614754, -2.831885828867136 ], [ 115.097151246633743, -2.830583097930686 ], [ 115.094889945415716, -2.828507876336518 ], [ 115.089952715047062, -2.829300409286124 ], [ 115.087218069159945, -2.83149242223725 ], [ 115.086374556341795, -2.835331907740954 ], [ 115.085191590820429, -2.839151990371181 ], [ 115.082011637528396, -2.83741102160138 ], [ 115.07713929954042, -2.834756939680572 ], [ 115.076483144283046, -2.831176899593623 ], [ 115.075823571601816, -2.82761325864475 ], [ 115.075172987644549, -2.824049634782099 ], [ 115.074504416346912, -2.820485983041169 ], [ 115.073871810736804, -2.816922393353248 ], [ 115.073302149575838, -2.813358909785165 ], [ 115.072971658004207, -2.811205600296478 ] ] ] } },
{ "type": "Feature", "properties": { "Id": 0, "Luas": 1105.9764403199999, "No": "NIB. 17.04.00.00.00020" }, "geometry": { "type": "Polygon", "coordinates": [ [ [ 115.125123734239992, -2.803588615304309 ], [ 115.123981602871467, -2.802454529489286 ], [ 115.111259759219521, -2.792927067999239 ], [ 115.150672198373641, -2.773610303833254 ], [ 115.152941680682503, -2.783659852980236 ], [ 115.153169727276932, -2.789140409104222 ], [ 115.154205590883976, -2.791124519611913 ], [ 115.154204561862784, -2.796085965903333 ], [ 115.154570285019162, -2.797192891163376 ], [ 115.15630094924424, -2.79981657970256 ], [ 115.156351612179819, -2.800491652153591 ], [ 115.129892890350192, -2.811942158116824 ], [ 115.125944648286918, -2.804473774799126 ], [ 115.125123734239992, -2.803588615304309 ] ] ] } },
{ "type": "Feature", "properties": { "Id": 0, "Luas": 814.723542909, "No": "NIB. 17.04.00.00.00019" }, "geometry": { "type": "Polygon", "coordinates": [ [ [ 115.157568699887605, -2.800202457103291 ], [ 115.157423336002353, -2.799526158477422 ], [ 115.155305615707192, -2.796194913069023 ], [ 115.155305615707192, -2.790960098855514 ], [ 115.154353831304661, -2.78910411927154 ], [ 115.154163474424195, -2.783464796687892 ], [ 115.151751471825605, -2.772870902914741 ], [ 115.170340821605961, -2.763822639122737 ], [ 115.170837840094862, -2.76465624717093 ], [ 115.172037088441741, -2.766739465281706 ], [ 115.173623896260139, -2.76877360786101 ], [ 115.17647924946715, -2.771926393693308 ], [ 115.180659592323451, -2.776075376079908 ], [ 115.178799433448049, -2.779590477618046 ], [ 115.176788972034544, -2.783064633325919 ], [ 115.174120449699842, -2.787076742797583 ], [ 115.172845540849082, -2.790666337834398 ], [ 115.172670043601954, -2.793162217939881 ], [ 115.172314632615382, -2.79654515513448 ], [ 115.157568699887605, -2.800202457103291 ] ] ] } },
{ "type": "Feature", "properties": { "Id": 0, "Luas": 268.776772854, "No": "NIB. 17.04.00.00.00018" }, "geometry": { "type": "Polygon", "coordinates": [ [ [ 115.171428651202675, -2.763322454976776 ], [ 115.185794638286993, -2.756462147790901 ], [ 115.1852739361441, -2.758147099408679 ], [ 115.188103021637971, -2.760581519221877 ], [ 115.191086571988649, -2.763332255778554 ], [ 115.19225153398223, -2.768075992512422 ], [ 115.191046411863226, -2.768967521933059 ], [ 115.185899097166612, -2.77255633220829 ], [ 115.1833406635416, -2.77435486478453 ], [ 115.18164428366687, -2.775518597649802 ], [ 115.17711556300678, -2.771055703245568 ], [ 115.17475989661061, -2.768438296139265 ], [ 115.172808738585928, -2.766011245912973 ], [ 115.171428651202675, -2.763322454976776 ] ] ] } },
{ "type": "Feature", "properties": { "Id": 0, "Luas": 3782.4200306299999, "No": "NIB. 17.04.00.00.00009" }, "geometry": { "type": "Polygon", "coordinates": [ [ [ 115.075733298586755, -2.791926877251168 ], [ 115.075945350598744, -2.790444422372273 ], [ 115.074843601952225, -2.787230379378328 ], [ 115.074749721045421, -2.786941444076994 ], [ 115.073984556197715, -2.784586512241729 ], [ 115.073486730030112, -2.783054363067993 ], [ 115.073636277393547, -2.779433975797475 ], [ 115.073812990578389, -2.775817474496757 ], [ 115.073889934268848, -2.774258337035008 ], [ 115.073954814398661, -2.772943647806177 ], [ 115.074192658807831, -2.771292673804965 ], [ 115.074477594093167, -2.771017519561601 ], [ 115.085325128904884, -2.763240859178939 ], [ 115.085856313918882, -2.762870846911021 ], [ 115.088818007146756, -2.760814051526717 ], [ 115.091742524647998, -2.758805991322778 ], [ 115.094553859809352, -2.756597893149764 ], [ 115.09748059684658, -2.754392132796966 ], [ 115.100415424051164, -2.752161626050109 ], [ 115.103097569384857, -2.749952592147567 ], [ 115.105988063033891, -2.747787089307622 ], [ 115.108857693006755, -2.745602744104404 ], [ 115.111770153277746, -2.743361291837108 ], [ 115.11463978325061, -2.741219776931743 ], [ 115.117573420724753, -2.739025993199899 ], [ 115.120390702555937, -2.736884478294544 ], [ 115.123157857074602, -2.734513266087097 ], [ 115.125788612305428, -2.732132428238843 ], [ 115.128434572943974, -2.729676824480967 ], [ 115.129786106795422, -2.728192040812691 ], [ 115.130963967633292, -2.72689657467253 ], [ 115.132888893352145, -2.723985133233314 ], [ 115.133320757955914, -2.723455756351087 ], [ 115.135869630984018, -2.726025864308215 ], [ 115.138382341806093, -2.728638512492567 ], [ 115.140876611805695, -2.731182156307569 ], [ 115.143553505437055, -2.733716282279148 ], [ 115.145789651506249, -2.736032021319264 ], [ 115.149019573408282, -2.735911238108657 ], [ 115.152003191495055, -2.733850612115463 ], [ 115.155054521949737, -2.731911212432354 ], [ 115.157016726641686, -2.730666386144542 ], [ 115.160399657818843, -2.729450867863296 ], [ 115.163791593908016, -2.728226306898238 ], [ 115.167183529097372, -2.727001730645487 ], [ 115.170575462488415, -2.725777140901745 ], [ 115.173958402659125, -2.724552522381143 ], [ 115.177350347741537, -2.723318861175816 ], [ 115.180733298703586, -2.722085172093107 ], [ 115.184161128534157, -2.720905792168185 ], [ 115.187570932353751, -2.719753498924535 ], [ 115.188533592751924, -2.719429419231804 ], [ 115.190093393995767, -2.722687102727371 ], [ 115.191653200635628, -2.725944788920519 ], [ 115.192422109984136, -2.727501488291629 ], [ 115.192461103610071, -2.727580433037933 ], [ 115.193178981425717, -2.729033816257015 ], [ 115.19465680406924, -2.728213318889171 ], [ 115.196464667111499, -2.73161272204924 ], [ 115.197578145195479, -2.733683643371021 ], [ 115.187162018629692, -2.738425312927122 ], [ 115.16087148334212, -2.750625638022483 ], [ 115.146670457975375, -2.757577436202603 ], [ 115.134771249278003, -2.763492538365878 ], [ 115.118392748464686, -2.771599069431422 ], [ 115.075733298586755, -2.791926877251168 ] ] ] } },
{ "type": "Feature", "properties": { "Id": 0, "Luas": 452.00473218500002, "No": "NIB. 17.04.00.00.00012" }, "geometry": { "type": "Polygon", "coordinates": [ [ [ 115.199574005149628, -2.737364404744305 ], [ 115.12048027458161, -2.775424966818254 ], [ 115.118653933733427, -2.771799828601155 ], [ 115.125352749096592, -2.768602313594786 ], [ 115.143496879787136, -2.759649943783181 ], [ 115.154959412678622, -2.753862207275234 ], [ 115.17071382400178, -2.746504437951442 ], [ 115.197741130131206, -2.733939376845679 ], [ 115.198177470914487, -2.734798309593769 ], [ 115.199574005149628, -2.737364404744305 ] ] ] } },
{ "type": "Feature", "properties": { "Id": 0, "Luas": 90.225795475200002, "No": "NIB. 17.04.00.00.00011" }, "geometry": { "type": "Polygon", "coordinates": [ [ [ 115.104014911753609, -2.78324079634058 ], [ 115.102200806716795, -2.779583289153374 ], [ 115.118432022364487, -2.771895201071399 ], [ 115.120263652131243, -2.775545849461651 ], [ 115.104014911753609, -2.78324079634058 ] ] ] } },
{ "type": "Feature", "properties": { "Id": 0, "Luas": 155.12084082699999, "No": "NIB. 17.04.00.00.00010" }, "geometry": { "type": "Polygon", "coordinates": [ [ [ 115.103773600546305, -2.783354572294685 ], [ 115.074833416129295, -2.797370305465843 ], [ 115.075425779877008, -2.794076738250624 ], [ 115.075677131443825, -2.792345020429353 ], [ 115.101986952658834, -2.779696462267111 ], [ 115.103773600546305, -2.783354572294685 ] ] ] } },
{ "type": "Feature", "properties": { "Id": 0, "Luas": 202.08294494399999, "No": "NIB. 17.04.00.00.00015" }, "geometry": { "type": "Polygon", "coordinates": [ [ [ 115.105973150895892, -2.787855832510094 ], [ 115.073590447042719, -2.803493272296224 ], [ 115.07372083884691, -2.79994075775994 ], [ 115.074688215607438, -2.797771954188192 ], [ 115.103865067417658, -2.783494042540493 ], [ 115.105973150895892, -2.787855832510094 ] ] ] } },
{ "type": "Feature", "properties": { "Id": 0, "Luas": 251.88723530300001, "No": "NIB. 17.04.00.00.00016" }, "geometry": { "type": "Polygon", "coordinates": [ [ [ 115.108498913061283, -2.793009214627542 ], [ 115.073055849937859, -2.809897161511785 ], [ 115.07325011030558, -2.806975137891635 ], [ 115.073563864862393, -2.803745065081781 ], [ 115.106053342697422, -2.788039987919998 ], [ 115.108498913061283, -2.793009214627542 ] ] ] } },
{ "type": "Feature", "properties": { "Id": 0, "Luas": 457.93947376699998, "No": "NIB. 17.04.00.00.00013" }, "geometry": { "type": "Polygon", "coordinates": [ [ [ 115.185632958534953, -2.748835383630191 ], [ 115.176614444401764, -2.753160589388232 ], [ 115.16780305243465, -2.75750608005136 ], [ 115.158329942276268, -2.76222776349914 ], [ 115.151255513388051, -2.765808024489618 ], [ 115.146578325862066, -2.768360194706478 ], [ 115.135354252096064, -2.773706632188799 ], [ 115.128088368725102, -2.777131541408824 ], [ 115.122517811036673, -2.779697017695975 ], [ 115.120593702038377, -2.775648257277225 ], [ 115.125874444725568, -2.773169644203791 ], [ 115.142455555179637, -2.765151478431096 ], [ 115.152450716651515, -2.760222001832059 ], [ 115.161062245342919, -2.756040222121998 ], [ 115.172342972541571, -2.750596610204853 ], [ 115.183526240983184, -2.745249564746244 ], [ 115.193582675201228, -2.74039615894253 ], [ 115.19966692310183, -2.737532295547228 ], [ 115.200084644291636, -2.738311956331916 ], [ 115.202540357518373, -2.740843904353818 ], [ 115.19900312409581, -2.741925145428922 ], [ 115.195611190704852, -2.74309555011904 ], [ 115.192461103610071, -2.744187479222095 ], [ 115.192199382296394, -2.744278200877935 ], [ 115.189149961102871, -2.746160213023352 ], [ 115.185632958534953, -2.748835383630191 ] ] ] } },
{ "type": "Feature", "properties": { "Id": 0, "Luas": 103.839693944, "No": "NIB. 17.04.00.00.00014" }, "geometry": { "type": "Polygon", "coordinates": [ [ [ 115.106186334638394, -2.787752122741949 ], [ 115.104072243021136, -2.78338979342651 ], [ 115.120372542356108, -2.775710880148379 ], [ 115.12235285326949, -2.779776718622077 ], [ 115.106186334638394, -2.787752122741949 ] ] ] } },
{ "type": "Feature", "properties": { "Id": 0, "Luas": 594.46553176899999, "No": "NIB. 17.04.00.00.00017" }, "geometry": { "type": "Polygon", "coordinates": [ [ [ 115.108671745909234, -2.792779990361382 ], [ 115.106367800573324, -2.787903924875074 ], [ 115.122605417460349, -2.779993375619145 ], [ 115.146796298292458, -2.768556009420077 ], [ 115.151133298895161, -2.766190985036702 ], [ 115.164163324085578, -2.759592580858225 ], [ 115.177307052570924, -2.753101233545284 ], [ 115.184628152073756, -2.749541664476506 ], [ 115.185197598618075, -2.75062745808281 ], [ 115.186707836798277, -2.753507108466231 ], [ 115.186112795596173, -2.755432615496373 ], [ 115.160757393132926, -2.767543786708298 ], [ 115.151581299196664, -2.772148043754885 ], [ 115.146543544981384, -2.774550638745952 ], [ 115.138967341138439, -2.77818645516344 ], [ 115.111539798858587, -2.791402077729334 ], [ 115.108671745909234, -2.792779990361382 ] ] ] } }
]
}
